address,bike_stands,last_update,lat,lng,name,status
ANGLE ALEE ANDRE MURE ET QUAI ANTOINE RIBOUD,22,2017-09-29 23:36:51,45.743317,4.815747,02010 - CONFLUENCE DARSE,OPEN
Devant le n°41 rue de la Quarantaine,19,2017-09-29 23:31:10,45.75197,4.821662,5015 - FULCHIRON,OPEN
Angle rue de Marseille,29,2017-09-29 23:38:30,45.750945,4.83927,7035 - MARSEILLE / UNIVERSITÉ (FAR),OPEN
41 AV. ROGER SALENGRO (VILLEURBANNE),15,2017-09-29 23:39:20,45.7759505002626,4.87143421497628,10120 - SALENGRO / DESCARTES,OPEN
Devant la mairie du 5°,13,2017-09-29 23:32:06,45.757581,4.801023,5016 - MAIRIE DU 5°,OPEN
Angle rue de la Navigation,20,2017-09-29 23:40:43,45.787522,4.814418,9013 - QUAI PAUL SÉDALLIAN,OPEN
50 QUAI ACHILLE LIGNON,22,2017-09-29 23:38:25,45.78458,4.859664,6041 - CITÉ INTERNATIONALE / TÊTE D'OR NORD,OPEN
Face Entrée du Parc de la Tête d'Or,35,2017-09-29 23:37:37,45.779702,4.860029,10005 - BOULEVARD DU 11 NOVEMBRE,OPEN
Angle montée de la Boucle,19,2017-09-29 23:33:46,45.779186,4.840917,4012 - PLACE ADRIEN GODIEN,OPEN
133 COURS GAMBETTA,22,2017-09-29 23:37:17,45.750251,4.857919,3009 - MUSEE AFRICAIN,OPEN
17 RUE DE VERDUN (VILLEURBANNE),21,2017-09-29 23:35:19,45.784023,4.897102,10122 - VERDUN / DESGRAND,OPEN
28 RUE DU CHÂTEAU GAILLARD (VILLEURBANNE),16,2017-09-29 23:31:57,45.774754,4.887977,10091 - CHÂTEAU GAILLARD / FORT,OPEN
49 AV. GENERAL LECLERC (VILLEURBANNE),22,2017-09-29 23:34:00,45.755768,4.891542,10113 - GARE DE VILLEURBANNE,OPEN
Face au 45 quai Gillet,22,2017-09-29 23:38:18,45.777961,4.810523,4023 - PONT MAZARYK,OPEN
139 AV. FELIX FAURE,20,2017-09-29 23:40:32,45.754296,4.86359,3066 - KIMMERLING / FAURE,OPEN
Avenue Jean Jaurès - Angle rue de la Guillotière,10,2017-09-29 23:36:42,45.75251,4.846278,7008 - JEAN JAURÈS / GUILLOTIÈRE,OPEN
Entre rue Victor Hugo et rue d'Auvergne,20,2017-09-29 23:30:46,45.754688,4.829927,2023 -  HUGO / STE HÉLÈNE,OPEN
164 AV. PAUL SANTY,18,2017-09-29 23:38:48,45.725403,4.881292,8061 - STADE VUILLERMET,OPEN
"Côté nord de la place, vers l'ascenseur",22,2017-09-29 23:40:06,45.759932,4.832111,2013 - CÉLESTINS,OPEN
2 RUE DES ACACIAS VILLEURBANNE,12,2017-09-29 23:31:06,45.780422,4.904505,10119 - VILLEURBANNE SAINT JEAN,OPEN
26 RUE DE LA THIBAUDIERE,18,2017-09-29 23:40:40,45.750344,4.845048,7053 - JAURÈS / THIBAUDIÈRE,OPEN
A côté de l'église,25,2017-09-29 23:36:49,45.749565,4.887311,3012 - PLACE DU CHÂTEAU,OPEN
Rue Denfert-Rochereau / Angle rue Jacquart,14,2017-09-29 23:31:48,45.77591,4.825394,4009 - JACQUARD / DENFERT-ROCHEREAU,OPEN
Rue Colin - Angle rue Alexis Perroncel,15,2017-09-29 23:34:31,45.774581,4.87406,10089 - COLIN / PERRONCEL,OPEN
Rue Paul Bert,20,2017-09-29 23:33:12,45.757112,4.853405,3037 - PAUL BERT / GARIBALDI,OPEN
54 COURS ALBERT THOMAS,20,2017-09-29 23:39:14,45.747251,4.865386,8035 - SANS SOUCI,OPEN
Face parvis du palais des congrès,21,2017-09-29 23:32:32,45.785456,4.854085,6035 - CITÉ INTERNATIONALE,OPEN
Angle rue Horand / rue Masset,12,2017-09-29 23:34:00,45.773468,4.800286,9020 - BOURBONNAIS,OPEN
Angle rue Tupin / rue Herriot,12,2017-09-29 23:39:06,45.763065,4.83425,2016 - PLACE REGAUD,OPEN
Prox. Quai Pierre Scize,20,2017-09-29 23:39:44,45.767057,4.827014,5029 - PLACE GERSON,OPEN
Rue Anatole France/Angle av Barbusse,20,2017-09-29 23:38:31,45.768127,4.879096,10079 - ANATOLE FRANCE / BARBUSSE,OPEN
174–180 Avenue Jean Jaurès 69007 Lyon,16,2017-09-29 23:39:56,45.737503,4.837484,7009 - JEAN JAURÈS,OPEN
40 AV. LECLERC,20,2017-09-29 23:33:56,45.737745,4.824495,7045 - PARC DES BERGES,OPEN
Rue Florian/Angle Cours Tolstoï,11,2017-09-29 23:34:43,45.761801,4.880735,10018 - TOLSTOÏ / FLORIAN,OPEN
23 RUE DE LA VIABERT,16,2017-09-29 23:38:19,45.766372,4.865058,6044 - CHARMETTES / BELLECOMBE,OPEN
105 COURS ALBERT THOMAS,18,2017-09-29 23:33:50,45.745828,4.870631,3008 - INSTITUT LUMIERE,OPEN
11 PLACE ANTONIN GOURJU,20,2017-09-29 23:34:59,45.759494,4.830161,2036 - PLACE GOURJU,OPEN
Angle rue Vauban,20,2017-09-29 23:37:21,45.764821,4.841567,6032 - PRÉFECTURE / SARRAIL,OPEN
Rue du Professeur Beauvisage,20,2017-09-29 23:31:14,45.727881,4.86355,8008 - BEAUVISAGE / PRESSENSÉ,OPEN
Face ancien Palais de Justice,17,2017-09-29 23:40:28,45.7620452080746,4.82872732991442,5006 - QUAI ROMAIN ROLLAND,OPEN
64 AV. MARCEL CERDAN,29,2017-09-29 23:34:18,45.765214,4.909808,10014 - GARE L. BONNEVAY,OPEN
Rue de la Martinière,11,2017-09-29 23:40:41,45.768223,4.827533,1013 - MARTINIÈRE,OPEN
37 AV. SIDOINE APOLLINAIRE,19,2017-09-29 23:39:13,45.771034,4.79644,9010 - PISCINE DE VAISE,OPEN
Face à la poste,19,2017-09-29 23:32:40,45.758974,4.853599,3058 - PLACE DU LAC,OPEN
Angle rue Vendôme,20,2017-09-29 23:40:35,45.768896,4.844845,6004 - FOCH (FAR),OPEN
Cours de la République/Angle Anatole France,24,2017-09-29 23:40:02,45.767467,4.874032,10028 - ECOLE DE MUSIQUE,OPEN
174 COURS EMILE ZOLA,16,2017-09-29 23:32:21,45.769226,4.880491,10011 - GRATTE CIEL,OPEN
Angle Rue de la Guillotiere,13,2017-09-29 23:33:24,45.749622,4.85299,7038 - PLACE STALINGRAD,OPEN
29 RUE CHAZIERE,20,2017-09-29 23:39:33,45.775425,4.817888,4025 - CHAZIÈRE,OPEN
106 COURS VITTON (LYON 6ème),16,2017-09-29 23:32:29,45.770309,4.86196,10111 - CHARLES HERNU,OPEN
7 PLACE BENOIT CREPU,20,2017-09-29 23:37:25,45.757847,4.826103,5040 - PLACE CRÉPU,OPEN
6 RUE BANCEL,16,2017-09-29 23:31:41,45.748504,4.840505,7024 - BANCEL / CHEVREUL,OPEN
81 BVD DES Etats-Unis,20,2017-09-29 23:40:31,45.732366,4.865101,8029 - ETATS UNIS LEVIGNE,OPEN
Angle rue Hénon,22,2017-09-29 23:32:29,45.779786,4.827635,4004 - HÉNON,OPEN
16 BVD DE LA CROIX-ROUSSE,20,2017-09-29 23:33:08,45.772229,4.819389,1023 - CROIX ROUSSE / PERFETTI,OPEN
Cours Gambette - Prolongement rue Rachais,30,2017-09-29 23:32:35,45.751827,4.8526,7003 - GAMBETTA / GARIBALDI (FAR),OPEN
33 Boulevard Yves Farge 69007 Lyon,30,2017-09-29 23:40:19,45.743163,4.834165,7030 - QUARTIER GENERAL FRERE,OPEN
devant la résidence hôtelière à l'ouest de la place publique,28,2017-09-29 23:34:57,45.784812,4.856432,6042 - CITÉ INTERNATIONALE - RÉSIDENCE HÔTELIÈRE,OPEN
76 AV. LACASSAGNE,16,2017-09-29 23:31:29,45.749563,4.875934,3086 - FEUILLAT / LACASSAGNE,OPEN
12 RUE SANTOS DUMONT,17,2017-09-29 23:40:37,45.744447,4.860889,8025 - DUMONT / JOUVET,OPEN
69 RUE AUDIBERT ET LAVIROTTE,20,2017-09-29 23:31:31,45.73586,4.856888,8056 - DELORE / AUDIBERT ET LAVIROTTE,OPEN
Place de la Paix - En face de La Poste,20,2017-09-29 23:40:32,45.768023,4.831733,1031 - PLACE DE LA PAIX,OPEN
64 RUE JEUNET,18,2017-09-29 23:34:17,45.750205,4.792193,5045 - VALDO / RIVET,OPEN
158 BVD DE LA CROIX-ROUSSE,17,2017-09-29 23:39:39,45.774366,4.832716,1036 - AVEYRON,OPEN
Pierre Corneille/cours Franklin Roosevelt,20,2017-09-29 23:40:44,45.7694,4.842584,6022- PLACE MARÉCHAL LYAUTEY,OPEN
55 RUE DE LA VILLETTE,30,2017-09-29 23:34:17,45.760042,4.861734,3080 - PART-DIEU / VILLETTE (FAR),OPEN
16 PLACE CARNOT,18,2017-09-29 23:38:45,45.750116,4.82801,2004 - PERRACHE / CARNOT,OPEN
55 RUE DE BARABAN,20,2017-09-29 23:30:49,45.762055,4.868486,3101 - PATINOIRE BARABAN,OPEN
Angle Bvd de la Croix-Rousse,10,2017-09-29 23:36:39,45.774061,4.82516,4021 - TABAREAU,OPEN
3 PLACE DANTON,18,2017-09-29 23:33:15,45.7548502313005,4.85748756866509,3103 - PLACE DANTON,OPEN
Angle cours Lafayette,13,2017-09-29 23:40:24,45.763717,4.843791,6031 - LAFAYETTE/CORNEILLE,OPEN
23 RUE GORGE DE LOUP,16,2017-09-29 23:37:46,45.770136,4.80516,9049 - SERGENT BERTHET / GORGE DE LOUP,OPEN
Route de Vienne - Angle avenue Berthelot,15,2017-09-29 23:36:46,45.742639,4.850538,7023 - BERTHELOT / ROUTE DE VIENNE,OPEN
73 RUE CAZENEUVE,22,2017-09-29 23:34:34,45.731361,4.860139,8042 - FRANCIS DE PRESSENSÉ,OPEN
20 AV. JOANNES MASSET,16,2017-09-29 23:35:22,45.770508,4.800869,9044 - MASSET / SAINT PIERRE DE VAISE,OPEN
Angle cours André Philip,12,2017-09-29 23:40:38,45.772277,4.865774,10075 - GABRIEL PÉRI,OPEN
"Angle rue Anselme, face à l'IUFM",22,2017-09-29 23:31:21,45.773358,4.821234,4006 - PHILIPPE DE LASSALLE,OPEN
"Le long des grilles, côté ouest de la porte",29,2017-09-29 23:36:59,45.777521,4.844922,6002 - PORTE DES ENFANTS DU RHÔNE (FAR),OPEN
10 PLACE DE LA PAIX (VILLEURBANNE),17,2017-09-29 23:34:07,45.752074,4.91466,10016 - PLACE DE LA PAIX,OPEN
Sur le quai haut,28,2017-09-29 23:34:32,45.749431,4.834816,7033 - ST LUC / ST JOSEPH (FAR),OPEN
Rue Domer/angle rue Chevreul,12,2017-09-29 23:33:21,45.746681,4.844455,7041 - DOMER / CHEVREUL,OPEN
angle ave Rockfeller / cours Eugénie face au Bioparc,20,2017-09-29 23:31:42,45.740492,4.888084,3071 - BIOPARC,OPEN
Rue Salvador Allende / Angle promenade du Lys,10,2017-09-29 23:30:57,45.776217,4.862636,10004 - TONKIN,OPEN
Angle rue Tête d'Or,16,2017-09-29 23:33:03,45.764345,4.853492,6028 - RECAMMIER / TÊTE D'OR,OPEN
Devant la MJC,10,2017-09-29 23:40:13,45.761825,4.886156,10034 - DOCTEUR DAMIDOT,OPEN
44 BVD DES BROTTEAUX,15,2017-09-29 23:40:36,45.766284,4.856848,6045 - BROTTEAUX / VAUBAN,OPEN
2B RUE DR. ALBERIC PONT,16,2017-09-29 23:34:55,45.753452,4.804401,5047 - ALBÉRIC PONT,OPEN
3 QUAI PAUL SEDAILLAN,16,2017-09-29 23:32:15,45.797415,4.829038,9008 - L'ILE BARBE,OPEN
1 PLACE DE CROIX LUIZET,20,2017-09-29 23:33:32,45.77939,4.863068,10053 - ROSSELINI / 11 NOVEMBRE,OPEN
20 RUE VALENTIN HAUY (VILLEURBANNE),18,2017-09-29 23:37:19,45.75958,4.882739,10110 - MÉMOIRE ET SOCIÉTÉ,OPEN
10 RUE PDT P. KRUGER,16,2017-09-29 23:37:28,45.738671,4.878117,8058 - LONGEFER / KRUGER,OPEN
3 PLACE GAILLETON,16,2017-09-29 23:38:34,45.753455,4.833367,2012 - GAILLETON,OPEN
Côté route de Vienne,14,2017-09-29 23:35:41,45.735653,4.853042,8011 - PLACE LEBRET,OPEN
Devant la mairie du 4°,20,2017-09-29 23:34:28,45.774193,4.827743,4002 - MAIRIE DU 4°,OPEN
3 RUE DU CHAMP DE L'ORME (VILLEURBANNE),17,2017-09-29 23:31:15,45.771561,4.890378,10092 - MONTGOLFIER / CHATEAU GAILLARD,OPEN
Place des Maisons Neuves/Côté rue Jean Jaurès,13,2017-09-29 23:40:20,45.7563424627814,4.878336225467921,10024 - Maisons Neuves,OPEN
Place Antoinette,21,2017-09-29 23:31:17,45.753683,4.889285,3013 - PLACE ANTOINETTE,OPEN
Rue Professeur Beauvisage/Angle bd des Etats-Unis,20,2017-09-29 23:34:21,45.729771,4.868157,8006 - PLACE DU 8 MAI 1945,OPEN
"Face au 2 rue de la Poudrette, Vaulx en Velin",20,2017-09-29 23:35:49,45.76438,4.919276,12002 - POUDRETTE LA SOIE,OPEN
Rue Francis de Pressensé/angle 8 mai 1945,16,2017-09-29 23:33:00,45.769158,4.89678,10049 - PRESSENSÉ,OPEN
176–180 Rue de Gerland 69007 Lyon,12,2017-09-29 23:36:09,45.729791,4.838138,7021- CHALLEMEL LACOUR / GERLAND,OPEN
Devant l'entrée du parc,20,2017-09-29 23:35:04,45.772846,4.856274,6003 - AVENUE VERGUIN,OPEN
Angle av Michelet,12,2017-09-29 23:37:38,45.733317,4.878607,8024 - MERMOZ / MICHELET,OPEN
Angle Bld Y. Farge / rue Commandant Ayasse,20,2017-09-29 23:40:47,45.735741,4.827725,7007 - FARGE / AYASSE,OPEN
Angle rue Morellet,15,2017-09-29 23:35:06,45.774526,4.848443,6020 - MUSÉE GUIMET,OPEN
45 RUE DE LA POUDRETTE (VILLEURBANNE),25,2017-09-29 23:39:36,45.760908,4.920569,12001 - LA SOIE,OPEN
Avenue Galline/angle av. de Condorcet,15,2017-09-29 23:35:22,45.776428,4.866976,10055 - CONDORCET / GALLINE,OPEN
87 RUE DOCTEUR EDMOND LOCARD,20,2017-09-29 23:36:13,45.7598,4.796561,5044 - CHAMPVERT,OPEN
Place Charles Hernu / côté sud,32,2017-09-29 23:40:14,45.770225,4.863102,10006 - CHARPENNES (FAR),OPEN
Angle rue Vendôme,10,2017-09-29 23:33:36,45.771794,4.84459,6012 - PLACE PUVIS DE CHAVANNES,OPEN
AVENUE FELIX FAURE ANGLE VIVIER MERLE. 10M AVANT VIVIER MERLE EN DIRECTION DU RHONE,35,2017-09-29 23:34:48,45.75381,4.859795,03036 - FELIX FAURE / VIVIER MERLE,OPEN
Rue Docteur Dolard / Angle rue 4 Septembre,15,2017-09-29 23:40:06,45.761468,4.872466,10073 - INSTITUT D'ART CONTEMPORAIN,OPEN
Angle rue Emile Duport,23,2017-09-29 23:33:46,45.784334,4.812215,9014 - QUAI DU COMMERCE,OPEN
28 QUAI VICTOR AUGAGNEUR,16,2017-09-29 23:40:35,45.757192,4.840495,3097 - AUGAGNEUR / FOSSE AUX OURS (FAR),OPEN
Angle rue Chinard/rue St Cyr,13,2017-09-29 23:38:38,45.778639,4.8071,9022 - RUE MASARYK / SAINT CYR,OPEN
105 ROUTE DE GENAS (VILLEURBANNE),32,2017-09-29 23:38:39,45.754415,4.885249,10112 - PLACE DE LA RECONNAISSANCE,OPEN
FACE AU 81 QUAI JOSEPH GILLET,25,2017-09-29 23:34:57,45.788204,4.818572,04024 - LYON METROPOLE,OPEN
"170 Boulevard des Etats-Unis, Angle Avenue Viviani, direction Venissieux",20,2017-09-29 23:34:11,45.724775,4.870745,8041 - ETATS UNIS / VIVIANI,OPEN
Place Meissonier - Angle Sud-Est de la place,10,2017-09-29 23:32:39,45.766073,4.832849,1005 - MEISSONNIER,OPEN
71 COURS LAFAYETTE,15,2017-09-29 23:34:53,45.764013,4.849933,6040 - LES HALLES,OPEN
Angle rue Plessier,30,2017-09-29 23:40:39,45.751233,4.82688,2022 - PLACE CARNOT,OPEN
Angle rue Pillement,13,2017-09-29 23:40:10,45.777431,4.820526,4014 - PHILIPPE DE LASSALLE / PILLEMENT,OPEN
Devant entrée principale de l'université,26,2017-09-29 23:37:46,45.748535,4.861533,8001 - UNIVERSITÉ LYON III (FAR),OPEN
Place Victor Basch,20,2017-09-29 23:40:25,45.75377,4.848043,3005 - SAXE-GAMBETTA (FAR),OPEN
ANGLE RUE BILLON / RUE F. DE PRESSENSE,16,2017-09-29 23:33:27,45.771912,4.87907,10121 - PARC DU CENTRE,OPEN
274 COURS EMILE ZOLA (VILLEURBANNE),22,2017-09-29 23:39:58,45.767051,4.892467,10058 - MÉTRO FLACHET,OPEN
23 RUE RENAN,16,2017-09-29 23:32:44,45.746779,4.842051,7055 - SERVANT / JABOULAY,OPEN
84 avenue des Arts,30,2017-09-29 23:39:25,45.783533,4.871294,10084 - DOUA / AVENUE DES ARTS,OPEN
6 RUE ANTOINE LUMIERE,16,2017-09-29 23:34:04,45.743569,4.870083,8053 - LUMIERE / TROUILHET,OPEN
94 RUE PHILIPPE DE LASALLE,16,2017-09-29 23:34:55,45.781699,4.820596,4042 - GREGORY COUPET,OPEN
Entre rue Crillon et rue Sully,11,2017-09-29 23:38:21,45.770664,4.849946,6021- GARIBALDI,OPEN
1 PLACE DE L'ABBE LARUE,18,2017-09-29 23:36:12,45.75597,4.818904,5053 - SAINT JUST,OPEN
12 COURS CHARLEMAGNE,30,2017-09-29 23:34:24,45.747956,4.824898,2037 - PLACE DES ARCHIVES,OPEN
Rue Roquette / angle rue de Bourgogne,16,2017-09-29 23:35:40,45.775679,4.805314,9003 - PLACE VALMY,OPEN
16 RUE DES REMPARTS D'AINAY,16,2017-09-29 23:38:38,45.753077,4.829706,2038 - REMPARTS D'AINAY,OPEN
34 RUE ANTOINE LUMIERE,20,2017-09-29 23:32:48,45.740865,4.868244,8054 - MARTINIERE MONPLAISIR,OPEN
Angle rue de la Madeleine,10,2017-09-29 23:38:28,45.751073,4.848018,7039 - GUILLOTIÈRE / MADELEINE,OPEN
Avenue Jean Jaurès - Au niveau du square Galtier,40,2017-09-29 23:38:16,45.727494,4.831145,7006 - GERLAND,OPEN
12 QUAI ST VINCENT,22,2017-09-29 23:39:14,45.76791,4.819845,1006- SUBSISTANCES,OPEN
Côté Rue Philippe de Lassalle,18,2017-09-29 23:36:06,45.779332,4.820259,4007 - PLACE FLAMMARION,OPEN
30 MONTEE DES CARMELITES,16,2017-09-29 23:39:44,45.770006,4.829274,1034 - CARMÉLITES,OPEN
Rue Roger Salengro - Angle rue Vaillant,24,2017-09-29 23:40:18,45.778385,4.879673,10008 - SALENGRO / VAILLANT,OPEN
118 RUE MONCEY,18,2017-09-29 23:34:29,45.761595,4.850477,3083 - LES HALLES,OPEN
Angle bvd Anatole France,10,2017-09-29 23:31:48,45.770743,4.856713,6024 - TRONCHET / ANATOLE FRANCE,OPEN
360 BVD DE BALMONT,12,2017-09-29 23:39:26,45.789194,4.799308,9052 - BALMONT,OPEN
Rue de France/Angle Cours Emile Zola,16,2017-09-29 23:37:55,45.767957,4.887232,10012 - ZOLA / FRANCE,OPEN
Prox. Grande rue de la Croix-Rousse,21,2017-09-29 23:36:12,45.77608,4.832543,4022 - PLACE DE LA CROIX-ROUSSE,OPEN
Avenue du Cdt Lherminier/Angle rue F. de Pressensé,10,2017-09-29 23:40:29,45.771143,4.88504,10047 - LHERMINIER/PRESSENSÉ,OPEN
Angle rue Moncey / Part-Dieu,20,2017-09-29 23:35:09,45.759648,4.848139,3004 - BOURSE DU TRAVAIL (FAR),OPEN
Angle rue de la Part-Dieu,18,2017-09-29 23:38:18,45.759361,4.842308,3016 - LIBERTÉ / PART-DIEU (FAR),OPEN
Angle Henry IV,10,2017-09-29 23:30:55,45.753049,4.828297,2003 - PLACE AMPÈRE,OPEN
Angle rue Villon,20,2017-09-29 23:36:08,45.746691,4.867501,8038 - ALBERT THOMAS / VILLON,OPEN
Rue Jacques Brel/angle rue Korel,23,2017-09-29 23:40:21,45.774228,4.864269,10072 - JACQUES BREL,OPEN
74 RUE DE LA VILLETTE,30,2017-09-29 23:39:49,45.757808,4.861512,3094 - VILLETTE,OPEN
Quai Chauveau / angle Pont Koenig,19,2017-09-29 23:31:45,45.769803,4.812681,9011 - CONSERVATOIRE,OPEN
Boulevard Jean XXIII - Angle de la rue Mermoz,20,2017-09-29 23:39:51,45.73648,4.869789,8009 - JEAN XXIII / MERMOZ,OPEN
Côté rue des Marroniers,18,2017-09-29 23:39:48,45.756775,4.833917,2008 - PLACE ANTONIN PONCET (FAR),OPEN
Place Vanderpol/Angle St Pierre de Vaise,15,2017-09-29 23:40:10,45.773125,4.807831,9029 - SAINT PIERRE DE VAISE,OPEN
10 PLACE SAINTE ANNE,18,2017-09-29 23:39:41,45.757042,4.86532,3099 - PLACE SAINTE ANNE,OPEN
95 AV. DE L'EUROPE,20,2017-09-29 23:39:25,45.740052,4.85941,8010 - PLACE MENDÈS FRANCE,OPEN
6 RUE JEAN RENOIR,15,2017-09-29 23:32:43,45.752907,4.863923,3067 - HACHETTE,OPEN
Angle rue des Aqueducs,18,2017-09-29 23:31:37,45.756535,4.796616,5002 - PLACE DES COMPAGNONS DE LA CHANSON,OPEN
Au niveau de la rue Duvivier,13,2017-09-29 23:39:41,45.752553,4.855756,3039 - PLACE BIR-HAKEIM,OPEN
Angle cours Gambetta,13,2017-09-29 23:35:58,45.751123,4.855604,3053 - GAMBETTA / JUSSERAND (FAR),OPEN
Entre Herriot et République,15,2017-09-29 23:39:03,45.758733,4.834136,2024 - RÉPUBLIQUE / MAUPIN,OPEN
3 RUE JEAN DE TOURNES,16,2017-09-29 23:32:14,45.760762,4.834305,2014 - JACOBINS,OPEN
2 RUE DES BIENVENUS,15,2017-09-29 23:39:35,45.777873,4.884238,10083 - CHATEAU GAILLARD / BIENVENUS,OPEN
Rue de la République,15,2017-09-29 23:35:56,45.762184,4.836023,2017 - RÉPUBLIQUE / FERRANDIÈRE (FAR),OPEN
Angle rue Docteur Long/av. Lacassagne,13,2017-09-29 23:40:40,45.748193,4.880641,3051 - PLACE HENRI,OPEN
Rue Tissot / angle rue de Bourgogne,16,2017-09-29 23:39:33,45.777287,4.803297,9006 - THÉÂTRE NOUVELLE GÉNÉRATION,OPEN
Rue Antoine Primat/Angle rue Decorps,16,2017-09-29 23:35:12,45.757173,4.89998,10032 - PRIMAT / DECORPS,OPEN
Angle République / rue de la Barre,18,2017-09-29 23:40:28,45.758,4.834594,2001 - BELLECOUR / RÉPUBLIQUE (FAR),OPEN
Angle cours Charlemagne,14,2017-09-29 23:35:04,45.745528,4.82359,2006 - PLACE DE L'HIPPODROME,OPEN
Rue de la Platière - Angle quai de la Pêcherie,17,2017-09-29 23:38:18,45.765944,4.831089,1016 - PÊCHERIE,OPEN
103 ave des Arts / rue des Sports,30,2017-09-29 23:34:49,45.784526,4.877482,10103 - DOUA / RUE DES SPORTS,OPEN
96 RUE ALEXIS PERRONCEL (VILLEURBANNE),17,2017-09-29 23:40:38,45.775409,4.880261,10080 - VAILLANT / PERRONCEL,OPEN
Cours E. Zola / Angle passage Rey,19,2017-09-29 23:34:12,45.770099,4.876728,10074 - ZOLA / PASSAGE REY,OPEN
101 AV. BARTHELEMY BUYER,22,2017-09-29 23:33:50,45.762013,4.802751,5055 - BUYER / APOLLINAIRE,OPEN
173 AV. PAUL KRUGER (VILLEURBANNE),22,2017-09-29 21:07:26,45.754181,4.90528,10115 - PLACE D'ESPAGNE / STADE KRUGER,OPEN
Intersection Rockefeller / Esquirol,19,2017-09-29 23:36:26,45.741336,4.885538,3024 - ROCKEFELLER / ESQUIROL,OPEN
Rue Garibaldi - Angle avenue Berthelot,10,2017-09-29 23:32:02,45.743756,4.847406,7011 - BERTHELOT / GARIBALDI,OPEN
54 BVD PINEL,30,2017-09-29 23:37:54,45.748286,4.896975,3091 - HOPITAL NEUROLOGIQUE,OPEN
43 RUE PIERRE BARATIN (VILLEURBANNE),16,2017-09-29 23:38:29,45.763139,4.900492,10035 - BOIRON GRANGÉ,OPEN
17 RUE D'AUSTERLITZ,18,2017-09-29 23:31:13,45.775435,4.83512,4041 - BOUSSANGES / AUSTERLITZ,OPEN
65 RUE MAZENOD,16,2017-09-29 23:40:41,45.75882,4.846453,3088 - PLACE GUICHARD,OPEN
Rue Anatole France,13,2017-09-29 23:37:21,45.76884,4.884276,10059 - ANATOLE FRANCE / ZOLA,OPEN
Face au 54 Boulevard Ambroise Paré,24,2017-09-29 23:37:48,45.736289,4.883667,8040 - AMBROISE PARÉ,OPEN
Angle avenue Thiers,16,2017-09-29 23:35:54,45.766002,4.86218,6016 - VIABERT / THIERS,OPEN
Entre la cathédrale et le funiculaire,29,2017-09-29 23:35:58,45.760468,4.826548,5004 - ST JEAN (FAR),OPEN
126 RUE DU 8 MAI 1945 (VILLEURBANNE),18,2017-09-29 23:36:20,45.773845,4.893851,10030 - GREUZE,OPEN
99 RUE PIERRE VOYANT (VILLEURBANNE),22,2017-09-29 23:35:35,45.767194,4.900597,10118 - VOYANT / CHAMBORD,OPEN
rue de la Technologie,30,2017-09-29 23:37:13,45.785632,4.882366,10001 - IUT / FEYSSINE,OPEN
64 BVD EUGENE REGUILLON (VILLEURBANNE),20,2017-09-29 23:39:00,45.761597,4.896386,10071 - LYCÉE MARIE CURIE,OPEN
AVENUE DU PLATEAU,12,2017-09-29 23:35:17,45.783698,4.794485,9050 - ALLEE DE L'EUROPE,OPEN
Face au 115 rue Pierre Baratin,12,2017-09-29 23:35:56,45.760603,4.900702,10087 - BARATIN,OPEN
"Avenue Birmingham, sortie tunnel mode doux côté Saöne - 69000 Lyon",20,2017-09-29 23:33:56,45.774574,4.813656,04026 - BIRMINGHAM,OPEN
1 PLACE KIMMERLING (VILLEURBANNE),16,2017-09-29 23:31:37,45.752923,4.898891,10041 - KIMMERLING,OPEN
Parvis du musée des confluences,20,2017-09-29 23:39:57,45.733388,4.818954,2020 - MUSEE DES CONFLUENCES,OPEN
Place de Trion,16,2017-09-29 23:34:02,45.757916,4.81317,5007 - PLACE DE TRION,OPEN
Angle rue Garibaldi,17,2017-09-29 23:34:19,45.760779,4.85276,3015 - SERVIENT / GARIBALDI,OPEN
92 RUE DU BOURBONNAIS,19,2017-09-29 23:40:09,45.786533,4.811446,9042 - VAISE DOCKS,OPEN
93–131 Avenue Tony Garnier 69007 Lyon,20,2017-09-29 23:32:04,45.730786,4.823733,7013 - HALLE TONY GARNIER,OPEN
Quai Gillet au  niveau de la place de la Rochette. Caluire et Cuire.,20,2017-09-29 23:40:10,45.791748,4.823595,11003 - LA ROCHETTE,OPEN
3 QUAI ANDRE LASSAGNE,16,2017-09-29 23:40:28,45.772191,4.837917,1035 - QUAI LASSAGNE,OPEN
Allée A. Lignon,27,2017-09-29 23:38:18,45.782287,4.849378,6037 - CITÉ INTERNATIONALE / INTERPOL,OPEN
184 ROUTE DE VIENNE,20,2017-09-29 23:37:36,45.732483,4.853406,8057 - VIENNE / MONTAGNY,OPEN
"Rue Felissent, angle rue de Marseille",15,2017-09-29 23:38:48,45.752989,4.841417,7014 - MARSEILLE / FÉLISSENT,OPEN
Angle rue Villon,15,2017-09-29 23:37:19,45.745018,4.866424,8007 - FRÈRES LUMIÈRE,OPEN
Place Général André - Face au 126 avenue Paul Santy,16,2017-09-29 23:40:00,45.728542,4.877279,8021 - PAUL SANTY,OPEN
Face station tram Ste Blandine,16,2017-09-29 23:40:21,45.744438,4.822152,2028- SAINTE-BLANDINE,OPEN
173 BVD PINEL (BRON),18,2017-09-29 23:40:02,45.735375,4.88954,8059 - LAENNEC / PINEL,OPEN
6 PLACE SATHONAY,15,2017-09-29 23:39:51,45.769289,4.830127,1003 - PLACE SATHONAY,OPEN
Sur l'esplanade entre la rue Hrant Dink et le 40 quai Rambaud,26,2017-09-29 23:36:54,45.739652,4.814984,2009 - CONFLUENCE DOCKS,OPEN
Face à la faculté catholique,15,2017-09-29 23:31:43,45.756813,4.828342,2011 - SALA / RUE DU PLAT,OPEN
Angle rue d'Algérie,16,2017-09-29 23:37:41,45.767736,4.832114,1001 - TERREAUX / TERME,OPEN
4 PLACE RASPAIL,22,2017-09-29 23:40:32,45.755783,4.840745,7056 - PLACE RASPAIL (FAR),OPEN
RUE MARYSE BASTIE,16,2017-09-29 23:34:14,45.740324,4.874192,8015 - BOULEVARD JEAN XXIII,OPEN
221 AV. LACASSAGNE,24,2017-09-29 23:39:25,45.745304,4.888964,3089 - TRARIEUX / LACASSAGNE,OPEN
52 AV. MARC SANGNIER (VILLEURBANNE),22,2017-09-29 23:36:39,45.759176,4.875958,10048 - PLACE MARENGO,OPEN
7 PLACE JULES GRANDCLEMENT (VILLEURBANNE),34,2017-09-29 23:35:54,45.758399,4.885601,10063 - PERRIN / JEAN JAURÈS,OPEN
66 RUE ANTOINE CHARIAL,16,2017-09-29 23:39:39,45.757864,4.868337,3085 - SACRE COEUR,OPEN
44 RUE SALA,16,2017-09-29 23:33:21,45.754468,4.833041,2041 - SALA / CHARITE,OPEN
Angle Rue de Préssensé / Flachet,10,2017-09-29 23:36:46,45.769837,4.889629,10086 - ANATOLE FRANCE,OPEN
166 RUE DU QUATRE AOUT (VILLEURBANNE),22,2017-09-29 23:40:34,45.764567,4.892349,10117 - LA PERALLIÈRE,OPEN
10 QUAI PAUL SEDAILLAN,18,2017-09-29 23:38:08,45.792478,4.820567,9041 - CARRET / SÉDALLIAN,OPEN
PLACE ROUVILLE,17,2017-09-29 23:34:16,45.769684,4.824607,1024 - ROUVILLE,OPEN
Près de la gare de St Paul,23,2017-09-29 23:39:02,45.766278,4.827425,5005 - SAINT PAUL,OPEN
80 QUAI CHARLES DE GAULLE,32,2017-09-29 23:37:23,45.784698,4.851896,6043 - CITÉ INTERNATIONALE - CINÉMA,OPEN
1 PLACE DE LA RHODIACETA,12,2017-09-29 23:37:49,45.770991,4.807578,9040 - PLACE RHODIACETA,OPEN
17 PLACE JULES FERRY,20,2017-09-29 23:38:24,45.7684,4.858972,6008 - PLACE JULES FERRY,OPEN
9 RUE PIERRE VERGER,22,2017-09-29 23:33:09,45.731716,4.874231,8060 - SANTY / BEAUVISAGE,OPEN
Place Tolozan - Angle nord-est de la place,31,2017-09-29 23:40:21,45.769508,4.837495,1022 - PLACE TOLOZAN (FAR),OPEN
Angle rue Servient,13,2017-09-29 23:40:44,45.759906,4.844511,3031 - CORNEILLE / SERVIENT,OPEN
Avenue Lacassagne,16,2017-09-29 23:31:04,45.753975,4.867336,3043 - PLACE ROUGET DE L'ISLE,OPEN
Place Jules Ferry angle rue Général Brosset face à la gare des Brotteaux,16,2017-09-29 23:40:00,45.766893,4.858922,6001 - GARE DES BROTTEAUX,OPEN
2 AV. DU BEL AIR (VILLEURBANNE),20,2017-09-29 23:40:20,45.757931,4.910776,10114 - BEL AIR / LES BROSSES,OPEN
Bvd 11 Nov./prox. arret tram Condorcet,12,2017-09-29 23:38:33,45.779062,4.866874,10038 - CONDORCET,OPEN
Avenue Antoine Saint Exupery,15,2017-09-29 23:36:09,45.758805,4.87889,10060 - SAINT EXUPÉRY,OPEN
Rue du Chariot d'Or,12,2017-09-29 23:32:52,45.77762,4.83453,4005 - PLACE BERTONE,OPEN
42 Rue de Gerland 69007 Lyon,20,2017-09-29 23:31:42,45.739827,4.840308,7031 - JAURÈS / GERLAND,OPEN
RUE DE LA FEYSSINE (VILLEURBANNE),20,2017-09-29 23:36:58,45.782994,4.890614,10043 - SALENGRO / FEYSSINE,OPEN
Rue Paul Cazeneuve - Angle du boulevard des Etats-Unis,19,2017-09-29 23:32:15,45.734027,4.862906,8037 - CAZENEUVE,OPEN
2 Rue Crépet 69007 Lyon,20,2017-09-29 23:31:42,45.740279,4.832061,7018 - LYCEE LOUISE LABE,OPEN
Côté est de la place,27,2017-09-29 23:39:14,45.760698,4.836279,2015 - PLACE DE LA RÉPUBLIQUE (FAR),OPEN
Angle Bvd de la Croix-Rousse,17,2017-09-29 23:36:11,45.776002,4.829628,4017 - PLACE DES TAPIS,OPEN
Rue des Charmettes/Angle Cours Emile Zola,24,2017-09-29 23:37:44,45.770705,4.867201,10046 - CHARMETTES/ZOLA,OPEN
Angle rue de St Cloud,28,2017-09-29 23:34:31,45.730083,4.82781,7046 - PLACE DE L'ECOLE,OPEN
Quai Claude Bernard,29,2017-09-29 23:36:09,45.751404,4.836395,7002 - UNIVERSITÉS LYON III / LYON II (FAR),OPEN
1 PLACE CHARLES BERAUDIER,32,2017-09-29 23:38:27,45.760139,4.85873,3002 - PART-DIEU / GARE SNCF (FAR),OPEN
ave G. Berger,30,2017-09-29 23:35:35,45.781008,4.871219,10102 - DOUA / G. BERGER,OPEN
Niveau rue de Sèze,14,2017-09-29 23:35:29,45.766821,4.841095,6023 - QUAI SARRAIL,OPEN
Sur le quai devant l'entrée de la piscine,15,2017-09-29 23:37:19,45.753705,4.838283,7034 - PISCINE DU RHÔNE,OPEN
Rue Chenavard - Côté place des Terreaux,18,2017-09-29 23:39:28,45.766763,4.832942,1020 - TERREAUX / CHENAVARD,OPEN
Angle Rue Rollet/Blanqui,10,2017-09-29 23:31:34,45.764812,4.884311,10064 - 4 AOÛT 1789,OPEN
43 BVD DU 11 NOVEMBRE 1918 (VILLEURBANNE),34,2017-09-29 23:40:37,45.779429,4.873992,10101 - EINSTEIN / BOULEVARD DU 11 NOVEMBRE,OPEN
16 Impasse du Pré Gaudry 69007 Lyon,30,2017-09-29 23:31:53,45.743975,4.841463,7022 - JAURÈS / LAGRANGE,OPEN
Allée Pierre de Coubertin,26,2017-09-29 23:34:09,45.724352,4.826821,7020 - PARC DE GERLAND,OPEN
sur la place Croix Luizet,22,2017-09-29 23:36:53,45.780679,4.88356,10031 - CROIX LUIZET,OPEN
Place Jean Ambre,20,2017-09-29 23:31:51,45.781574,4.832866,4011 - PLACE JEAN AMBRE,OPEN
Angle rue Serlin - Angle place de la comédie,22,2017-09-29 23:40:31,45.767524,4.836306,1002 - OPÉRA (FAR),OPEN
43 RUE VAUBECOUR,20,2017-09-29 11:54:32,45.751873,4.824763,2042 - JOFFRE / VAUBECOUR,OPEN
"Quai Arloing, Côté Saône",18,2017-09-29 23:34:25,45.773815,4.809566,9032 - PLACE DU PORT MOUTON,OPEN
49 COURS ARISTIDE BRIAND (CALUIRE),20,2017-09-29 23:37:37,45.785465,4.847838,11002 - SAINT CLAIR,OPEN
"Face rue Massena, entrée centre commercial",20,2017-09-29 23:38:47,45.762974,4.855071,3003 - PART-DIEU / DERUELLE (FAR),OPEN
Prox. métro Valmy,22,2017-09-29 23:30:46,45.774241,4.805676,9002 - MAIRIE DU 9°,OPEN
Rue Professeur Bouvier/Angle rue du 8 mai 1945,16,2017-09-29 23:39:37,45.779487,4.891692,10039 - BOUVIER,OPEN
Boulevard des Belges - Angle rue Duquesne,15,2017-09-29 23:40:24,45.773304,4.852001,6006 - BOULEVARD DES BELGES,OPEN
Place Sainte Irénée,20,2017-09-29 23:34:07,45.754978,4.812427,5008 - SAINTE IRÉNÉE,OPEN
Rue Herriot - Devant Musée des Beaux Arts,11,2017-09-29 23:40:22,45.766832,4.834267,1021 - TERREAUX / BEAUX ARTS,OPEN
Angle rue Casimir Périer,22,2017-09-29 23:40:44,45.742617,4.820464,2007 - PATINOIRE CHARLEMAGNE,OPEN
Entre rue de Bonnel et rue Rabelais,19,2017-09-29 23:40:30,45.762023,4.841053,3044 - QUAI AUGAGNEUR (FAR),OPEN
Derrière la station de tram,40,2017-09-29 23:40:22,45.76027,4.858454,3001 - PART-DIEU / VIVIER MERLE (FAR),OPEN
Angle avenue Berthelot,13,2017-09-29 23:39:40,45.738301,4.862727,8034 - BERTHELOT / VILLON,OPEN
143 RUE PAUL BERT,28,2017-09-29 23:39:24,45.757268,4.855193,3084 - DESAIX,OPEN
Devant le bâtiment de la CAFAL,40,2017-09-29 23:37:02,45.757415,4.858911,3038 - VIVIER MERLE / PAUL BERT,OPEN
Place Jean Macé - Face à la mairie,30,2017-09-29 23:38:47,45.746605,4.84246,7004 - MAIRIE DU 7ÈME (FAR),OPEN
angle quai de Bondy,16,2017-09-29 23:39:10,45.764695,4.828969,5009 - PLACE FOUSSERET,OPEN
Angle rue Nungesser et Coli,16,2017-09-29 23:35:37,45.741425,4.879733,8030 - LAËNNEC,OPEN
104 RUE DU COMMANDANT CHARCOT,15,2017-09-29 23:34:41,45.749627,4.795546,5036 - LA SALETTE,OPEN
"Avenue Aristide Briand, en face de la mairie",26,2017-09-29 23:38:18,45.766861,4.880059,10027 - MAIRIE DE VILLEURBANNE,OPEN
Boulevard Stalingrad/angle rue Charlie Chaplin,16,2017-09-29 23:36:20,45.77435,4.859157,10036 - STALINGRAD,OPEN
Angle Poulaillerie / République,22,2017-09-29 23:38:48,45.764079,4.835554,2030 - RÉPUBLIQUE / POULAILLERIE (FAR),OPEN
217b–221 Avenue Jean Jaurès 69007 Lyon,24,2017-09-29 23:40:34,45.734712,4.835486,7057 - JAURES / BOLLIER,OPEN
Rue de l'Epargne,25,2017-09-29 23:31:51,45.745939,4.851214,7052 - PARC BLANDAN,OPEN
Place Gabriel Péri,20,2017-09-29 23:37:34,45.754875,4.843627,7001 - PLACE GABRIEL PÉRI (FAR),OPEN
2 AV. DES FRERES LUMIERE,16,2017-09-29 23:37:05,45.747032,4.859612,8052 - CLINIQUE MONPLAISIR,OPEN
103 RUE PIERRE VOYANT (VILLEURBANNE),20,2017-09-29 23:36:50,45.764961,4.901018,10013 - CUSSET,OPEN
17 RUE PIZAY,22,2017-09-29 23:40:39,45.767165,4.836334,1032 - PIZAY (FAR),OPEN
Côté rue Lintier,20,2017-09-29 23:40:43,45.758149,4.830428,2002 - BELLECOUR / ST EXUPÉRY,OPEN
4 BVD EUGENE DERUELLE,20,2017-09-29 23:33:16,45.762768,4.852563,3087 - PART-DIEU / GARIBALDI,OPEN
Face entrée de la gare,22,2017-09-29 23:37:28,45.779786,4.804666,9004 - GARE DE VAISE,OPEN
Angle rue Paul Bert,30,2017-09-29 23:33:32,45.756596,4.848442,3018 - CRÉQUI / VOLTAIRE,OPEN
Avenue du 11 Nov./angle av Gaston Berger,35,2017-09-29 23:36:46,45.779066,4.871581,10056 - 11 NOVEMBRE / GASTON BERGER,OPEN
Angle Gambetta,23,2017-09-29 23:37:50,45.752967,4.850271,3029 - PLACE ARISTIDE BRIAND,OPEN
Cours Emile Zola/Angle cours de la République,18,2017-09-29 23:34:52,45.77081,4.872844,10061 - RÉPUBLIQUE,OPEN
Angle rue de Belfort,17,2017-09-29 23:34:25,45.779731,4.834708,4003- PLACE COMMANDANT  ARNAUD,OPEN
96 RUE CHEVREUL,17,2017-09-29 23:34:33,45.74541,4.847843,7064 - CROUS,OPEN
160 RUE PIERRE CORNEILLE,18,2017-09-29 23:39:56,45.757672,4.845111,3082 - PLACE BAHADOURIAN,OPEN
1 RUE DE L'ANTIQUAILLE,12,2017-09-29 23:38:46,45.758333,4.821075,5050 - THEATRE ROMAIN,OPEN
A côté du stand de fleurs,32,2017-09-29 23:35:27,45.743396,4.87897,3007 - PLACE D'ARSONVAL (FAR),OPEN
Angle Cours Vitton,20,2017-09-29 23:33:52,45.769654,4.852366,6007 - MASSÉNA,OPEN
373 AV. ANDREI SAKHAROV,12,2017-09-29 23:39:47,45.786546,4.797107,9051 - ANDREI SAKHAROV,OPEN
Place des Pavillons - Devant la bibliothèque,13,2017-09-29 23:32:13,45.7295,4.829697,7012 - PLACE DES PAVILLONS,OPEN
27–33 Rue Alexander Fleming 69007 Lyon,25,2017-09-29 23:38:32,45.727951,4.823563,7049 - CITÉ SCOLAIRE INTERNATIONALE,OPEN
Devant le lycée,20,2017-09-29 23:37:13,45.765811,4.844767,6005 - PLACE EDGAR QUINET,OPEN
Rue Pasteur - Angle avenue Berthelot,20,2017-09-29 23:39:06,45.747358,4.836009,7010 - CENTRE BERTHELOT,OPEN
2 RUE CLAUDE BERNARD (CALUIRE ET CUIRE),18,2017-09-29 23:33:58,45.785796,4.833733,11001 - GARE DE CUIRE,OPEN
135 COURS DOCTEUR LONG,16,2017-09-29 23:35:10,45.75254,4.894272,3102 - DR LONG / AUBEPINS,OPEN
COURS EMILE ZOLA (VILLEURBANNE),19,2017-09-29 23:36:45,45.766219,4.89788,10088 - 4 AOÛT 1789 / PRESSENSÉ,OPEN
192 AV. BARTHELEMY BUYER,18,2017-09-29 23:31:41,45.763906,4.792643,5054 - CHAMPVERT,OPEN
Avenue Albert Einstein au niveau du virage,40,2017-09-29 23:37:01,45.782222,4.876951,10002 - INSA (FAR),OPEN
Rue de la Madeleine - Angle rue St Lazarre,15,2017-09-29 23:40:37,45.748925,4.847714,7016 - PLACE SAINT LOUIS,OPEN
RUE GEORGES MELIES (VILLEURBANNE),24,2017-09-29 23:38:59,45.776715,4.859573,10054 - STALINGRAD / MELIÈS,OPEN
Devant la mairie du 8e,21,2017-09-29 23:35:53,45.735158,4.872803,8004 - MAIRIE DU 8ÈME,OPEN
Angle quai Romain Rolland,14,2017-09-29 23:37:04,45.763383,4.829024,5026 - RUE DE LA BALEINE,OPEN
4 PLACE LOUISE,16,2017-09-29 23:38:35,45.75118,4.884795,3079 - PLACE LOUISE,OPEN
Entre rue de Brest et rue Mercière,10,2017-09-29 23:40:16,45.762054,4.833194,2025 - MERCIÈRE / FERRANDIÈRE,OPEN
49 RUE JOLIOT CURIE,20,2017-09-29 23:37:20,45.754654,4.78821,5031- MENIVAL/J.CURIE,OPEN
86 RUE DE LA CHARITE,17,2017-09-29 23:31:31,45.749257,4.82984,2039 - CHARITÉ / RÉCAMMIER,OPEN
55 QUAI PIERRE SCIZE,21,2017-09-29 23:37:27,45.766537,4.819936,5041 - L'HOMME DE LA ROCHE,OPEN
Devant entrée de la fac,16,2017-09-29 23:34:34,45.738135,4.886885,8003 - CLAUDE BERNARD LYON I,OPEN
61 RUE DU DAUPHINE,17,2017-09-29 23:33:53,45.752779,4.868748,3100 - SISLEY / DAUPHINE,OPEN
Rue de la Bourse - Long du Collège-Lycée Ampère,20,2017-09-29 23:33:08,45.765789,4.836906,1012 - AMPÈRE / BOURSE,OPEN
303 ROUTE DE VIENNE (VENISSIEUX),20,2017-09-29 23:35:47,45.724172,4.854165,8051 - HÔPITAL ST JEAN DE DIEU,OPEN
Allée A. Lignon,23,2017-09-29 23:36:55,45.783885,4.852156,6036 - MUSÉE D'ART CONTEMPORAIN (FAR),OPEN
Avenue Debourg - Angle avenue Jean Jaurès,20,2017-09-29 23:36:09,45.73182,4.833996,7005 - DEBOURG,OPEN
Angle rue Boileau,15,2017-09-29 23:39:37,45.768395,4.849402,6011- MAIRIE DU 6ÈME,OPEN
64 AV. JEAN JAURES,20,2017-09-29 23:36:51,45.748545,4.843249,7061 - JAURES / UNIVERSITE,OPEN
101 cours Charlemagne Lyon 2 direction centre ville. Devant l'hôtel de Région,32,2017-09-29 23:37:16,45.740675,4.819284,2005 - CONFLUENCE HÔTEL DE RÉGION,OPEN
Angle rue du fort Ste Irénée / Charcot,32,2017-09-29 23:37:13,45.755054,4.807811,5030 - CHARCOT / RÉSIDENCE UNIVERSITAIRE,OPEN
97 ROUTE DE VIENNE,20,2017-09-29 23:39:17,45.738617,4.852412,8039 - PIERRE DELORE,OPEN
51 RUE DOMER,19,2017-09-29 23:38:25,45.747735,4.85162,7062 - GARIBALDI / DOMER,OPEN
Face au cours Albert Thomas,20,2017-09-29 23:32:51,45.745296,4.871604,8002- PLACE AMBROISE COURTOIS,OPEN
Av Piaton / angle Condorcet,10,2017-09-29 23:34:15,45.774204,4.867512,10007 - PIATON / CONDORCET,OPEN
49 RUE SGT BERTHET,40,2017-09-29 23:40:04,45.767484,4.805626,9033 - GORGE DE LOUP,OPEN
Devant le n°63 rue de Trion,23,2017-09-29 23:37:42,45.757319,4.815064,5001 - PLACE VARILLON (FUNICULAIRE ST JUST),OPEN
