address,bike_stands,last_update,lat,lng,name,status
MAZARGUES - ROND POINT DE MAZARGUES (OBELISQUE),21,2017-09-29 23:38:59,43.250903869637334,5.403244616491982,9087-MAZARGUES,OPEN
SAINT CHARLES MARSEILLAISES - PLACE DES MARSEILLAISES ANGLE RUE PHILIPPE DE GIRARD,19,2017-09-29 23:35:58,43.301510278747365,5.379895702048497,1301- ST CHARLES MARSEILLAISES,OPEN
ROSTAND PREFECTURE - 6 RUE EDMOND ROSTAND ANGLE RUE SYLVABELLE,15,2017-09-29 23:35:55,43.2896832563691,5.379650236474981,6217-ROSTAND - PREFECTURE,OPEN
REPUBLIQUE CATHALA - RUE DE LA REPUBLIQUE ANGLE RUE JEAN MARC CATHALA,9,2017-09-29 23:36:41,43.30056201196652,5.370488134608402,2184-REPUBLIQUE-CATHALA,OPEN
SOUS A55 AU BOUT DES DOCKS FACE AU 22 QUAI DU LAZARET 13002,22,2017-09-29 23:37:44,43.308731,5.36651,02279 - DOCKS LES TERRASSES DU PORT,OPEN
FLAMMARION NATIONAL - BOULEVARD CAMILLE FLAMMARION ANGLE BOULEVARD NATIONAL,7,2017-09-29 23:41:29,43.30353946127941,5.386356771062651,1344 - FLAMMARION NATIONAL,OPEN
JOLIETTE DUNKERQUE - PLACE DE LA JOLIETTE ANGLE BOULEVARD DUNKERQUE,14,2017-09-29 23:38:09,43.3051302607768,5.36697414687028,2272- JOLIETTE-DUNKERQUE,OPEN
PRADO BORELY - 579 AVENUE DU PRADO,9,2017-09-29 23:34:26,43.262455920908494,5.375795816171145,8068-PRADO BORELY,OPEN
LIBERATION CHAPE ESPERANDIEU - BOULAVARD LIBERATION ANGLE RUE CHAPE,12,2017-09-29 23:35:16,43.302008143688155,5.394684906357751,4238-LIBERATION-CHAPE-ESPERANDIEU,OPEN
PLACE AUX HUILES - COURS ESTIENNE D'ORVES ANGLE RUE SAINT SAENS,10,2017-09-29 23:39:44,43.29312239728256,5.371867606488009,1003-PLACE AUX HUILES,OPEN
SAINTE LULLI - 17 RUE SAINTE,15,2017-09-29 23:33:21,43.292666663006464,5.375905974276691,1216-SAINTE - LULLI,OPEN
ENDOUME CORDERIE - 41 RUE D'ENDOUME,13,2017-09-29 23:39:31,43.28923675488644,5.366479730277853,7215-ENDOUME - CORDERIE,OPEN
QUAI DU PORT - 148 QUAI DU PORT,15,2017-09-29 23:40:07,43.295414354264665,5.36552550703358,2179-QUAI DU PORT,OPEN
SCHLOESSING TEISSERE - ANGLE BOULEVARD SCHLOESSING ET RUE RAYMOND TEISSERE,16,2017-09-29 23:35:59,43.2693522531282,5.402740962235228,9085-SCHLOESING TEISSERE,OPEN
PAUL PEYTRAL - 35 BOULEVARD PAUL PEYTRAL,9,2017-09-29 23:33:49,43.289985879061746,5.379124641857261,6100-PAUL PEYTRAL,OPEN
391 MICHELET - 391 BOULEVARD MICHELET,19,2017-09-29 23:33:49,43.25402727813068,5.401873594694653,8149-391 MICHELET,OPEN
TEISSEIRE ROUBAUD - ANGLE RUE RAYMOND TEISSEIRE ET RUE MAGUY ROUBAUD,10,2017-09-29 23:38:23,43.27252367086013,5.399686062414487,9207- TEISSEIRE - ROUBAUD,OPEN
ROME ITALIE BERLIOZ - FACE AU 10 RUE BERLIOZ,15,2017-09-29 23:32:42,43.28892000857008,5.383105742132375,6254-ROME - BERLIOZ - ITALIE,OPEN
FLAMMARION GROBET - BOULEVARD CAMILLE FLAMMARION ANGLE RUE LOUIS GROBET,15,2017-09-29 23:39:15,43.3046818705083,5.3901483781149,1343 - FLAMMARION GROBET,OPEN
LODI VILLAGE - FACE AU 89 RUE DE LODI,15,2017-09-29 23:40:05,43.2886166717576,5.387779642713593,6113-LODI VILLAGE,OPEN
NATIONAL LONGCHAMP - 1 BD NATIONAL ANGLE LONGCHAMP,15,2017-09-29 23:37:43,43.30123319837804,5.387773261785004,1130- NATIONAL LONGCHAMP,OPEN
CORNICHE RAPATRIES - CORNICHE J.F. KENNEDY FACE AU MEMORIAL DES RAPATRIES EN DIRECTION DU VIEUX PORT,15,2017-09-29 23:38:59,43.270172262619184,5.365239906973955,7142-CORNICHE RAPATRIES,OPEN
MICHELET HUVEAUNE - ANGLE BOULEVARD MICHELET ET RUE JACQUES PICON,15,2017-09-29 23:34:16,43.26796549967643,5.393967016838425,8147 - MICHELET HUVEAUNE,OPEN
BELLE DE MAI CADENAT - PLACE BERNARD CADENAT,15,2017-09-29 23:36:27,43.31181964585524,5.387375678428276,3320 - BELLE DE MAI CADENAT,OPEN
BAILLE FRIEDLAND - BOULEVARD BAILLE ANGLE RUE DE FRIEDLAND,17,2017-09-29 23:38:27,43.2865946021474,5.38678589001619,6177-BAILLE FRIEDLAND,OPEN
Parvis entrée parc Chanot,20,2017-09-29 23:35:58,43.2722414899425,5.39166970262158,8307-PRADO MICHELET,OPEN
RUE GEORGES - 28 RUE GEORGES,15,2017-09-29 23:39:41,43.29748821146523,5.397731278573822,5103-RUE GEORGES,OPEN
ROOSEVELT REFORMES - 7 COURS FRANKLIN ROOSEVELT,10,2017-09-29 23:39:54,43.29908095432929,5.38661231791721,1230-ROOSEVELT - REFORMES,OPEN
SAINT CHARLES LECLERC ZATTARA - AVENUE DU GENERAL LECLERC ANGLE RUE ANTOINE ZATTARA,12,2017-09-29 23:39:47,43.30380276644441,5.377690136115547,1345 - SAINT CHARLES LECLERC ZATTARA,OPEN
RABATAU TEISSEIRE - ANGLE BOULEVARD RABATAU ET FACE AU 68 RUE RAYMOND TEISSEIRE,15,2017-09-29 23:32:09,43.27524269246836,5.396409806138883,8257-RABATAU - TEISSEIRE,OPEN
REPUBLIQUE COUTELLERIE - RUE DE LA REPUBLIQUE ANGLE RUE DE LA COUTELLERIE,8,2017-09-29 23:38:05,43.296824934966864,5.373860886192452,1346- REPUBLIQUE COUTELLERIE,OPEN
ST FERREOL DAVSO - RUE FRANCIS DAVSO ANGLE RUE SAINT FERREOL,16,2017-09-29 23:31:56,43.293485736186526,5.378423799723321,1297- ST FÉRRÉOL DAVSO,OPEN
MICHELET LUCE - ANGLE BOULEVARD MICHELET ET BOULEVARD LUCE,14,2017-09-29 23:39:23,43.25850879475187,5.398913930872658,9074-MICHELET LUCE,OPEN
LA PLAINE SUD - RUE DES TROIS MAGES ANGLE PLACE JEAN JAURES,14,2017-09-29 23:40:51,43.29441078214159,5.38545312564012,1228-LA PLAINE SUD,OPEN
BAILLE CONCEPTION  - 145 BOULEVARD BAILLE,13,2017-09-29 23:34:01,43.28872669088929,5.39403885378465,5107-BAILLE CONCEPTION,OPEN
RPUBLIQUE DAMES - 68 BOULEVARD DES DAMES,5,2017-09-29 23:36:28,43.30255028371949,5.369497428189588,2030-REPUBLIQUE DAMES,OPEN
SAKAKINI SAINT PIERRE - BOULEVARD SAKAKINI ANGLE RUE SAINT PIERRE,10,2017-09-29 23:38:51,43.292800863545835,5.401285286456447,5058 -SAKAKINI - SAINT PIERRE,OPEN
2 RUE CAPITAINE DESSEMOND,14,2017-09-29 23:35:23,43.2884327278463,5.3586207351308,7027-PLACE DU 4 SEPTEMBRE,OPEN
ROUET - 48 RUE DU ROUET,15,2017-09-29 23:36:16,43.28350144850817,5.386461522334788,6208-ROUET,OPEN
GRAND RUE - FACE AU 35 GRAND'RUE,20,2017-09-29 23:37:05,43.29780955608182,5.370835093727862,2012-GRAND RUE,OPEN
CANEBIERE REINE ELISABETH - CANEBIERE ANGLE REINE ELISABETH,14,2017-09-29 23:37:54,43.295686109850145,5.375339514183368,1001 - CANEBIERE REINE ELISABETH,OPEN
ESCALE BORELY POINTE ROUGE - ESCALE BORELY EN DIRECTION DE L'AVENUE POINTE ROUGE,10,2017-09-29 23:34:55,43.25394372546869,5.37599738915791,8144-ESCALE BORELY POINTE ROUGE,OPEN
PRADO GABES - AVENUE DU PRADO ANGLE BD DE GABES,15,2017-09-29 23:32:08,43.2668438148239,5.38279581908046,8067-PRADO GABES,OPEN
88 CORNICHE KENNEDY - 88 CORNICHE J.F. KENNEDY,15,2017-09-29 23:39:35,43.284213979400505,5.349696475467313,7062-88 CORNICHE - KENNEDY,OPEN
BEAUVAU CANEBIERE - RUE BEAUVAU,15,2017-09-29 23:40:02,43.29542125608577,5.375165446771129,1210-BEAUVAU - CANEBIERE,OPEN
28 Quai de Rive Neuve - angle rue Plan Fourmiguier,12,2017-09-29 23:33:24,43.292601,5.368569,7349 - LA CRIEE,OPEN
CASTELLANE - ROND POINT CASTELLANE DEVANT LE CAFE DE PARIS,20,2017-09-29 23:41:02,43.286046362122946,5.383285575102103,6023- CASTELLANE,OPEN
BLANCARDE - GARE DE LA BLANCARDE,14,2017-09-29 23:41:44,43.29626340517055,5.406000803377506,4293- BLANCARDE,OPEN
PARC PASTRE - ANGLE AVENUE DE MONTREDON ET AVENUE D'OUTRE MER,10,2017-09-29 23:34:48,43.23984252335505,5.366506599649465,8313- PARC PASTRE,OPEN
GAMBETTA LAFAYETTE - 6 ALLEES LEON GAMBETTA,15,2017-09-29 23:34:34,43.29902793826475,5.381500046726694,1245-GAMBETTA - LAFAYETTE,OPEN
PROMENADE POMPIDOU AMIRAL MUSELIER - PROMENADE GEORGES POMPIDOU DEVANT LA PLACE AMIRAL MUSELIER,15,2017-09-29 23:31:44,43.26469407213291,5.373281108125947,8132-PROMENADE POMPIDOU AMIRAL MUSELIER,OPEN
ESCALE BORELY - ANGLE ESCALE BORELY ET AVENUE BONNEVEINE,20,2017-09-29 23:41:36,43.25505597847173,5.376413023650641,8145-ESCALE BORELY,OPEN
PUGETTE ANDRE - ANGLE AVENUE DU GENERAL ANDRE FACE AU 23 BOULEVARD DE LA PUGETTE,15,2017-09-29 23:34:24,43.268405140653144,5.400635371105712,9219-PUGETTE - ANDRE,OPEN
ROND POINT DU PRADO - 300 AVENUE DU PRADO,21,2017-09-29 23:39:13,43.27278734452526,5.391048744484495,8134-ROND POINT DU PRADO,OPEN
JOLIETTE FORBIN - PLACE DE LA JOLIETTE ANGLE RUE DE FORBIN,15,2017-09-29 23:32:20,43.3047137105911,5.36771555892562,2341- JOLIETTE FORBIN,OPEN
PROMENADE POMPIDOU DAVID -  PROMENADE GEORGES POMPIDOU AU NIVEAU DU ROND POINT DE DAVID,15,2017-09-29 23:38:25,43.26178202177259,5.374505152575336,8131-PROMENADE POMPIDOU DAVID,OPEN
153 PARADIS - 153 RUE PARADIS,14,2017-09-29 23:31:43,43.28683835122117,5.379450180172236,6160-153 PARADIS,OPEN
FOCH FAYOLLE - ANGLE AVENUE MARECHAL FOCH ET RUE MARECHAL FAYOLLE,20,2017-09-29 23:41:20,43.301185515493664,5.398630311705657,4111-FOCH FAYOLLE,OPEN
FORBIN PARIS - RUE DE FORBIN ANGLE BOULEVARD DE PARIS,13,2017-09-29 23:38:14,43.30598895681527,5.37224035119238,2323 -FORBIN PARIS,OPEN
MAZARGUES ALMERAS - ANGLE AVENUE DE MAZARGUES ET IMPASSE ALMERAS,13,2017-09-29 23:32:59,43.25096285100345,5.39517783172075,9260- MAZARGUES - ALMERAS,OPEN
REPUBLIQUE PLUMIER - RUE DE LA REPUBLIQUE ANGLE RUE PLUMIER,10,2017-09-29 23:34:43,43.304190155898155,5.367786407891749,2327- RÉPUBLIQUE PLUMIER,OPEN
CENTRE BOURSE - RUE BIR HAKEIM ENTREE CENTRE BOURSE,15,2017-09-29 23:36:58,43.297138004748,5.377103061958931,1005-CENTRE BOURSE,OPEN
LIVON VIEUX PORT - 36 BOULEVARD CHARLES LIVON,15,2017-09-29 23:35:42,43.29224532184672,5.360224853219125,7146-LIVON VIEUX PORT,OPEN
BAILLE PAURIOL - 114 BOULEVARD BAILLE ANGLE RUE PAURIOL,7,2017-09-29 23:40:44,43.287814455889425,5.391331392803749,5024-BAILLE PAURIOL,OPEN
COURS JEAN BALLARD - 5 COURS JEAN BALLARD,10,2017-09-29 23:34:08,43.29336790915692,5.374638177288532,1006-COURS JEAN BALLARD,OPEN
PARADIS LORD DUVEEN - 395 RUE PARADIS,10,2017-09-29 23:38:17,43.275618147775035,5.384455147739253,8246-PARADIS - LORD DUVEEN,OPEN
PRADO PERIER - 127 AVENUE DU PRADO,13,2017-09-29 23:40:56,43.27974214607358,5.387431047255536,8053-PRADO - PERIER,OPEN
36 Promenade du grand large 13008 MARSEILLE,18,2017-09-29 23:35:23,43.2401105233508,5.36279808285144,913 - PLAGES DES DAMES,OPEN
MENDES FRANCE HUVEAUNE - AVENUE PEIRRE MENDES FRANCE DEVANT L'ENTREE DU PARC BORELY,18,2017-09-29 23:39:32,43.260217853801166,5.37544360265886,8066-MENDES FRANCE HUVEAUNE,OPEN
318 MAZARGUES - FACE AU 318 AVENUE DE MAZARGUES,15,2017-09-29 23:36:15,43.260699609117914,5.393973899334583,8261- 318 MAZARGUES,OPEN
GENERAL DE GAULLE PARADIS - PLACE GENERAL DE GAULLE FACE AU 11 RUE PARADIS,10,2017-09-29 23:39:07,43.29494730625887,5.37602674729877,1004-GENERAL DE GAULLE PARADIS,OPEN
PLACE CORDERIE - AU CENTRE DE LA PLACE CORDERIE,15,2017-09-29 23:41:20,43.29076433240633,5.372259932395231,6020-PLACE DE LA CORDERIE,OPEN
CHAVE CAMAS - BOULEVARD CHAVE ANGLE RUE DU CAMAS,13,2017-09-29 23:38:05,43.29581102315005,5.396312199117862,5280-CHAVE CAMAS,OPEN
CORNICHE LE PROPHETE - 327 CORNICHE J.F KENNEDY FACE A LA PLAGE DU PROPHETE EN DIRECTION DU VIEUX PORT,16,2017-09-29 23:41:46,43.27370831724611,5.362608275091751,7064-CORNICHE  LE PROPHETE,OPEN
POINTE ROUGE MONTREDON - ANGLE AVENUE ODESSA ET AVENUE MONTREDON,17,2017-09-29 23:35:13,43.243802055963265,5.370540756635374,8290- POINTE ROUGE - MONTREDON,OPEN
MAZARGUES BARRAL - ANGLE AVENUE DE MAZARGUES ET BOULEVARD BARRAL,12,2017-09-29 23:37:54,43.263999455764186,5.392402358314715,8262-MAZARGUES-BARRAL,OPEN
SAINT CHARLES FACULTE - BOULEVARD GUSTAVE DESPLACES ANGLE AVENUE DU GENERAL LECLERC,15,2017-09-29 23:36:25,43.304244359587024,5.378292250179226,1316 -ST CHARLES FACULTÉ,OPEN
LIVON PASTEUR - BOULEVARD CHARLES LIVON ANGLE ESPLANADE DU PHARO,20,2017-09-29 23:33:08,43.29198908246378,5.357823161216201,7025-LIVON PASTEUR,OPEN
91 LIBERATION - 91 BOULEVARD DE LA LIBERATION,10,2017-09-29 23:37:48,43.30050650960441,5.389298285180646,2221-91 LIBÉRATION,OPEN
PROMENADE POMPIDOU PALM BEACH - 6 PROMENADE GEORGES POMPIDOU,15,2017-09-29 23:41:37,43.267272515671856,5.372088524255505,8065-PROMENADE POMPIDOU PALM BEACH,OPEN
SAKAKINI CHAVE - 236 BOULEVARD CHAVE EN DIRECTION DE SAKAKINI,12,2017-09-29 23:36:47,43.29570956843267,5.399877070301781,5060-SAKAKINI CHAVE,OPEN
PRADO PARADIS - 390 AVENUE DU PRADO,10,2017-09-29 23:35:23,43.26954179693142,5.386273779435491,8255-PRADO - PARADIS,OPEN
PLACE SEBASTOPOL - 20 PLACE SEBASTOPOL,10,2017-09-29 23:36:56,43.298680879912176,5.397216233775408,4057-PLACE SEBASTOPOL,OPEN
HAMBOURG RONT POINT GUERRE - BOULEVARD DE HAMBOURG ANGLE ROND POINT PIERRE GUERRE,15,2017-09-29 23:40:04,43.249867874570256,5.389411648303773,8093-HAMBOURG ROND POINT GUERRE,OPEN
CORNICHE ENDOUME - 126 CORNICHE J.F. KENNEDY,15,2017-09-29 23:36:46,43.28250633472905,5.350628425025786,7138-CORNICHE  ENDOUME,OPEN
FLAMMARION MONTRICHET - PLACE LE VERRIER ANGLE BD FLAMMARION ET  BD MONTRICHET,10,2017-09-29 23:37:26,43.305993453766845,5.393678259953781,4342 - FLAMMARION MONTRICHET,CLOSED
JULIEN 3 MAGES - COURS JULIEN ANGLE RUE DES TROIS MAGES,7,2017-09-29 23:31:40,43.29562159175117,5.382390401095631,1275- JULIEN - 3 MAGES,OPEN
DELPUECH CORINTHE - 29 BOULEVARD DELPUECH,15,2017-09-29 23:37:09,43.28292930261343,5.39109605124139,6187-DELPUECH CORINTHE,OPEN
SAINTE NOTRE DAME - 70 RUE SAINTE ANGLE RUE FORT NOTRE DAME,10,2017-09-29 23:41:01,43.291634709693945,5.371370384862697,7212-SAINTE - NOTRE DAME,OPEN
PLAINE ST PIERRE - RUE SAINT PIERRE ANGLE PLACE JEAN JAURES,17,2017-09-29 23:36:53,43.293880006338135,5.386729879719248,1226-PLAINE-ST PIERRE,OPEN
PASTEUR - 25 AVENUE PASTEUR,16,2017-09-29 23:39:52,43.290716834278136,5.359258014511654,7151-PASTEUR,OPEN
LANCIER MARTHELINE - ANGLE CHEMIN DU LANCIER ET AVENUE DE LA  MARTHELINE,15,2017-09-29 23:39:54,43.24759828978683,5.397126739923842,9259-LANCIER-MARTHELINE,OPEN
BAILLE HOPITAL CONCEPTION - BOULEVARD BAILLE FACE A L'ENTREE PRINCIPALE DE L'HOPITAL DE LA CONCEPTION,13,2017-09-29 23:35:02,43.28936342586655,5.39631317835792,5284 - BAILLE-HOPITAL-CONCEPTION,OPEN
DAMES TERRAS - BOULEVARD DES DAMES ANGLE RUE DU TERRAS,9,2017-09-29 23:38:28,43.301805741199246,5.372302255725486,2240-DAMES - TERRAS,OPEN
COLBERT SAINTE BARBE - RUE COLBERT ANGLE RUE SAINTE BARBE,11,2017-09-29 23:38:11,43.29924603474944,5.374740047327954,1302-COLBERT -SAINTE BARBE,OPEN
CATALANS CORNICHE - 69 CORNICHE J.F. KENNEDY ANGLE RUE DES CATALANS,15,2017-09-29 23:39:47,43.28985620147398,5.355962903211387,7026-CATALANS CORNICHE,OPEN
HOTEL DE VILLE - Face au 42 QUAI DU PORT,32,2017-09-29 23:41:26,43.2961387765145,5.3707713851323,1002-HOTEL DE VILLE,OPEN
CANTINI ROUET - FACE AU 27 AVENUE JULES CANTINI,24,2017-09-29 23:41:08,43.284775983612235,5.385593763617925,6176-CANTINI ROUET,OPEN
REPUBLIQUE MOISSON - RUE DE LA REPUBLIQUE ANGLE RUE FRANCOIS MOISSON,10,2017-09-29 23:34:58,43.30179774806541,5.369716218117023,2304 - RÉPUBLIQUE MOISSON,OPEN
CANEBIERE SAINT FERREOL - ANGLE CANEBIERE SAINT FERREOL,10,2017-09-29 23:37:57,43.29620767061392,5.37693066220596,1191-CANEBIERE-ST FERREOL,OPEN
JULIEN BARTHELEMY - 9 RUE 3 FRERES BARTHELEMY,10,2017-09-29 23:41:13,43.292604598053984,5.384138435260716,6114-JULIEN BARTHELEMY,OPEN
151 LIBERATION - 151 BOULEVARD DE LA LIBERATION,10,2017-09-29 23:36:33,43.30143187524121,5.392179383331833,2222-151 LIBERATION,OPEN
SAINT CHARLES VOLTAIRE LIBERTE - BOULEVARD VOLTAIRE ANGLE BOULEVARD DE LA LIBERTE,17,2017-09-29 23:33:29,43.30236655745069,5.383955032544848,1299- ST CHARLES VOLTAIRE LIBERTÉ,OPEN
BEAUVAU SUFFREN - RUE BEAUVAU ANGLE RUE BAILLI DE SUFFREN,10,2017-09-29 23:33:10,43.294774773558274,5.375131220340518,1211-BEAUVAU - SUFFREN,OPEN
"Bd du Littoral, 100 m avant le Mucem, devant l’entrée du parking Vieux Port Fort St Jean, direction vieux port",26,2017-09-29 23:34:23,43.2984594666424,5.36291062831879,2200-MUCEM,OPEN
STALINGRAD REFORMES - SQUARE STALINGRAD,17,2017-09-29 23:34:15,43.29952097558015,5.385047448641554,1287- STALINGRAD - RÉFORMÉS,OPEN
PRADO LATIL - 247 AVENUE DU PRADO,10,2017-09-29 23:39:07,43.274352269730755,5.390405906592448,8308-PRADO LATIL,OPEN
397 PRADO - 397 AVENUE DU PRADO,13,2017-09-29 23:41:23,43.26869900851042,5.385552216536626,8202-397 PRADO,OPEN
BELLE DE MAI FRICHE - ANGLE RUE GUIBAL ET RUE JOBIN,15,2017-09-29 23:37:30,43.30958891338201,5.39024943158741,3321 - BELLE DE MAI FRICHE,OPEN
angle rue de rome rue sylvabelle,12,2017-09-29 23:35:50,43.290022,5.381324,06253 - ROME SYLVABELLE,OPEN
PIERRE PUGET BRETEUIL - COURS PIERRE PUGET ANGLE RUE BRETEUIL,8,2017-09-29 23:36:17,43.290329770206334,5.375548341850035,6154-PIERRE PUGET BRETEUIL,OPEN
CANEBIERE DUGOMMIER - LA CANEBIERE ANGLE BOULEVARD DUGOMMIER,10,2017-09-29 23:41:16,43.29789631329341,5.381132215559973,1264 - CANEBIÈRE DUGOMMIER,OPEN
TOULON MENPENTI - ANGLE AVENUE DE TOULON ET RUE MENPENTI,16,2017-09-29 23:32:25,43.284456097132846,5.392112767343369,6206-TOULON - MENPENTI,OPEN
CHAVE EUGENE PIERRE - BOULEVARD CHAVE ANGLE BOULEVARD EUGENE PIERRE,10,2017-09-29 23:31:42,43.295363145406,5.390871390171412,5104-CHAVE EUGÈNE PIERRE,OPEN
JEAN MOULIN BAILLE - BOULEVARD JEAN  MOULIN ANGLE BOULEVARD BAILLE,15,2017-09-29 23:35:38,43.2902407800378,5.39960982405674,5106-JEAN MOULIN BAILLE,OPEN
ROOSEVELT ORAN - 53 COURS FRANKLIN ROOSEVELT ANGLE RUE D'ORAN,10,2017-09-29 23:36:15,43.29899195650368,5.388799115293999,5220-ROOSEVELT - ORAN,OPEN
PRADO DUVEEN - 72 AVENUE DU PRADO,19,2017-09-29 23:38:32,43.27654702249427,5.388799649683594,8309- PRADO DUVEEN,OPEN
NEGRESKO PAULET - FACE AU 42 RUE NEGRESKO,15,2017-09-29 23:35:27,43.269318556371154,5.389387542314263,8265- NÉGRESKO - PAULET,OPEN
DAMES SCHUMANN - 96 BOULEVARD DES DAMES,13,2017-09-29 23:37:38,43.30331167287617,5.366730359523051,2032- DAMES  SCHUMANN,OPEN
CORSE SAINT MAURICE - 28 AVENUE DE LA CORSE ANGLE RAMPE SAINT MAURICE,10,2017-09-29 23:32:11,43.28946760889984,5.36370990786361,7153-CORSE ST MAURICE,OPEN
VIEILLE CHAPELLE - 35 AVENUE DE LA POINTE ROUGE,20,2017-09-29 23:34:57,43.24789994774334,5.374447484757423,8078-VIEILLE CHAPELLE,OPEN
3 Boulevard Louis Salvator angle rue d'Italie,17,2017-09-29 23:40:30,43.290978,5.381342,6348 - ROME- SALVATOR-ITALIE,OPEN
PLAINE BIBLIOTHEQUE - 45 RUE DE LA BIBLIOTHEQUE,16,2017-09-29 23:35:42,43.29582518327951,5.385996090720193,1224-PLAINE - BIBLIOTHEQUE,OPEN
SAKAKINI FOCH - BOULAVARD SAKAKINI ANGLE AVENUE MARECHAL FOCH,11,2017-09-29 23:41:38,43.29952274790985,5.401127142110414,4022-SAKAKINI FOCH,OPEN
GRIGNAN MARCELLE PAUL - RUE GRIGNAN ANGLE RUE DE LA PAIX MARCELLE PAUL,10,2017-09-29 23:34:27,43.291357465205536,5.373546945382951,1213-GRIGNAN - MARCELLE PAUL,OPEN
