,address,bike_stands,last_update,lat,lng,name,status
0,RUE DES CHAMPEAUX (PRES DE LA GARE ROUTIERE) - 93170 BAGNOLET,50,2017-09-29 22:53:48,48.8645278209514,2.416170724425901,31705 - CHAMPEAUX (BAGNOLET),OPEN
1,52 RUE D'ENGHIEN / ANGLE RUE DU FAUBOURG POISSONIERE - 75010 PARIS,33,2017-09-29 22:59:10,48.87242006305313,2.348395236282807,10042 - POISSONNIÈRE - ENGHIEN,OPEN
2,74 BOULEVARD DES BATIGNOLLES - 75008 PARIS,44,2017-09-29 22:56:14,48.882148945631904,2.319860054774211,08020 - METRO ROME,OPEN
3,37 RUE CASANOVA - 75001 PARIS,37,2017-09-29 22:59:37,48.8682170167744,2.330493511399174,01022 - RUE DE LA PAIX,OPEN
4,139 AVENUE JEAN LOLIVE / MAIL CHARLES DE GAULLE - 93500 PANTIN,25,2017-09-29 23:02:00,48.893268664697416,2.412715733388685,35014 - DE GAULLE (PANTIN),OPEN
5,57 & 36 RUE JULIEN LACROIX - 75020 PARIS,26,2017-09-29 23:01:34,48.870393671603765,2.384222472712587,20040 - PARC DE BELLEVILLE,OPEN
6,BOULEVARD ALEXANDRE SOLJENITSYNE - 92800 PUTEAUX,60,2017-09-29 22:53:40,48.884478,2.24772065,28002 - SOLJENITSYNE (PUTEAUX),OPEN
7,48 RUE OLIVIER DE SERRES - 75015 PARIS,24,2017-09-29 23:01:46,48.834658862792736,2.295789480315903,15111 - SERRES,OPEN
8,ROUTE DE L'ARTILLERIE - 75012 PARIS,55,2017-09-29 22:57:01,48.839041145908176,2.437655339082955,12124 - PYRAMIDE ARTILLERIE,CLOSED
9,56 RUE SAINT GEORGES - 75009 PARIS,22,2017-09-29 23:01:40,48.877872278317966,2.337446804203667,09021 - SAINT GEORGES,OPEN
10,62 RUE DE LILLE - 75007 PARIS,65,2017-09-29 22:57:42,48.85971010443503,2.325809024625026,07007 - MUSÉE D'ORSAY,OPEN
11,103 RUE DES PYRENNEES - 75020 PARIS,21,2017-09-29 22:53:43,48.85550135398888,2.405168520639166,20011 - PYRÉNÉES-DAGORNO,OPEN
12,FACE 143 RUE ANDRE KARMAN - 93300 AUBERVILLIERS,29,2017-09-29 22:53:27,48.9101436710038,2.38505201824411,33006 - KARMAN (AUBERVILLIERS),CLOSED
13,27 RUE GAY LUSSAC - 75005 PARIS,24,2017-09-29 22:59:49,48.844730256132095,2.341923944866407,05005 - SAINT JACQUES GAY LUSSAC,OPEN
14,137 BOULEVARD MENILMONTANT - 75011 PARIS,40,2017-09-29 22:58:24,48.8666176586814,2.38301344041578,11029 - MENILMONTANT OBERKAMPF,OPEN
15,FACE 27 RUE QUINCAMPOIX - 75004 PARIS,28,2017-09-29 23:02:08,48.86008832610481,2.350148335920203,04020 - BEAUBOURG PLACE MICHELET,OPEN
16,7 CITE VANEAU - 75007 PARIS,36,2017-09-29 22:59:15,48.854268334051035,2.319454010061415,07012 - CITE VANEAU,OPEN
17,124 RUE PETIT - 75019 PARIS,22,2017-09-29 22:52:33,48.886389634924626,2.393637514433606,19019 - PETIT HONNEGER,OPEN
18,36 RUE DE LA SANTE - 75014 PARIS,37,2017-09-29 22:54:22,48.83512886504287,2.34157863455693,14113 - ARAGO 2,OPEN
19,54 BOULEVARD DE GRENELLE - 75015 PARIS,69,2017-09-29 22:58:35,48.851396721123486,2.291889313228121,15028 - DUPLEIX,OPEN
20,195 AVENUE CHARLES DE GAULLE - 92200 NEUILLY,22,2017-09-29 23:02:34,48.8842989293728,2.26099177209953,22005 - DE GAULLE 3 (NEUILLY),OPEN
21,1 rue Vidal de la Blache / Angle 78 boulevard Mortier - 75020 PARIS,15,2017-09-29 22:57:37,48.8691543609174,2.40932246879487,20027 - PORTE DE MENILMONTANT,OPEN
22,FACE 36 BOULEVARD DE CLICHY - 75018 PARIS,21,2017-09-29 22:57:23,48.882728090545086,2.336262639016585,18042 - PIGALLE GERMAIN PILLON,OPEN
23,223 RUE DU FAUBOURG SAINT ANTOINE - 75011 PARIS,40,2017-09-29 23:02:10,48.850379753879935,2.38386933547444,11008 - FAIDHERBE CHALIGNY,OPEN
24,FACE AU 41-45 RUE BERGER - 75001 PARIS,55,2017-09-29 22:58:23,48.8622255,2.3428337,01028 - BERGER,OPEN
25,9 RUE LASSUS - 75019 PARIS,19,2017-09-29 22:59:52,48.8755503947562,2.389038160847546,19038 - JOURDAIN,CLOSED
26,76 AVENUE D'IVRY - 75013 PARIS,20,2017-09-29 23:02:08,48.824695995415006,2.363106073577468,13037 - IVRY BAUDICOURT,OPEN
27,111 BOULEVARD MASSENA - 75013 PARIS,18,2017-09-29 09:28:31,48.819941965677195,2.36507858638901,13040 - PORTE DE CHOISY,OPEN
28,79 AV MOZART- 75016 PARIS,61,2017-09-29 23:00:28,48.85286124871689,2.268483570651513,16027 - JASMIN,OPEN
29,11 RUE DE L'ARRIVEE - 75015 PARIS,22,2017-09-29 22:52:40,48.84319882807092,2.322257377279243,15118 - PLACE BIENVENUE,OPEN
30,41 RUE NOTRE DAME DES CHAMPS - 75006 PARIS,19,2017-09-29 22:54:46,48.84479928858768,2.329337755887181,06006 - NOTRE DAME DES CHAMPS,OPEN
31,95 RUE DE DUNKERQUE - 75009 PARIS,33,2017-09-29 22:55:51,48.882633484310816,2.344884406212207,09005 - SQUARE D'ANVERS,OPEN
32,2 RUE JEAN MERMOZ - 75008 PARIS,33,2017-09-29 22:58:07,48.86970884795243,2.310714655374236,08031 - ROND POINT DES CHAMPS ELYSEES,CLOSED
33,FACE 67 BOULEVARD DE PICPUS - 75012 PARIS,36,2017-09-29 23:00:00,48.846964359503055,2.399868277428793,12015 - NATION PICPUS,OPEN
34,7 RUE HENRI BARBOUX - 75014 PARIS,20,2017-09-29 23:00:06,48.82195530645611,2.326806869905884,14120 - JOURDAN BARBOUX,OPEN
35,34 RUE CONDORCET - 75009 PARIS,20,2017-09-29 22:55:50,48.87983122511022,2.345396338986368,09007 - CONDORCET,OPEN
36,38 RUE VICTOR MASSE - 75009 PARIS,18,2017-09-29 22:57:55,48.881149033952994,2.336681004295117,09019 - VICTOR MASSE,OPEN
37,33 BIS RUE SAINT AMAND - 75015 PARIS,36,2017-09-29 23:01:35,48.83411714783768,2.308850015466539,15040 - MONCLAR,OPEN
38,1 RUE LIARD - 75014 PARIS,14,2017-09-29 23:01:24,48.82122766331853,2.342104214557966,14013 - LIART AMIRAL MOUCHEZ,OPEN
39,RUE NECKER/ RUE DU PORT AUX LIONS - 94220 CHARENTON,26,2017-09-29 22:59:37,48.823963252286866,2.399998420132992,42201 - NECKER (CHARENTON),OPEN
40,44 BD DU TEMPLE - 75011 PARIS,45,2017-09-29 23:00:53,48.865745077094815,2.365312950780227,11038 - TEMPLE REPUBLIQUE,OPEN
41,2 RUE MONTCALM - 75018 PARIS,49,2017-09-29 22:59:41,48.891877957087424,2.335447427689794,18019 - MONTCALM,OPEN
42,"BERGES DE SEINE, SOUS LA PASSERELLE SENGHOR AU PORT DE SOLFERINO - 75007 PARIS",20,2017-09-29 23:00:46,48.86138,2.32442,00901 -PORT SOLFERINO (STATION MOBILE),OPEN
43,DEV 5 AVENUE EMILE ZOLA - 75015 PARIS,45,2017-09-29 22:56:09,48.84629491826888,2.278413912593796,15064 - JAVEL,OPEN
44,49 RUE GABRIEL LAME - 75012 PARIS,36,2017-09-29 23:00:27,48.835138050689515,2.385478486564838,12031 - LAME,OPEN
45,55 RUE BOUSSINGAULT - 75013 PARIS,47,2017-09-29 23:01:33,48.82603516605852,2.342176808004326,13021 - BOUSSINGAULT - TOLBIAC,OPEN
46,128 AVENUE GABRIEL PERI / AVENUE DU CAPITAINE GLAMER - 93400 SAINT OUEN,26,2017-09-29 23:02:11,48.90259224163092,2.330513564840273,34002 - PERI (SAINT OUEN),OPEN
47,46 RUE DE MONTMARTRE - 75002 PARIS,15,2017-09-29 22:54:39,48.865021945810085,2.345068440144759,02005 - MONTORGUEIL RUE MONTMARTRE VERSION 2,OPEN
48,32 RUE DE MADELEINE MICHELIS - 92200 NEUILLY,25,2017-09-29 22:55:56,48.8827499154713,2.27740638127753,22012 - MICHELIS (NEUILLY),OPEN
49,7 BIS RUE DE VINCENNES - 93100 MONTREUIL,56,2017-09-29 23:02:10,48.857702134021,2.43736866129498,31008 - VINCENNES (MONTREUIL),OPEN
50,87 RUE DE LA CONVENTION - 75015 PARIS,36,2017-09-29 22:59:02,48.84214433157821,2.285862655943941,15062 - BOUCICAUT,OPEN
51,2 RUE TIRON - 75004 PARIS,28,2017-09-29 22:56:49,48.85579663740384,2.357907882135172,04012 - ECOUFFES RIVOLI,OPEN
52,55 RUE TURBIGO - 75003 PARIS,31,2017-09-29 23:01:59,48.86558419108518,2.356278447633629,03011 - TURBIGO,OPEN
53,69 RUE SAINT BLAISE - 75020 PARIS,27,2017-09-29 22:58:12,48.8569749400317,2.408842457406961,20017 - RUE SAINT BLAISE,OPEN
54,195 RUE CHAMPIONNET - 75018 PARIS,33,2017-09-29 23:00:34,48.89405725132698,2.332199335980013,18028 - VAUVENARGUES,OPEN
55,GARE DE BERCY - ANGLE RUE CORBINEAU - 75012 PARIS,35,2017-09-29 22:55:19,48.83976,2.38241,12024 - GARE DE BERCY,OPEN
56,FACE 140 BOULEVARD RICHARD LENOIR - 75011 PARIS,56,2017-09-29 23:01:10,48.86651607982108,2.369322530407524,11113 - REPUBLIQUE FERRY,OPEN
57,39 RUE NATIONALE - 92100 BOULOGNE-BILLANCOURT,23,2017-09-29 23:00:00,48.827600424128306,2.241835191324587,21015 - NATIONALE (BOULOGNE-BILLANCOURT),OPEN
58,PLACE JEAN FERRAT - 94200 IVRY,25,2017-09-29 22:57:30,48.8185,2.37427,42015 - JEAN FERRAT (IVRY),OPEN
59,20 RUE SOMMERARD - 75005 PARIS,35,2017-09-29 22:56:45,48.850310432924466,2.345015835298588,05002 - SAINT JACQUES,OPEN
60,8 BOULEVARD DE LA VILETTE - 75010 PARIS,32,2017-09-29 22:55:09,48.87277815648997,2.376348394645978,10040 - BELLEVILLE,OPEN
61,1 RUE BRUANT - 75013 PARIS,25,2017-09-29 23:02:25,48.83484845292942,2.366826499627087,13018 - AURIOL CHEVALERET,OPEN
62,21 RUE DU DR LERAY ET LANDOUZY - 75013 PARIS,34,2017-09-29 22:59:02,48.823316172177535,2.35433694417225,13026 - PLACE HENOCQUE VERSION 2,OPEN
63,17 RUE DES FETES - 75019 PARIS,20,2017-09-29 22:55:55,48.876468339733144,2.392284629788502,19028 - PLACE DES FETES,OPEN
64,12 RUE CITE RIVERIN / ANGLE RUE DU CHATEAU D'EAU - 75010 PARIS,18,2017-09-29 22:52:41,48.8707649818776,2.35872446227434,10008 - CITE RIVERIN,OPEN
65,10 RUE ANDRE MAZET - 75006 PARIS,54,2017-09-29 23:00:39,48.853751073467855,2.339113722899687,06015 - MAZET SAINT ANDRE DES ARTS,OPEN
66,30 AVENUE DES MINIMES - 94300 VINCENNES,28,2017-09-29 23:01:33,48.841486856300165,2.430793451133684,43006 - MINIMES (VINCENNES),OPEN
67,293 RUE LECOURBE - 75015 PARIS,19,2017-09-29 22:58:33,48.83797034201205,2.287582307043615,15054 - CHANDON,OPEN
68,PLACE PASDELOUP - 75011 PARIS,21,2017-09-29 22:57:23,48.862650300140295,2.367053490449912,11043 - CIRQUE D HIVER,OPEN
69,4 RUE DOLOMIEU - 75005 PARIS,21,2017-09-29 23:00:53,48.84273504298964,2.352472437223356,05024 - PLACE MONGE,OPEN
70,102 RUE DE LA CROIX NIVERT - 75015 PARIS,47,2017-09-29 22:57:40,48.84307638694992,2.29514141310447,15036 - LAMBERT,OPEN
71,FACE 59 RUE BENOIT MALON - 94250 GENTILLY,30,2017-09-29 22:59:55,48.81444017962381,2.341070654172592,42504 - MALON (GENTILLY),OPEN
72,27 RUE DU CHERCHE MIDI 75006 PARIS,23,2017-09-29 22:57:02,48.8502410871957,2.32755154921057,06107 - CHERCHE MIDI,OPEN
73,29 RUE PIERRE DEMOURS - 75017 PARIS,36,2017-09-29 22:56:27,48.88141110121936,2.29482820074442,17029 - PLACE AIMÉE MAILLART,OPEN
74,23 QUAI PANHARD ET LEVASSOR - 75013 PARIS,59,2017-09-29 22:57:51,48.828369893809565,2.384440354604646,13050 - QUAI PANHARD ET LEVASSOR,OPEN
75,FACE 27 RUE CLAUZEL - 75009 PARIS,21,2017-09-29 23:00:09,48.879505265624786,2.337190639271711,09020 - TOUDOUZE CLAUZEL,OPEN
76,112 RUE VERCINGETORIX - 75014 PARIS,52,2017-09-29 22:55:38,48.83425924993043,2.313391647113252,14029 - GERGOVIE VERCINGETORIX,OPEN
77,39 RUE DE DUNKERQUE - 75010 PARIS,23,2017-09-29 22:58:56,48.88072668576597,2.351464333201903,10029 - PLACE DE ROUBAIX,OPEN
78,19 RUE GUERANDO - 75009 PARIS,21,2017-09-29 23:02:12,48.88291108953936,2.346319371627125,09004 - ROCHECHOUART GERANDO,OPEN
79,46 RUE LUCIE SAMPAIX - 75010 PARIS,46,2017-09-29 23:00:43,48.874112916506824,2.362498528696257,10015 - RECOLLETS,OPEN
80,FACE 1 RUE DE VAUGIRARD - 75006 PARIS,24,2017-09-29 23:01:36,48.84892295818577,2.341040508705961,06029 - VAUGIRARD PRINCE,OPEN
81,GARE DE LYON - 75012 PARIS,60,2017-09-29 23:00:41,48.8455150897939,2.3726498446286,12151 - GARE DE LYON,OPEN
82,58 RUE DE LA GARE DE REUILLY - 75012 PARIS,28,2017-09-29 22:54:39,48.842577100515385,2.397249990597384,12019 - GARE DE REUILLY,OPEN
83,31 RUE MANIN - 75019 PARIS,20,2017-09-29 22:55:20,48.87927519569598,2.378637021920256,19114 - MANIN SECRETAN,OPEN
84,39 RUE DE MIROMESNIL - 75008 PARIS,33,2017-09-29 23:01:25,48.873760472140056,2.315876308346374,08025 - MIROMESNIL,OPEN
85,31 RUE FROIDEVAUX - 75014 PARIS,38,2017-09-29 22:58:38,48.8356804441726,2.3282908220517,14033 - DAGUERRE GASSENDI,OPEN
86,7 RUE MONTROSIER - 92200 NEUILLY,25,2017-09-29 23:00:20,48.87944136963256,2.278535717122779,22011 - MONTROSIER (NEUILLY),OPEN
87,1 PLACE EDOUARD RENARD - 75012 PARIS,25,2017-09-29 22:56:25,48.835545043575955,2.40745551592605,12032 - PORTE DOREE,OPEN
88,4-6 RUE OCTAVE FEUILLET - 75016 PARIS,21,2017-09-29 22:56:17,48.8609983661382,2.27312852713658,16110 - OCTAVE FEUILLET,OPEN
89,4 PLACE DE BARCELONE - 75016 PARIS,55,2017-09-29 23:01:03,48.84766571002937,2.273556264965371,16030 - MIRABEAU,OPEN
90,2 AVENUE ERNEST RENAN - 75015 PARIS,23,2017-09-29 22:55:44,48.83217944426036,2.287122261982559,15049 - PORTE DE VERSAILLES,OPEN
91,61 RUE HENRY FARMAN - 75015 PARIS,11,2017-09-29 22:59:42,48.83373383017729,2.271396472461431,15042 - FARMAN,OPEN
92,5 RUE LALLY TOLLENDAL - 75019 PARIS,60,2017-09-29 22:53:51,48.88270064422199,2.37469338894231,19012 - LALLY TOLLENDAL,OPEN
93,FACE AU 13 RUE DE LA SEINE - 92100 BOULOGNE-BILLANCOURT,26,2017-09-29 22:58:30,48.82824349415854,2.250657739639016,21018 - SEINE (BOULOGNE-BILLANCOURT),OPEN
94,250 RUE LECOURBE - 75015 PARIS,45,2017-09-29 23:02:05,48.83922209776229,2.291540507948998,15053 - LECOURBE,OPEN
95,102 RUE DAMREMONT - 75018 PARIS,28,2017-09-29 22:52:37,48.893400392981874,2.336266523912805,18027 - DAMREMONT ORDENER,OPEN
96,16 RUE DE MEZIERES - 75006 PARIS,55,2017-09-29 23:01:37,48.850297010217595,2.330446820277252,06103 - MEZIERES RENNES,OPEN
97,23 RUE PIERRE BROSSOLETTE - 94200 IVRY,20,2017-09-29 22:56:08,48.816929720561234,2.381460319184223,42006 - BROSSOLETTE (IVRY),OPEN
98,4 RUE FRAGONARD - 75017 PARIS,54,2017-09-29 22:58:37,48.894151383293696,2.314678001115381,17011 - PORTE DE CLICHY FRAGONARD,OPEN
99,2 RUE DANTON - 75006 PARIS,35,2017-09-29 22:54:42,48.85293041059132,2.342657392891206,06020 - SAINT MICHEL DANTON,OPEN
100,FACE 77 BOULEVARD DE CHARONNE - 75011 PARIS,46,2017-09-29 22:53:21,48.854176040414856,2.396093495321842,11017 - ALEXANDRE DUMAS,OPEN
101,16 RUE CASSINI 75014 PARIS,24,2017-09-29 23:00:58,48.8375492921975,2.33598303046652,14111 - DENFERT-ROCHEREAU CASSINI,OPEN
102,81 BIS RUE JP TIMBAUD - 75011 PARIS,48,2017-09-29 23:01:08,48.86793796309799,2.377885515684799,11032 - METALLOS,OPEN
103,2 RUE PETIT - 92110 CLICHY,25,2017-09-29 23:02:26,48.8993483537726,2.29662648341284,21113 - PETIT (CLICHY),OPEN
104,FACE 104 BOULEVARD RICHARD LENOIR - 75011 PARIS,23,2017-09-29 23:02:07,48.86343198963591,2.37120861796012,11044 - RICHARD LENOIR VOLTAIRE NORD,OPEN
105,69 BOULEVARD BEAUMARCHAIS - 75003 PARIS,52,2017-09-29 22:58:46,48.85804405694242,2.367832659296124,03001 - CHEMIN VERT BEAUMARCHAIS,OPEN
106,2 RUE DES RASSELINS - 75020 PARIS,27,2017-09-29 22:56:35,48.85352868594103,2.409615362775532,20133 - RASSELINS,OPEN
107,1 AVENUE BOUTROUX - 75013 PARIS,49,2017-09-29 22:59:43,48.822632842232245,2.377738433657617,13047 - BOUTROUX VITRY,OPEN
108,RUE DORA MAAR / GARE RER - 93400 SAINT OUEN,26,2017-09-29 22:55:49,48.905269629379745,2.322171248688672,34009 - MAAR (SAINT OUEN),OPEN
109,2 BOULEVARD RICHARD LENOIR - 75011 PARIS,54,2017-09-29 22:53:54,48.85384822621097,2.369701488217501,11001 - BASTILLE RICHARD LENOIR,OPEN
110,67 RUE DES ARCHIVES - 75003 PARIS,28,2017-09-29 22:53:05,48.86240121191442,2.359447031946381,03007 - ARCHIVES PASTOURELLE,OPEN
111,26 RUE MONTHOLON - 75009 PARIS,21,2017-09-29 23:02:32,48.87660117136262,2.345785516803243,09009 - SQUARE MONTHOLON,OPEN
112,"BERGES DE SEINE, BAS DE LA BRETELLE AVAL CONCORDE - 75007 PARIS",20,2017-09-29 22:55:51,48.863147,2.316318,00905 - CONCORDE/BERGES DE SEINE (STATION MOBILE),OPEN
113,25-31 BOULEVARD DE VAUGIRARD - 75015 PARIS,30,2017-09-29 23:02:15,48.841325259808,2.31829155159271,15115 - VAUGIRARD,OPEN
114,20 RUE MONGE - 75005 PARIS,37,2017-09-29 22:56:56,48.84838576471672,2.350169939020645,05018 - MUTUALITE,OPEN
115,FACE AU 23 RUE DELIZY - 93500 PANTIN,22,2017-09-29 22:59:12,48.89633193166097,2.409087652725976,35006 - DELIZY (PANTIN),OPEN
116,4 RUE D'ATHENES - 75009 PARIS,20,2017-09-29 23:02:17,48.878113787876,2.32956021945824,09036 - ATHENES CLICHY,OPEN
117,27 BOULEVARD BEAUMARCHAIS - 75004 PARIS,18,2017-09-29 22:54:22,48.855501357701705,2.368429069929045,04107 - BEAUMARCHAIS,OPEN
118,1 RUE DES BATIGNOLLES - 75017 PARIS,17,2017-09-29 23:02:11,48.88310390458221,2.323834749088381,17050 - BATIGNOLLES,OPEN
119,13 RUE ERASME - 75005 PARIS,20,2017-09-29 23:00:03,48.8425479496716,2.344596649931604,05013 - ULM ERASME,OPEN
120,FACE 241 AVENUE GAMBETTA - 75020 PARIS,20,2017-09-29 22:56:18,48.87541242186098,2.4059603311549,20110 - PORTE DES LILAS,OPEN
121,51 BOULEVARD PORT ROYAL - 75013 PARIS,18,2017-09-29 23:00:33,48.83772792097816,2.344664043426302,13001 - PORT ROYAL,OPEN
122,89 BOULEVARD DE L'HOPITAL - 75013 PARIS,50,2017-09-29 23:01:41,48.83772768745433,2.360460336476805,13103 - SAINT MARCEL,OPEN
123,4 RUE DE THANN - 75017 PARIS,17,2017-09-29 22:54:43,48.881161983577115,2.30951238050775,17018 - MONCEAU,OPEN
124,FACE AU 1 RUE JEANNE HORNET - 93170 BAGNOLET,28,2017-09-29 22:56:09,48.873929200033544,2.427933579778934,31704 - HORNET (BAGNOLET),OPEN
125,1 RUE DES ARCHIVES - 75004 PARIS,25,2017-09-29 22:56:36,48.857203787697095,2.353976273618783,04103 - HOTEL DE VILLE,OPEN
126,4 AVENUE PIERRE GRENIER - 92100 BOULOGNE-BILLANCOURT,21,2017-09-29 22:56:23,48.82584693469992,2.248821391087721,21013 - GRENIER (BOULOGNE-BILLANCOURT),OPEN
127,93 RUE DE MONTREUIL - 75011 PARIS,33,2017-09-29 22:58:46,48.85050701184191,2.393075558274471,11012 - MONTREUIL VOLTAIRE,OPEN
128,FACE 2 RUE DU LANDY - 93300 AUBERVILLIERS,30,2017-09-29 22:59:39,48.915156182813234,2.376424009514086,33012 - LANDY (AUBERVILLIERS),OPEN
129,168 AVENUE JEAN JAURES - 93500 PANTIN,26,2017-09-29 22:59:43,48.91013709505388,2.399325633305226,35001 - JAURES 1 (PANTIN),OPEN
130,5-7 AVENUE MARCEL MARTINIE - 92170 VANVES,24,2017-09-29 23:02:35,48.821049923459526,2.29130063072414,21703 - MARTINIE (VANVES),OPEN
131,14 RUE BACHAUMONT - 75002 PARIS,33,2017-09-29 22:54:54,48.866067150086806,2.345463652702569,02101 - BACHAUMONT,OPEN
132,2 RUE DE CHAZELLES - 75017 PARIS,35,2017-09-29 22:55:24,48.8794303755264,2.303467406687128,17025 - COURCELLES,OPEN
133,FACE 28 BOULEVARD RASPAIL - 75007 PARIS,36,2017-09-29 22:54:36,48.853261668611665,2.326319806384382,07004 - RASPAIL VARENNE,OPEN
134,55 RUE DES CENDRIERS - 75020 PARIS,12,2017-09-29 22:53:30,48.86629510600211,2.389350412433471,20032 - AMANDIERS,OPEN
135,24 RUE D'AUVERGNE - 75009 PARIS,17,2017-09-29 23:02:21,48.87916177777549,2.34369843072095,09008 - TOUR D'AUVERGNE,OPEN
136,4 AVENUE VORGES - 94300 VINCENNES,25,2017-09-29 22:59:21,48.848257752729346,2.439892899386235,43007 - VORGES (VINCENNES),OPEN
137,76-68 QUAI DE LA RAPEE - 75012 PARIS,52,2017-09-29 22:58:21,48.8439658,2.3703793,12006 - QUAI DE LA RAPEE - GARE DE LYON,OPEN
138,FACE 44 RUE D'ESTIENNES D'ORVES / PISCINE - 92120 MONTROUGE,31,2017-09-29 22:52:47,48.815388220397274,2.320886790760933,21204 - D'ORVES (MONTROUGE),OPEN
139,61 AVENUE RENE COTY - 75014 PARIS,53,2017-09-29 23:02:34,48.82476710259696,2.335999677300567,14016 - REILLE MONTSOURIS,OPEN
140,38 RUE DE LA REPUBLIQUE - 93100 MONTREUIL,25,2017-09-29 23:01:16,48.85281419134583,2.419307088753658,31002 - REPUBLIQUE (MONTREUIL),OPEN
141,88 RUE BALARD - 75015 PARIS,36,2017-09-29 23:02:25,48.83863387153602,2.278274193061826,15070 - BLANC,OPEN
142,172 RUE DE COURCELLES - 75017 PARIS,26,2017-09-29 22:57:07,48.883769733273496,2.29858466343129,17047 - COURCELLES - DEMOURES,OPEN
143,13 RUE CARPEAUX - 75018 PARIS,19,2017-09-29 22:54:19,48.890747210171405,2.330820396477741,18018 - CARPEAUX,OPEN
144,29 RUE DES BLANCS MANTEAUX - 75004 PARIS,30,2017-09-29 22:58:59,48.85940271964358,2.35592748653501,04014 - ARCHIVES BLANCS MANTEAUX,OPEN
145,84 RUE DE LA FEDERATION - 75015 PARIS,24,2017-09-29 22:52:59,48.85276674352813,2.297876431467921,15105 - SUFFREN FÉDÉRATION,OPEN
146,2 RUE DU BUISSON SAINT LOUIS - 75010 PARIS,18,2017-09-29 22:55:27,48.87182588992616,2.372203224856393,10024 - BUISSON SAINT LOUIS,OPEN
147,204 RUE DES FILLETTES - 93300 AUBERVILLIERS,35,2017-09-29 22:59:20,48.906023,2.366039,32008 - EMGP-GARDINOUX (AUBERVILLIERS/ST-DENIS),OPEN
148,10 AVENUE BERTHIER ALBRECHT - 75008 PARIS,32,2017-09-29 23:00:42,48.87614039826388,2.301303138307601,08054 - HOCHE ALBRECHT,OPEN
149,FACE 119 RUE DE LILLE - 75007 PARIS,62,2017-09-29 22:57:57,48.86137389094257,2.320131276903925,07009 - ASSEMBLEE NATIONALE,OPEN
150,2 PLACE ANDRE MALRAUX - 75001 PARIS,20,2017-09-29 22:59:59,48.86397965515107,2.335599603893845,01015 - PLACE ANDRE MALRAUX,OPEN
151,4 RUE DE LA CONDAMINE - 75017 PARIS,37,2017-09-29 23:02:33,48.88790134553051,2.324400445437174,17002 - LA FOURCHE RUE DE LA CONDAMINE,OPEN
152,1 RUE JOSEPH DIJON - 75018 PARIS,38,2017-09-29 22:55:29,48.89373427753593,2.347517966604574,18030 - SIMPLON,OPEN
153,1 ALLEE DES HORTENSIAS - 93260 LES LILAS,22,2017-09-29 23:01:41,48.88217309420464,2.42327263606036,32605 - HORTENSIAS (LES LILAS),OPEN
154,18 AVENUE AUBERT - 94300 VINCENNES,49,2017-09-29 23:01:33,48.847550436310826,2.433432607923368,43005 - AUBERT (VINCENNES),OPEN
155,FACE 1 RUE JEAN COLLY - 75013 PARIS,20,2017-09-29 23:00:47,48.82783803264948,2.370530563855483,13045 - TOLBIAC ALBERT,OPEN
156,49 RUE DE BERRI - 75008 PARIS,34,2017-09-29 23:00:57,48.874810390028195,2.308314064189137,08034 - HAUSSMANN COURCELLES,OPEN
157,10 RUE DE CHOISEUL - 75002 PARIS,42,2017-09-29 22:58:06,48.869969733968915,2.3360394555421,02012 - QUATRE SEPTEMBRE,OPEN
158,FACE 41 AVENUE GEORGES BERNANOS - 75005 PARIS,30,2017-09-29 22:58:31,48.8401089566606,2.337296889737942,05029 - PORT ROYAL,OPEN
159,73 RUE DES PYRENEES - 75020 PARIS,31,2017-09-29 23:00:42,48.853246898211985,2.405871044529538,20008 - MARAICHERS,OPEN
160,26 RUE SAINT FERDINAND - 75017 PARIS,38,2017-09-29 22:55:41,48.87815529789739,2.288518047864942,17039 - PLACE SAINT FERDINAND,OPEN
161,41 AVENUE FELIX FAURE - 75015 PARIS,46,2017-09-29 22:54:32,48.841249336041045,2.288386600849503,15069 - BOUCICAUT FAURE,OPEN
162,22 AVENUE DES GOBELINS - 75005 PARIS,40,2017-09-29 23:00:08,48.83712603861059,2.351433329767636,05027 - GOBELINS,OPEN
163,82 AVENUE SAINT MANDE - 75012 PARIS,39,2017-09-29 22:54:47,48.84463462629767,2.405099826323643,12017 - ST MANDE NETTER,OPEN
164,ANGLE RUE GENERAL GOSSERAND ET AVENUE EDOUARD VAILLANT - 93500 PANTIN,20,2017-09-29 22:52:42,48.902691617981425,2.393255829334146,35003 - VAILLANT (PANTIN),OPEN
165,53 RUE DES HAIES - 75020 PARIS,22,2017-09-29 23:01:01,48.85386896766491,2.402426162238911,20116 - HAIES REUNION,OPEN
166,85 RUE PAJOL - 75018 PARIS,35,2017-09-29 23:02:28,48.89284571116732,2.363429016279767,18011 - HERBERT,OPEN
167,2 RUE DES CORDELIERES - 75013 PARIS,47,2017-09-29 22:55:10,48.83548071896613,2.348572461702221,13005 - ARAGO CORDELIERE - VERSION 2,OPEN
168,N° 12-14 RUE CLAUDE VELLEFAUX- 75010 PARIS,32,2017-09-29 22:58:49,48.87285913900304,2.370071706985146,10032 - DODU,OPEN
169,202 RUE LECOURBE - 75015 PARIS,47,2017-09-29 22:54:08,48.84041618840877,2.295464906515111,15037 - GROULT,OPEN
170,2-4 RUE MORICE - 92110 CLICHY,25,2017-09-29 22:54:54,48.90066034942664,2.308569535028556,21106 - MORICE 2 (CLICHY),OPEN
171,87 BD COURCELLES - 75008 PARIS,29,2017-09-29 22:59:02,48.87818887641853,2.299296003861458,08055 - TERNES COURCELLES,OPEN
172,Parvis Nord Gare RER E ROSA PARKS - 75019 PARIS,40,2017-09-29 22:57:15,48.8972395463935,2.37504277378321,19111 - ROSA PARKS – GARE RER E,OPEN
173,PLACE LOUIS LEPINE - 75004 PARIS,24,2017-09-29 23:00:59,48.85525336084426,2.347356447642631,04002 - MARCHE AUX FLEURS,OPEN
174,66 RUE EMERIAU - 75015 PARIS,33,2017-09-29 23:02:35,48.84804578628324,2.284380633700994,15030 - LINOIS,OPEN
175,1 RUE DE BELFORT - 75011 PARIS,36,2017-09-29 23:02:28,48.85631717803066,2.383072452374457,11020 - CHARONNE,OPEN
176,RUE BALARD - 75015 PARIS,64,2017-09-29 22:57:48,48.84071436444365,2.278018571567725,15059 - CITROEN,OPEN
177,39 AVENUE GEORGE V - 75008 PARIS,24,2017-09-29 22:55:56,48.87040913507474,2.301123191744092,08549 - PLACE DUNANT,OPEN
178,RUE DE SAINT CLOUD / BOULEVARD HENRI SELLIER - 92150 SURESNES,51,2017-09-29 22:54:29,48.867565806130166,2.225998484960623,21501 - SELLIER (SURESNES),OPEN
179,6 RUE SARRETTE - 75014 PARIS,23,2017-09-29 23:02:16,48.827525292006904,2.331729378994153,14011 - ALESIA SARRETTE,OPEN
180,24 RUE DE MARIGNAN - 75008 PARIS,33,2017-09-29 22:54:38,48.8696161948985,2.306620834902348,08013 - MARIGNAN,OPEN
181,168 AVENUE DE PARIS - 94300 VINCENNES,22,2017-09-29 22:58:01,48.84633805388875,2.420247340474637,43001 - PARIS 1 (VINCENNES),OPEN
182,PLACE MONTGOLFIER - 94410 SAINT MAURICE,48,2017-09-29 22:53:10,48.815050006197445,2.459239414806482,44101 - PLACE MONGOLFIER (SAINT MAURICE),OPEN
183,2 RUE DE TURBIGO - 75001 PARIS,16,2017-09-29 22:54:28,48.86356704711952,2.347702021141098,01007 - ETIENNE MARCEL,OPEN
184,56 RUE FRANCOIS 1ER - 75008 PARIS,31,2017-09-29 22:58:11,48.86951797934417,2.302426218841562,08105 - FRANCOIS 1ER LINCOLN,OPEN
185,120 BOULEVARD MURAT - 75016 PARIS,56,2017-09-29 22:59:02,48.837555260014625,2.257972572706903,16042 - PORTE DE SAINT CLOUD,OPEN
186,57 RUE MARCADET - 75018 PARIS,47,2017-09-29 22:55:43,48.89045112096476,2.349057392968696,18022 - BARBES MARCADET,OPEN
187,4 RUE DE VALITON - 92110 CLICHY,25,2017-09-29 22:56:21,48.90249245151852,2.297840007374352,21101 - VALITON (CLICHY),OPEN
188,34 RUE DAREAU - 75014 PARIS,24,2017-09-29 22:53:47,48.830723214583635,2.336146557204349,14125 - DAREAU,OPEN
189,3 AVENUE MAURICE D'OCAGNE 75014 PARIS,33,2017-09-29 22:54:00,48.8239231685446,2.31657332931609,14115 - CITÉ UNIVERSITAIRE,OPEN
190,130 RUE LEGENDRE - 75017 PARIS,22,2017-09-29 22:56:18,48.88896161855884,2.322528975094376,17004 - LEGENDRE AVENUE DE CLICHY,OPEN
191,FACE 57 RUE NAVIER - 75017 PARIS,34,2017-09-29 22:59:47,48.89591411750011,2.322727367054828,17007 - NAVIER,OPEN
192,6 BOULEVARD DE REIMS - 75017 PARIS,33,2017-09-29 23:01:32,48.891834448210986,2.300144659954865,17116 - REIMS,OPEN
193,52 RUE DE CAUMARTIN - 75009 PARIS,23,2017-09-29 23:00:45,48.8745052459648,2.32847426086664,9104 - CAUMARTIN PROVENCE,OPEN
194,1 RUE JOSEPH SANSBOEUF - 75008 PARIS,18,2017-09-29 22:55:27,48.875353174464706,2.322884365751902,08008 - ROME SAINT LAZARE,OPEN
195,36 RUE DE SEVIGNE - 75003 PARIS,14,2017-09-29 22:54:10,48.856954148055344,2.362897420229539,03013 - RUE DE SEVIGNE,OPEN
196,30 RUE BOBILLOT - 75013 PARIS,26,2017-09-29 22:57:41,48.82860289084512,2.353034582951421,13023 - BOBILLOT VERLAINE,OPEN
197,12 RUE DE FONTENAY - 94300 VINCENNES,25,2017-09-29 23:01:23,48.84779066448261,2.444690887827985,43008 - FONTENAY (VINCENNES),OPEN
198,114 BIS RUE DES PYRENEES - 75020 PARIS,19,2017-09-29 22:55:49,48.85712940035504,2.404425625176959,20016 - PYRENEES VITRUVE,OPEN
199,8 RUE TARDIEU - 75018 PARIS,17,2017-09-29 22:54:18,48.88416326647457,2.341879802310627,18005 - TARDIEU,OPEN
200,20 avenue Marc Sangnier 75014 Paris,21,2017-09-29 23:02:32,48.8253258700605,2.31067065346762,14106 - STADE DIDOT,OPEN
201,1 RUE EVARISTE GALOIS - 75020 PARIS,30,2017-09-29 22:58:50,48.873338225236466,2.413239879550039,20120 - NOISY LE SEC,OPEN
202,42 BOULEVARD VICTOR - 75015 PARIS,43,2017-09-29 23:01:30,48.8335736182304,2.28548042091786,15107 -  PALAIS DES SPORTS,OPEN
203,DEV 1 RUE DES VOLONTAIRES - 75015 PARIS,31,2017-09-29 23:02:13,48.843542735006295,2.306558615574665,15013 - LECOURBE VOLONTAIRE,OPEN
204,RUE ANDRE JOINEAU / PLACE ANATOLE FRANCE - 93310 LE PRE SAINT GERVAIS,30,2017-09-29 23:02:16,48.883620233843736,2.403240318366616,33104 - JOINEAU (PRE SAINT GERVAIS),OPEN
205,6 RUE SAINT PAUL - 75004 PARIS,28,2017-09-29 23:01:59,48.852725972189546,2.360878343431665,04009 - VILLAGE SAINT PAUL,OPEN
206,76 RUE D'AUTEUIL - 75016 PARIS,33,2017-09-29 22:54:45,48.84795020779427,2.260659826137633,16034 - PORTE D'AUTEUIL,OPEN
207,62 RUE SAINT LAZARE - 75009 PARIS,39,2017-09-29 22:54:12,48.87685932729332,2.332762380011633,09029 - TRINITE,OPEN
208,27 ET 36 RUE DE LA BUTTE AUX CAILLES - 75013 PARIS,36,2017-09-29 23:00:25,48.827564379878744,2.34906350669476,13022 - BUTTE AUX CAILLES,CLOSED
209,2 RUE HARPIGNIES- 75020 PARIS,36,2017-09-29 22:59:46,48.85862166935013,2.409942553877677,20018 - HARPIGNIES,OPEN
210,"Cour du Havre - Face au 2, rue d'Amsterdam - 75008 PARIS",46,2017-09-29 22:57:41,48.87572,2.32668,08002 - GARE SAINT LAZARE - COUR DU HAVRE,OPEN
211,28 AVENUE GEORGE V - 75008 PARIS,32,2017-09-29 23:01:09,48.868165940558264,2.301274609316824,08047 - GEORGE V,OPEN
212,120 BOULEVARD FELIX FAURE - 93300 AUBERVILLIERS,33,2017-09-29 22:59:40,48.907885757266726,2.378838474064149,33009 - FELIX (AUBERVILLIERS),OPEN
213,1 RUE DU GRAND PRIEURE - 75011 PARIS,47,2017-09-29 22:57:03,48.8646494198968,2.369261438255258,11042 - OBERKAMPF,OPEN
214,7 AVENUE PASTEUR 92170 VANVES,24,2017-09-29 22:56:35,48.8250993292156,2.29250033145655,21707 - PASTEUR (VANVES),OPEN
215,FACE AU 37 RUE MORILLONS - 75015 PARIS,52,2017-09-29 23:02:27,48.83317977055646,2.299282641599619,15047 - DANTZIG,OPEN
216,5 RUE BRUNESEAU - 75013 PARIS,47,2017-09-29 22:57:11,48.8249528728704,2.38858067885378,13121 - BRUNESEAU - QUAI D'IVRY,OPEN
217,63 BOULEVARD DES INVALIDES - 75007 PARIS,45,2017-09-29 22:53:04,48.84776985682885,2.316183886729462,07001 - DUROC,OPEN
218,133 RUE DE L'ABBE GROULT - 75015 PARIS,12,2017-09-29 23:00:49,48.836058393856256,2.301865968384287,15039 - CHARLES VALLIN,OPEN
219,62 AVENUE HOCHE - 75008 PARIS,33,2017-09-29 22:58:47,48.87494475810723,2.29743857720451,08057 - HOCHE,OPEN
220,5 QUAI MALAQAIS - 75006 PARIS,17,2017-09-29 22:53:35,48.85761567856468,2.335831353037739,06001 - INSTITUT,OPEN
221,1 RUE DE LA PIERRE LEVEE - 75011 PARIS,23,2017-09-29 22:53:40,48.866331347902545,2.371097448471508,11109 - REPUBLIQUE PIERRE LEVEE,OPEN
222,PLACE DU MARQUIS DU VERCORS - 75020 PARIS,30,2017-09-29 22:56:37,48.877336,2.408573,20019 - MAQUIS DU VERCORS - PORTE DES LILAS,OPEN
223,FACE 83 RUE DE GERGOVIE - 75014 PARIS,36,2017-09-29 23:01:19,48.83088717455243,2.318882101207347,14027 - ALESIA GERGOVIE,OPEN
224,26-32 RUE PAUL VALERY - 75016 PARIS,34,2017-09-29 22:56:11,48.871361039775586,2.288866396041159,16104 - PAUL VALÉRY,OPEN
225,31 RUE LEON FROT - 75011 PARIS,18,2017-09-29 23:00:05,48.854963800335234,2.387217085372007,11111 - CHARONNE FROT,OPEN
226,2 RUE FELIX ZIEM - 75018 PARIS,24,2017-09-29 22:53:05,48.88949630486821,2.333393658804396,18111 - FELIZ ZIEM,OPEN
227,RUE LE BRIX ET MESNIN - 75014 PARIS,21,2017-09-29 22:57:30,48.82234096593411,2.327861653302471,14108 - JOURDAN LE BRIX ET MESNIN,OPEN
228,2 AVENUE MESSINE - 75008 PARIS,13,2017-09-29 23:01:47,48.87545720024482,2.315465494584916,08026 - MESSINE,OPEN
229,19 RUE D'ABBEVILLE - 75009 PARIS,15,2017-09-29 23:01:06,48.879223370628495,2.349147493536092,09002 - MAUBEUGE CONDORCET,OPEN
230,156 RUE DE CHARONNE - 75011 PARIS,32,2017-09-29 22:56:21,48.85560316202584,2.390546390619984,11019 - CHARONNE PHILIPPE AUGUSTE,OPEN
231,82 AVENUE SIMON BOLIVAR - 75019 PARIS,22,2017-09-29 22:54:02,48.87712417766737,2.374276509236151,19118 - BOLIVAR BURNOUF,OPEN
232,40 RUE BOU LANGERS - 75005 PARIS,17,2017-09-29 23:01:37,48.8462950317216,2.35222292160749,05022 - CARDINAL LEMOINE,OPEN
233,FACE 14 RUE HITTORFF - 75010 PARIS,17,2017-09-29 22:56:42,48.87208360886937,2.35766368561921,10009 - HITTORFF,OPEN
234,FACE 12 BOULEVARD PICPUS - 75012 PARIS,39,2017-09-29 22:55:34,48.839988788911874,2.400525668552064,12038 - BEL AIR,OPEN
235,14 RUE BOULARD - 75014 PARIS,43,2017-09-29 22:57:53,48.834390797006805,2.329303946545288,14036 - BOULARD DAGUERRE,OPEN
236,43 RUE BROCHANT - 75017 PARIS,35,2017-09-29 23:00:18,48.89032998912038,2.319730559929781,17005 - BROCHANT,OPEN
237,FACE 98 AV. HENRI MARTIN - 75016 PARIS,36,2017-09-29 23:01:23,48.863025315388256,2.268806550199479,16019 - HENRI MARTIN,OPEN
238,17 RUE BOBILLOT - 75013 PARIS,24,2017-09-29 23:01:57,48.82987537265954,2.35424653463425,13106 - BOBILLOT MERY,OPEN
239,15 ROND POINT RHIN DANUBE - 92100 BOULOGNE BILLANCOURT,52,2017-09-29 22:58:13,48.84064929857331,2.227978774754288,21007 - RHIN DANUBE (BOULOGNE BILLANCOURT),OPEN
240,100 QUAI DE JEMMAPES - 75010 PARIS,21,2017-09-29 23:02:25,48.8734627987082,2.36403505925044,10111 - JEMMAPES,OPEN
241,132 RUE JEAN LOLIVE - 93500 PANTIN,30,2017-09-29 22:53:06,48.89271966633131,2.412529571472175,35008 - LOLIVE 2 (PANTIN),OPEN
242,53 RUE DE MEAUX - 75019 PARIS,23,2017-09-29 22:57:24,48.8813548433424,2.37333118915558,19022 - MEAUX - SECRETAN,OPEN
243,27 RUE DE TANGER - 75019 PARIS,19,2017-09-29 22:52:36,48.886233417429835,2.368856390499634,19109 - PLACE DU MAROC,OPEN
244,45 AVENUE MARCEAU - 75008 PARIS,20,2017-09-29 22:59:04,48.868851708234864,2.298514048803577,08048 - MARCEAU,OPEN
245,55 RUE DU FAUBOURG MONTMARTRE - 75009 PARIS,34,2017-09-29 22:53:46,48.875329723153264,2.340772662331439,09014 - FAUBOURG MONTMARTRE,OPEN
246,25 RUE DE ROCHECHOUART - 75009 PARIS,33,2017-09-29 23:00:37,48.87789001497427,2.344785602987212,09108 - ROCHECHOUART MAUBEUGE,OPEN
247,46 BOULEVARD AUGUSTE BLANQUI - 75013 PARIS,25,2017-09-29 23:01:37,48.82998371071962,2.350403587821832,13009 - BLANQUI CORVISART,OPEN
248,6 RUE MATHIS - 75019 PARIS,55,2017-09-29 22:55:14,48.89067812943125,2.376142468863619,19006 - MATHIS,OPEN
249,2 RUE PAUL BODIN - 75017 PARIS,33,2017-09-29 22:52:57,48.89263392143244,2.317313258110739,17009 - BODIN AVENUE DE CLICHY,OPEN
250,3 RUE ROLAND BARTHES - 75012 PARIS,69,2017-09-29 23:00:07,48.84394917584249,2.37908134343237,12106 - BARTHES TROYES,OPEN
251,PLACE LEDIT DE NANTES - 75019 PARIS,30,2017-09-29 22:58:23,48.8887900267753,2.378500156138491,19125 - LEDIT DE NANTES,OPEN
252,93 AVENUE DE FONTAINEBLEAU - 94270 LE KREMLIN BICETRE,45,2017-09-29 23:00:39,48.8095823380351,2.36268350990116,42703 - FONTAINEBLEAU (KREMLIN BICETRE),OPEN
253,DEV 32 RUE PASQUIER - 75008 PARIS,39,2017-09-29 23:00:53,48.87320440102894,2.323658830743138,08016 - SQUARE LOUIS XVI,OPEN
254,26 RUE DUPLEIX - 75015 PARIS,48,2017-09-29 22:55:55,48.851454182127426,2.296710300930856,15025 - AMETTE,OPEN
255,2 RUE LACEPEDE - 75005 PARIS,55,2017-09-29 22:56:44,48.84367484543761,2.354615982683207,05031 - LACEPEDE,OPEN
256,90 RUE D'ASSAS - 75006 PARIS,33,2017-09-29 22:53:00,48.84373446877937,2.333428381875887,06008 - ASSAS LUXEMBOURG,OPEN
257,4 RUE DE VENTADOUR - 75001 PARIS,27,2017-09-29 23:02:33,48.866810653323,2.334388448251871,01116 - OPÉRA PYRAMIDES,OPEN
258,5 PLACE VIOLET - 75015 PARIS,48,2017-09-29 23:00:49,48.84479039026177,2.290541560154527,15033 - VIOLET,OPEN
259,AVENUE DE NOGENT - LA PORTE JAUNE - 75012 PARIS,40,2017-09-29 23:01:01,48.83884,2.46031,12130 - NOGENT - PORTE JAUNE,OPEN
260,RUE SIGMUND FREUD / PORTE CHAUMONT - 75019 PARIS,21,2017-09-29 22:56:20,48.88573329985865,2.397846415383189,19035 - PORTE CHAUMONT,OPEN
261,243 RUE DE CRIMEE - 75019 PARIS,56,2017-09-29 22:58:05,48.894104140316266,2.372946088467279,19001 - OURCQ CRIMEE,OPEN
262,AVENUE PASTEUR/AVENUE DE PARIS - 94160 SAINT MANDE,19,2017-09-29 22:52:35,48.845779219164555,2.42377059524055,41603 - PASTEUR (SAINT MANDE),OPEN
263,FACE 112 BOULEVARD DE ROCHECHOUART - 75018 PARIS,20,2017-09-29 22:54:56,48.88219420395092,2.340651849622331,18041 - MARTYRS 2,OPEN
264,138 RUE DE MENILMONTANT - 75020 PARIS,25,2017-09-29 22:59:23,48.87013645868239,2.396690612876254,20119 - SQUARE DE MENILMONTANT,OPEN
265,107 COURS DE VINCENNES - 75020 PARIS,48,2017-09-29 22:53:31,48.8473310531154,2.4103900081973,20047 - COURS DE VINCENNES BD DAVOUT,OPEN
266,FACE 6 BOULEVARD DE GRENELLE - 75015 PARIS,32,2017-09-29 22:59:09,48.853844054333514,2.289705348222022,15026 - BIR HAKEIM,OPEN
267,20 RUE SAINT FIACRE - 75002 PARIS,36,2017-09-29 23:00:02,48.87078277953678,2.345905811394424,02022 - BONNE NOUVELLE SAINT FIACRE,OPEN
268,33 RUE DES PYRENEES - 75020 PARIS,12,2017-09-29 23:00:27,48.850285280635795,2.406296107816583,20006 - PYRÉNÉES - PLAINE,OPEN
269,24 AVENUE DE LA PORTE DE SAINT CLOUD - 75016 PARIS,32,2017-09-29 22:52:33,48.838713363162405,2.252191060537607,16044 - STADE FRANCAIS,OPEN
270,8 AVENUE CARNOT - 75017 PARIS,32,2017-09-29 23:02:36,48.87553842110213,2.293732100169925,17033 - CARNOT,OPEN
271,262 RUE DES PYRENEES - 75020 PARIS,26,2017-09-29 22:55:46,48.86941289116132,2.395039981220676,20035 - PYRENEES,OPEN
272,29 BOULEVARD DE LA CHAPELLE - 75018 PARIS,23,2017-09-29 22:57:04,48.88457006316311,2.360215572664323,18040 - CHAPELLE MARX DORMOY,OPEN
273,4 RUE DES PETITS HOTELS - 75010 PARIS,15,2017-09-29 22:58:56,48.877356057652264,2.354511445637388,10021 - MARCHE ST QUENTIN,OPEN
274,5 RUE DES PETITES ECURIES - 75010 PARIS,28,2017-09-29 22:59:29,48.872939767837096,2.35403448428308,10006 - PETITES ECURIES,OPEN
275,37 RUE DU RUISSEAU - 75018 PARIS,33,2017-09-29 23:00:39,48.892895283967825,2.340119632436559,18026 - RUISSEAU ORDENER,OPEN
276,53 AVENUE PAUL DOUMER - 75016 PARIS,33,2017-09-29 22:55:26,48.860116109626574,2.280840481911055,16016 - PAUL DOUMER / LA TOUR,OPEN
277,28BIS AVENUE CORENTIN CARIOU - 75019 PARIS,30,2017-09-29 22:59:06,48.89654905978759,2.384649644021933,19009 - CITE DES SCIENCES,OPEN
278,36 AVENUE SIMON BOLIVAR - 75019 PARIS,24,2017-09-29 23:01:48,48.875070404063074,2.382591714979966,19101 - SIMON BOLIVAR,OPEN
279,1 AVENUE DE LA PORTE DE SAINT OUEN - 75017 PARIS,42,2017-09-29 23:01:15,48.89792240854517,2.32851451022192,17044 - PORTE DE SAINT OUEN,OPEN
280,146 BOULEVARD DIDEROT - 75012 PARIS,21,2017-09-29 23:00:23,48.847653880984645,2.390238633141864,12107 - DIDEROT BOURDAN,OPEN
281,35 BOULEVARD DES INVALIDES - 75007 PARIS,42,2017-09-29 22:53:43,48.85167822904787,2.314633840627834,07014 - SAINT FRANCOIS XAVIER,OPEN
282,13 BOULEVARD EDGAR QUINET - 75014 PARIS,27,2017-09-29 23:02:11,48.84115621648301,2.324448789519074,14001 - EDGAR QUINET,OPEN
283,1 - 3  et 5 avenue Courteline (angle boulevard Soult) - 75012 PARIS,50,2017-09-29 23:01:09,48.844373193657,2.41097245166824,12021 - COURTELINE,OPEN
284,76 RUE DU TEMPLE - 75003 PARIS,18,2017-09-29 23:02:34,48.861581157730946,2.35660934144383,03009 - TEMPLE 113,OPEN
285,19 PLACE DE LA REPUBLIQUE - 75003 PARIS,18,2017-09-29 22:59:17,48.86707,2.36351,03004 - REPUBLIQUE 23,OPEN
286,FACE 1 AVENUE AMBROISE RENDU - 75019 PARIS,17,2017-09-29 22:57:39,48.88365921093733,2.395719508193907,19105 - PORTE BRUNET,OPEN
287,6 RUE DAMREMONT - 75018 PARIS,18,2017-09-29 22:54:48,48.88727464264267,2.332648363845394,18001 - DAMREMONT CAULAINCOURT,OPEN
288,84 RUE DE LOURMEL - 75015 PARIS,23,2017-09-29 23:00:16,48.844974,2.287283,15108 - LOURMEL - MARIE SKOBTSOV,OPEN
289,54 BOULEVARD MENILMONTANT - 75020 PARIS,56,2017-09-29 22:58:05,48.863411107404715,2.387133957573714,20030 - PERE LACHAISE,OPEN
290,02 RUE DANIEL CASANOVA - 75002 PARIS,20,2017-09-29 22:57:35,48.867623078056845,2.333268593101536,02020 - OPERA CASANOVA,OPEN
291,4 RUE BOYER BARRET - 75014 PARIS,22,2017-09-29 22:59:47,48.833139,2.317377,14104 - LOSSERAND BOYER-BARRET,OPEN
292,3 RUE DE CHARONNE - 75011 PARIS,32,2017-09-29 22:53:03,48.852255290042486,2.374027235613735,11004 - CHARONNE SAINT ANTOINE,OPEN
293,16 RUE JEAN BOLOGNE - 75016 PARIS,17,2017-09-29 22:56:38,48.857566889784465,2.280027395306772,16022 - RUE JEAN BOLOGNE,OPEN
294,"35, rue de la Gare - 75019 PARIS",30,2017-09-29 23:02:34,48.90162,2.37267,19106 - GARE EMGP,OPEN
295,FACE 11 PLACE D'ITALIE - 75013 PARIS,40,2017-09-29 22:58:50,48.831582643774894,2.356708420760657,13010 - PLACE D ITALIE AURIOL,OPEN
296,182 BOULEVARD BERTHIER - 75017 PARIS,36,2017-09-29 22:58:12,48.88591312825616,2.293234151072418,17107 - BERTHIER STUART MERRIL,OPEN
297,67-69 RUE DE CROULEBARBE - 75013 PARIS,34,2017-09-29 23:02:09,48.831121775069235,2.348108654777346,13101 - CROULEBARBE RECULETTES,OPEN
298,71 AVENUE VLADIMIR LITCH LENINE - 94110 ARCUEIL,30,2017-09-29 23:00:11,48.8127462,2.3316847,42503 - LENINE (ARCUEIL/GENTILLY),OPEN
299,GARE D'AUSTERLITZ - 75013 PARIS,55,2017-09-29 22:56:21,48.84151,2.36543,13151 - GARE D'AUSTERLITZ,OPEN
300,1 AVENUE FRANKLIN ROOSEVELT - 75008 PARIS,36,2017-09-29 23:01:02,48.865346269362675,2.310193787964762,08029 - PLACE DU CANADA,OPEN
301,2 RUE LAKANAL - 75015 PARIS,55,2017-09-29 23:00:52,48.844425919545365,2.29404143328216,15034 - COMMERCE,OPEN
302,4 RUE DES FILLES DU CALVAIRE - 75003 PARIS,32,2017-09-29 22:58:51,48.86213223497159,2.364951386893752,03003 - TURENNE BRETAGNE,OPEN
303,10 RUE EUGENE OUDINE - 75013 PARIS,44,2017-09-29 22:56:59,48.825712903519616,2.375044300094851,13046 - OUDINE PATAY,OPEN
304,44 RUE PELLEPORT - 75020 PARIS,15,2017-09-29 22:57:14,48.86500081847653,2.403980836377493,20023 - PELLEPORT BELGRAND,OPEN
305,FACE 29 RUE JEAN JACQUES ROUSSEAU - 75001 PARIS,22,2017-09-29 22:56:07,48.86299816676784,2.341555077827231,01012 - BOURSE DU COMMERCE,OPEN
306,RUE DE LA POTERNE DES PEUPLIERS - 75013 PARIS,54,2017-09-29 22:57:41,48.818574415839485,2.353260183740912,13111 - CIMETIERE DE GENTILLY,OPEN
307,128 AVENUE DANIEL CASANOVA - 94200 IVRY,25,2017-09-29 22:59:26,48.81420628475591,2.384207013557983,42008 - CASANOVA (IVRY),OPEN
308,AVENUE DAUMESNIL - 75012 PARIS,58,2017-09-29 23:00:04,48.833654852830335,2.413463576486826,12041 - BOIS DE VINCENNES,OPEN
309,64 RUE DE MADAME DE SANZILLON - 92110 CLICHY,22,2017-09-29 22:56:20,48.903676702256305,2.319176657580128,21104 - SANZILLON (CLICHY),OPEN
310,45 RUE DES BOULETS - 75011 PARIS,23,2017-09-29 22:58:56,48.852193095437535,2.3890216505832,11009 - RUE DES BOULETS,OPEN
311,8 RUE MANIN - 75019 PARIS,23,2017-09-29 23:01:59,48.8830298392804,2.38634884002286,19031 - MANIN CRIMEE,OPEN
312,47 RUE VOLTAIRE - 92300 LEVALLOIS-PERRET,25,2017-09-29 22:53:47,48.891962328964816,2.284204990113615,23010 - VOLTAIRE (LEVALLOIS),OPEN
313,01 RUE LALLIER - 75009 PARIS,29,2017-09-29 22:58:11,48.88103214901626,2.340774412117837,09017 - TRUDAINE MARTYRS,OPEN
314,61 RUE DE BERCY - 75012 PARIS,36,2017-09-29 23:01:01,48.83772145898209,2.382217337050408,12026 - PARC DE BERCY,OPEN
315,71 BOULEVARD DIDEROT - 75012 PARIS,21,2017-09-29 23:01:29,48.847296310645035,2.385707672217665,12012 - REUILLY DIDEROT,OPEN
316,3 RUE PASCAL - 75005 PARIS,49,2017-09-29 23:02:22,48.83899382454321,2.34993205295774,05026 - MOUFFETARD SAINT MEDARD,OPEN
317,12 BD DES FILLES DU CALVAIRE - 75011 PARIS,42,2017-09-29 22:58:19,48.861205051934334,2.367352328799597,11045 - SAINT SEBASTIEN FROISSARD,OPEN
318,7 RUE JEAN POULMARCH - 93260 LES LILAS,27,2017-09-29 22:58:07,48.8794000532367,2.41616066183218,32602 - POULMARCH (LES LILAS),OPEN
319,12 RUE ETIENNE JOGELLE - 75018 PARIS,33,2017-09-29 22:55:54,48.88794016394694,2.326124420314341,18046 - FOURCHE,OPEN
320,14 RUE DE MARSEILLE - 75010 PARIS,56,2017-09-29 23:00:38,48.8716626619994,2.363933311380362,10014 - BEAUREPAIRE,OPEN
321,1 AVENUE DE LA PORTE DE LA VILLETTE - 75019 PARIS,27,2017-09-29 22:55:30,48.89849005307383,2.386120008210507,19115 - PORTE DE LA VILLETTE,OPEN
322,4 PLACE DU CARDINAL LAVIGERIE - 75012 PARIS,46,2017-09-29 22:59:10,48.832934193699835,2.402636749399156,12113 - CARDINAL LAVIGERIE,OPEN
323,300 RUE DES PYRENEES - 75020 PARIS,47,2017-09-29 22:59:12,48.87215737993568,2.391739173776302,20042 - PYRENEES ERMITAGE,OPEN
324,QUAI BRANLY - 75007 PARIS,60,2017-09-29 22:55:29,48.860897797941,2.29559959844703,07023 - BOURDONNAIS TOUR EIFFEL,OPEN
325,70 - 72 RUE LEPIC - 75018 PARIS,22,2017-09-29 23:01:03,48.8875730709534,2.33432733641793,18113 - LEPIC,OPEN
326,FACE 109 BOULEVARD SERURIER - 75019 PARIS,18,2017-09-29 22:52:56,48.8806060535742,2.3978962906105,19027 - SERRURIER,OPEN
327,RUE GABRIEL PERI ANGLE AVENUE JAURES - 93310 LE PRE SAINT GERVAIS,18,2017-09-29 22:54:13,48.886526983267544,2.407468689386476,33102 - JAURES 1 (PRE SAINT GERVAIS),OPEN
328,53 RUE MIGUEL HIDALGO - 75019 PARIS,16,2017-09-29 22:57:06,48.88195317244523,2.392496216649528,19026 - DANUBE,OPEN
329,34 BOULEVARD DE REIMS - 75017 PARIS,36,2017-09-29 22:54:49,48.88880002064895,2.296319931841717,17028 - PORTE DE COURCELLE,OPEN
330,143 BOULEVARD DE PEREIRE - 75017 PARIS,23,2017-09-29 23:00:23,48.88363915389933,2.295152067446227,17030 - RENNEQUIN PEREIRE,OPEN
331,1 RUE DE LA FIDELITE - 75010 PARIS,13,2017-09-29 22:56:53,48.874575036780286,2.356796765204903,10017 - GARE DE L'EST SAINT LAURENT,OPEN
332,01 RUE CAUCHY - 75015 PARIS,49,2017-09-29 22:56:41,48.84341723238589,2.275108332056225,15103 - SQUARE DES CÉVENNES,OPEN
333,FACE 80 RUE BOTZARIS - 75019 PARIS,17,2017-09-29 22:59:16,48.8795614522371,2.38896041078391,19025 - BOTZARIS,OPEN
334,1 RUE DU CDT RIVIERE - 75008 PARIS,27,2017-09-29 22:58:50,48.872787680846464,2.309722588932229,08033 - SAINT PHILIPPE DU ROULE,OPEN
335,1 RUE SAINT BON - 75004 PARIS,19,2017-09-29 22:59:57,48.857999643314926,2.350217280976349,04018 - RIVOLI SEBASTOPOL,OPEN
336,91 RUE MICHEL ANGE - 75016 PARIS,26,2017-09-29 22:56:47,48.840610399663696,2.258373658198948,16118 - MICHEL ANGE,OPEN
337,11 RUE THOREL - 75002 PARIS,16,2017-09-29 23:00:12,48.87000061719652,2.348995518049354,02107 - THOREL,OPEN
338,Pyramide  (proche rond-point Route de la Ferme) - 75012 PARIS,33,2017-09-29 22:56:54,48.82256,2.45877,12128 - ROUTE DE LA PYRAMIDE- ECOLE DU BREUIL,OPEN
339,13 RUE DES GATINES - 75020 PARIS,24,2017-09-29 22:59:16,48.8653941647232,2.397814475307571,20025 - GAMBETTA GATINES,OPEN
340,49 RUE DE LA TOMBE D'ISSOIRE - 75014 PARIS,36,2017-09-29 23:01:05,48.83055599940998,2.33378329803361,14009 - COTY TOMBE D'ISSOIRE,OPEN
341,140 AVENUE PARMENTIER - 75011 PARIS,53,2017-09-29 23:02:32,48.86946960532872,2.371536810663942,11035 - GONCOURT,OPEN
342,32 RUE CHAMPIONNET - 75018 PARIS,22,2017-09-29 22:53:48,48.895470370399146,2.349865450921441,18101 - CHAMPIONNET,OPEN
343,7 QUAI DE METZ - 75019 PARIS,33,2017-09-29 22:58:47,48.89106,2.3865,19123 - QUAI DE METZ,OPEN
344,32 RUE CAMBRONNE - 75015 PARIS,62,2017-09-29 23:00:22,48.845831419610754,2.301753086991115,15011 - THEBAUD RUE DE CAMBRONNE,OPEN
345,FACE 28 RUE FRANCOIS TRUFFAUT - 75012 PARIS,66,2017-09-29 22:59:54,48.83350833245743,2.386133168700345,12033 - SAINT EMILION,OPEN
346,2 RUE GODOT DE MAUROY - 75009 PARIS,22,2017-09-29 22:53:47,48.869956681574806,2.326599657113696,09034 - GODOT DE MAUROY,OPEN
347,90 AVENUE DU MAINE - 75014 PARIS,48,2017-09-29 23:02:21,48.83788362776244,2.322551640018162,14035 - MAINE GAITE,OPEN
348,FACE AU 1 RUE LECORBUSIER - 92100 BOULOGNE-BILLANCOURT,46,2017-09-29 22:59:46,48.83799829528177,2.240846664821182,21009 - LECORBUSIER (BOULOGNE-BILLANCOURT),OPEN
349,44 BOULEVARD DE BELLEVILLE - 75020 PARIS,48,2017-09-29 23:01:38,48.868940642855314,2.381282601102786,20039 - COURONNES,OPEN
350,4 RUE DES BELLES FEUILLES - 75016 PARIS,23,2017-09-29 23:00:38,48.86585549636314,2.282859908979733,16010 - BELLES FEUILLES,OPEN
351,2 RUE BALZAC - 75008 PARIS,30,2017-09-29 23:01:21,48.87288299097443,2.299972932642669,08052 - WASHINGTON,OPEN
352,105 RUE JOUFFROY D'ABBANS - 75017 PARIS,41,2017-09-29 22:58:20,48.88185715074461,2.301138378176729,17026 - WAGRAM COURCELLES,OPEN
353,73 RUE DU GENERAL LECLERC - 94270 LE KREMELIN BICETRE,20,2017-09-29 22:55:23,48.81047749960048,2.358172896462481,42702 - LECLERC (KREMLIN BICETRE),OPEN
354,89 RUE DE L'ABBE CARTON - 75014 PARIS,24,2017-09-29 22:57:44,48.82774626607583,2.320714098089133,14110 - ABBE CARTON,OPEN
355,3 BOULEVARD DE DENAIN - 75010 PARIS,25,2017-09-29 23:00:37,48.87904931076023,2.354159095958248,10152 - GARE DU NORD 2,OPEN
356,2 AVENUE DE LA PORTE DE MONTROUGE - 75014 PARIS,33,2017-09-29 22:55:01,48.82341630050286,2.322936857107952,14107 - PORTE DE MONTROUGE 2,OPEN
357,60 RUE DU THEATRE - 75015 PARIS,53,2017-09-29 22:57:09,48.84817034136516,2.289906646457531,15031 - THEATRE,OPEN
358,1 RUE DES BOULETS - 75011 PARIS,41,2017-09-29 22:59:09,48.84925926211519,2.391754614194301,11010 - ST ANTOINE GONNET,OPEN
359,37 AVENUE BOSQUET - 75007 PARIS,50,2017-09-29 23:01:48,48.85865170952645,2.303716580234576,07021 - BOSQUET SAINT DOMINIQUE,OPEN
360,89 AVENUE RAYMOND POINCARE - 75016 PARIS,25,2017-09-29 22:57:28,48.870306124369975,2.285074541420228,16005 - POINCARE VICTOR HUGO,OPEN
361,ANGLE AVENUE JEAN MONNET ET BOULEVARD DES ILES -  92130 ISSY LES MOULINEAUX,31,2017-09-29 22:52:39,48.8234505470138,2.249665298288027,21303 - ILES (ISSY LES MOULINEAUX),OPEN
362,13 RUE FRANQUET - 75015 PARIS,36,2017-09-29 22:58:01,48.83285390827691,2.306898478208195,15041 - LABROUSTE,OPEN
363,18 RUE MARIE ANDREE LAGROUA - 75013 PARIS,61,2017-09-29 23:00:17,48.828595283857425,2.380220606266108,13055 - LAGROUA,OPEN
364,FACE AU 128 RUE DES ENFANTS DU PARADIS - 92100 BOULOGNE BILLANCOURT,40,2017-09-29 21:32:24,48.833174958910085,2.257005867300889,21021 - PARADIS (BOULOGNE-BILLANCOURT),OPEN
365,148 QUAI DE JEMMAPES - 75010 PARIS,15,2017-09-29 23:00:40,48.87742034308959,2.366011448983217,10025 - ECLUSES SAINT MARTIN,OPEN
366,27 RUE BOYER - 75020 PARIS,18,2017-09-29 22:56:03,48.868910127448686,2.392020489286297,20121 - MENILMONTANT BOYER,OPEN
367,2 RUE ROUVET - 75019 PARIS,47,2017-09-29 23:01:08,48.8933800500227,2.38499975689617,19011 - ROUVET DAMPIERRE,OPEN
368,28 AVENUE DE CHOISY - 75013 PARIS,24,2017-09-29 22:54:25,48.82190796881169,2.363334710614756,13038 - CHOISY POINT D'IVRY,OPEN
369,27 RUE THERESE - 75001 PARIS,25,2017-09-29 22:58:43,48.86648351450895,2.334433421223788,01016 - OPERA PYRAMIDES,OPEN
370,6 RUE FRANCAISE - 75001 PARIS,37,2017-09-29 22:54:33,48.8640650469499,2.34759791271647,01102 - FRANCAISE – MAUCONSEIL,OPEN
371,face au 4 rue Lucien Bossoutrot angle Bd Martial Valin - 75015 PARIS,38,2017-09-29 22:57:59,48.83654,2.27414,15057 - BOSSOUTROT - MARTIAL VALIN,OPEN
372,4 RUE JEAN DE LA FONTAINE - 75016 PARIS,69,2017-09-29 22:57:41,48.852786944099584,2.275580584185594,16025 - FONTAINE RAYNOUARD,OPEN
373,1 BIS RUE DE SIAM - 75016 PARIS,16,2017-09-29 23:00:43,48.861720329027264,2.275346568555312,16017 - RUE DE SIAM,OPEN
374,57 RUE DES FRERES FLAVIEN - 75020 PARIS,23,2017-09-29 23:01:58,48.8780992764359,2.41104629853209,20029 - PORTE DES LILAS,OPEN
375,GARE ROUTIERE - ARRET TRAM - 92210 SAINT CLOUD,50,2017-09-29 22:55:37,48.843126205966946,2.222189235680779,22101 - GARE ROUTIERE ( SAINT CLOUD),OPEN
376,41 RUE DU REPOS - 75020 PARIS,33,2017-09-29 23:01:13,48.859358523592554,2.389613136684456,20131 - REPOS,OPEN
377,7 RUE SAINT DENIS - 75001 PARIS,50,2017-09-29 22:58:05,48.859150287255645,2.347620087684511,01003 - RIVOLI SAINT DENIS,OPEN
378,RUE GUY MOQUET - 75017 PARIS,45,2017-09-29 22:55:01,48.8928229630235,2.3268034898348,17001 - GUY MOQUET,OPEN
379,10 RUE BOUCHER - 75001 PARIS,25,2017-09-29 23:02:26,48.85946238924527,2.344366128446111,01010 - PONT NEUF,OPEN
380,3 RUE BROCHANT - 75017 PARIS,21,2017-09-29 22:54:34,48.88818698581028,2.316861143151153,17016 - BROCHANT,OPEN
381,37 RUE DE LA ROQUETTE - 75011 PARIS,23,2017-09-29 22:58:45,48.85510629540472,2.373424541930557,11002 - ROQUETTE THIERE,OPEN
382,RUE PIERRE ET JOSEPH DESAULT - 75013 PARIS,19,2017-09-29 22:53:40,48.821138751437616,2.378718606608679,13120 - VITRY DESAULT,OPEN
383,FACE 4 BD MALESHERBES - 75008 PARIS,64,2017-09-29 22:57:06,48.87042188343355,2.323288994791708,08004 - MALESHERBES PASQUIER,OPEN
384,30 RUE PIAT - 75020 PARIS,21,2017-09-29 23:00:54,48.87195626635528,2.384981390278095,20113 - PARC DE BELLEVILLE,OPEN
385,80 RUE DE L'AQUEDUC - 75010 PARIS,29,2017-09-29 22:59:37,48.88384326568884,2.367110644031659,10036 - AQUEDUC,OPEN
386,136 RUE DE PARIS - 94220 CHARENTON,28,2017-09-29 22:54:33,48.8266572063246,2.405876723011083,42207 - PARIS 3 (CHARENTON),OPEN
387,42 ALLEE VIVALDI - 75012 PARIS,27,2017-09-29 23:01:15,48.841923663276546,2.389728979467376,12028 - VIVALDI,OPEN
388,9 RUE DE DANTE - 75005 PARIS,20,2017-09-29 23:02:26,48.850977229793614,2.346076825913541,05008 - ST GERMAIN-DANTE,OPEN
389,189 RUE SAINT DENIS - 75002 PARIS,31,2017-09-29 22:56:34,48.86614574652862,2.350844595287827,02003 - ALLEE PIERRE LAZAEFF,OPEN
390,PLACE DU LIEUTENANT HENRI KARCHER - 75001 PARIS,31,2017-09-29 23:00:11,48.86343050194121,2.340169767017624,01026 - COLONEL DRIANT,OPEN
391,3 RUE DU JOURDAIN - 75020 PARIS,20,2017-09-29 22:59:07,48.87409248091576,2.389435908330615,20112 - JOURDAIN,OPEN
392,161 AVENUE MALAKOFF - 75016 PARIS,34,2017-09-29 22:54:12,48.87669268743692,2.283457593383419,16101 - MALAKOFF,OPEN
393,83 RUE LEGENDRE - 75017 PARIS,29,2017-09-29 22:52:34,48.8877723254283,2.32036786584418,17110 - LEGENDRE,OPEN
394,26 RUE DU COLONEL PIERRE AVIA - 75015 PARIS,29,2017-09-29 22:53:47,48.8296843300915,2.275342586850291,15120 - AVIA,OPEN
395,12 BIS RUE DE LA GRANGE AUX BELLES - 75010 PARIS,59,2017-09-29 22:53:37,48.874794994841274,2.366669436984963,10114 - HOPITAL SAINT LOUIS,OPEN
396,PLACE DE LA PORTE DE CHAMPERET - 75017 PARIS,27,2017-09-29 22:57:44,48.88561741628322,2.290781411279206,17031 - PORTE DE CHAMPERET,OPEN
397,17 RUE DES BEAUX ARTS - 75006 PARIS,19,2017-09-29 22:54:27,48.8564374096868,2.334797622948368,06021 - BONAPARTE BEAUX ARTS,OPEN
398,51 RUE DES VIGNES - 75016 PARIS,20,2017-09-29 23:00:35,48.85615074338874,2.275188414671189,16031 - BOULAINVILLIERS,OPEN
399,3 RUE TRAKTIR - 75016 PARIS,20,2017-09-29 22:58:30,48.87279915599243,2.291508179426733,16103 - TRAKTIR,OPEN
400,2 RUE BLAISE DESGOFFE - 75006 PARIS,31,2017-09-29 22:58:07,48.84612989154848,2.324240578144087,06027 - VAUGIRARD DESGOFFE,OPEN
401,25 RUE BAYARD - 75008 PARIS,35,2017-09-29 23:01:38,48.86729323621449,2.307691605650344,08030 - MONTAIGNE,OPEN
402,17 BOULEVARD DU MORLAND - 75004 PARIS,36,2017-09-29 23:00:16,48.84996003527753,2.363239868721318,04105 - MORLAND,OPEN
403,63 BOULEVARD DAVOUT / ANGLE 84 RUE VOLGA 75020 PARIS,27,2017-09-29 22:59:26,48.852919679957296,2.410522909779111,20044 - DAVOUT VOLGA,OPEN
404,ROUTE DE LA CEINTURE DU LAC DAUMESNIL - 75012 PARIS,50,2017-09-29 22:52:59,48.82772523704757,2.41827234236864,12120 - CONSERVATION,OPEN
405,2 BOULEVARD FLANDRIN - 75016 PARIS,17,2017-09-29 22:53:54,48.86441140945903,2.272448647646471,16018 - FLANDRIN,OPEN
406,150 RUE NATIONALE - 75013 PARIS,36,2017-09-29 22:56:00,48.830957464145705,2.364107053254628,13042 - NATIONALE BACH,OPEN
407,FACE AU 60 AVENUE CHARLES DE GAULLES - 94130 NOGENT SUR MARNE,50,2017-09-29 22:57:27,48.83648112918176,2.479464268709081,41302 - CHARLES DE GAULLE (NOGENT),OPEN
408,109 RUE  PAUL VAILLANT COUTURIER - 92300 LEVALLOIS,35,2017-09-29 22:54:32,48.89819702263572,2.293848017974069,23004 - COUTURIER 2 (LEVALLOIS),OPEN
409,212 RUE DE CHARENTON - 75012 PARIS,30,2017-09-29 22:54:30,48.840869459702354,2.387564334932072,12109 - CHAROLAIS,OPEN
410,79 RUE DE LA VICTOIRE - 75009 PARIS,44,2017-09-29 22:59:14,48.87518586417745,2.332036313368639,09030 - VICTOIR CHAUSSEE D ANTIN,OPEN
411,93 RUE CAULAINCOURT - 75018 PARIS,38,2017-09-29 22:57:58,48.8896779050281,2.33817871442611,18017 - PECQUEUR,OPEN
412,22-24 RUE DE CHARTRES - 75018 PARIS,33,2017-09-29 22:54:40,48.88470686398326,2.35358041022707,18107 - CHARTRES,OPEN
413,FACE 4 BOULEVARD PASTEUR - 75015 PARIS,62,2017-09-29 22:56:09,48.844838019227154,2.311085506094106,15008 - SEVRES LECOURBE,OPEN
414,23 AVENUE DE SEGUR - 75007 PARIS,18,2017-09-29 22:53:49,48.85129433458901,2.309747615603337,07018 - SEGUR ESTREES,OPEN
415,RUE DE LA CLOTURE / ANGLE RUE DU DEBARCADERE - 75019 PARIS,50,2017-09-29 22:53:35,48.89713005307456,2.396079008206681,19044 - GRANDS MOULINS,OPEN
416,58 RUE DES VINAIGRIERS - 75010 PARIS,24,2017-09-29 23:00:00,48.873267841170026,2.359323613430623,10012 - VINAIGRIERS,OPEN
417,3 AVENUE BOSQUET - 75007 PARIS,69,2017-09-29 22:52:56,48.86164049957625,2.302250344175951,07022 - PONT DE L'ALMA,OPEN
418,FACE AU 12 RUE CANDALE - 93500 PANTIN,25,2017-09-29 23:01:59,48.889485840195675,2.414307515111288,35012 - CANDALE (PANTIN),OPEN
419,14 RUE DU PONT NEUF - 75001 PARIS,24,2017-09-29 23:01:04,48.860245194532624,2.344333545273837,01009 - PONT NEUF - 14,OPEN
420,1 PLACE HENRI ROLLET - 75015 PARIS,8,2017-09-29 23:00:45,48.83598100445596,2.293467119128608,15051 - ROLLET,OPEN
421,26 RUE MARYSE HILSZ - 75020 PARIS,23,2017-09-29 22:57:13,48.851285276158144,2.412733641628248,20107 - STADE MARYSE HILSZ,OPEN
422,10 BOULEVARD DES BATIGNOLLES SUR TPC - 75008 PARIS,47,2017-09-29 23:02:18,48.883318044354574,2.326207175385489,08012 - CLICHY,OPEN
423,FACE 8 RUE SALOMON DE CAUS - 75003 PARIS,24,2017-09-29 23:02:25,48.86749798940664,2.353660816249226,03012 - GAITE LYRIQUE,OPEN
424,2 RUE DE MAZAGRAN - 75010 PARIS,24,2017-09-29 22:58:56,48.870278078579595,2.351281636686514,10105 - BONNE NOUVELLE PROP2,OPEN
425,FACE 45 RUE CAUMARTIN - 75009 PARIS,51,2017-09-29 22:53:59,48.872795019872605,2.328315742616178,09033 - HAVRE CAUMARTIN,OPEN
426,49-51 BD ROMAIN ROLLAND - 75014 PARIS,25,2017-09-29 22:54:50,48.820323646126774,2.32300304092451,14116 - ROMAIN ROLLAND,OPEN
427,2 RUE MONTGALLET - 75012 PARIS,16,2017-09-29 22:59:06,48.84264777870052,2.386164927813738,12027 - MONTGALLET CHARENTON,OPEN
428,54 AVENUE EDISON - 75013 PARIS,18,2017-09-29 22:59:55,48.82902666973469,2.361069024089417,13034 - EDISON,OPEN
429,28 RUE J.B.PIGALLE - 75009 PARIS,17,2017-09-29 23:02:24,48.87939826447722,2.333709173337285,09026 - BRUYERE PIGALLE,OPEN
430,62 RUE LEGENDRE - 75017 PARIS,22,2017-09-29 23:00:55,48.885437730894544,2.316473835914172,17013 - LEGENDRE,OPEN
431,175/179 RUE DE PARIS - 93100 MONTREUIL,46,2017-09-29 22:59:03,48.85550131286469,2.422055733613231,31004 - PARIS 2 (MONTREUIL),OPEN
432,3 RUE BOUDREAU - 75009 PARIS,8,2017-09-29 22:57:47,48.87219025140095,2.329423494000903,09106 - AUBER,OPEN
433,12 RUE FRANCOIS MILLET - 75016 PARIS,66,2017-09-29 22:58:35,48.85100487466529,2.272469482915694,16028 - MILLET - JEAN DE LA FONTAINE,OPEN
434,50 RUE LEIBNITZ - 75018 PARIS,41,2017-09-29 22:59:01,48.896328348515986,2.333390423834684,18034 - LEIBNITZ,OPEN
435,1 RUE HENRI BARBUSSE - 75005 PARIS,15,2017-09-29 22:58:43,48.84375698130157,2.339306721981416,05010 - SAINT MICHEL HENRI BARBUSSE,OPEN
436,224 RUE DE BERCY - 75012 PARIS,30,2017-09-29 22:57:49,48.84618800146489,2.37040616152132,12102 - DIDEROT BERCY,OPEN
437,8-10 RUE DE POISSY - 75005 PARIS,25,2017-09-29 22:54:03,48.84969041137042,2.352970183602024,05019 - POISSY,OPEN
438,RUE MOLITOR - 75016 PARIS,34,2017-09-29 22:55:40,48.84509712653168,2.265724147895062,16038 - RUE MOLITOR,OPEN
439,19 RUE ROSSINI - 75009 PARIS,33,2017-09-29 22:58:41,48.87334627510507,2.337980867701675,09022 - LAFITTE ROSSINI,OPEN
440,80 RUE OBERKAMPF - 75011 PARIS,22,2017-09-29 22:59:35,48.86530798423503,2.376019912019568,11030 - SAINT MAUR OBERKAMPF,OPEN
441,AVENUE LOUIS BARTHOU / PLACE DE LA COLOMBIE - 75016 PARIS,33,2017-09-29 22:58:01,48.863757931035046,2.267504683574771,16130 - BOIS DE BOULOGNE / PORTE DE LA MUETTE 2,OPEN
442,AVENUE DES MURS DU PARC - 94300 VINCENNES,50,2017-09-29 22:57:52,48.84696126017499,2.452237396596088,43009 - MURS DU PARC (VINCENNES),OPEN
443,2 RUE D'ARSONVAL - 75015 PARIS,25,2017-09-29 22:54:11,48.84040040365445,2.313117867297474,15113 - FALGUIERE ARSONVAL,OPEN
444,41 QUAI DE L'HORLOGE - 75001 PARIS,16,2017-09-29 23:00:51,48.857091635218225,2.341747995157864,01001 - ILE DE LA CITE PONT NEUF,OPEN
445,132 BOULEVARD DE CLICHY - 75018 PARIS,32,2017-09-29 22:54:47,48.88412710804656,2.328807098192234,18044 - CLICHY,OPEN
446,2 RUE PAUL VAILLANT COUTURIER - 92300 LEVALLOIS,35,2017-09-29 22:59:46,48.8936146524531,2.277618727223195,23001 - COUTURIER 1 (LEVALLOIS),OPEN
447,18 AVENUE MAC MAHON - 75017 PARIS,25,2017-09-29 23:02:15,48.8775320841302,2.29451253605293,17046 - MAC MAHON,OPEN
448,FACE 210 AVENUE JEAN JAURES - 75019 PARIS,60,2017-09-29 23:00:53,48.8887860708258,2.39268612206715,19018 - CITÉ DE LA MUSIQUE,OPEN
449,85 RUE JEAN DE LA FONTAINE - 75016 PARIS,31,2017-09-29 22:53:24,48.84842761367387,2.265253821160005,16033 - MICHEL ANGE AUTEUIL,OPEN
450,13 RUE DIDOT - 75014 PARIS,22,2017-09-29 22:54:23,48.8337,2.3215,14031 - DIDOT CHATEAU,OPEN
451,1 RUE GROS - 75016 PARIS,45,2017-09-29 22:57:09,48.851359912581465,2.277697269448623,16029 - MAISON DE RADIO FRANCE,OPEN
452,RUE JOUFFROY D'ABBANS - 75017 PARIS,40,2017-09-29 22:56:14,48.8842894403224,2.305497444260642,17021 - WAGRAM (17EME ARR.),OPEN
453,FACE 61-63 RUE DIDEROT- 93400 SAINT OUEN,50,2017-09-29 22:52:53,48.91157045930829,2.333910127129224,34010 - DIDEROT 2 (SAINT OUEN),CLOSED
454,33 RUE PIERRET - 92200 NEUILLY SUR SEINE,25,2017-09-29 23:01:45,48.883026659159576,2.260096983931875,22006 - PIERRET (NEUILLY),OPEN
455,28 RUE DE LORRAINE - 75019 PARIS,18,2017-09-29 22:55:04,48.886335082615275,2.38246120055766,19014 - LORRAINE,OPEN
456,18 PLACE ADOLPHE CHERIOUX - 75015 PARIS,66,2017-09-27 11:04:00,48.839635080561905,2.300654459291639,15038 - PLACE ADOLPHE CHERIOUX,CLOSED
457,48 BOULEVARD DE CHARONNE - 75011 PARIS,27,2017-09-29 22:57:12,48.85160266522164,2.398403047037931,20043 - CHARONNE AVRON,OPEN
458,30 AVENUE VERDIER 92120 MONTROUGE,29,2017-09-29 23:01:18,48.8155296336784,2.31702986373133,21207 - VERDIER (MONTROUGE),OPEN
459,164 RUE DE MENILMONTANT - 75020 PARIS,19,2017-09-29 22:59:53,48.87068263384462,2.398959602331646,20036 - MENILMONTANT - PELLEPORT,OPEN
460,23 RUE DESAIX - 75015 PARIS,12,2017-09-29 23:01:07,48.852804604940296,2.293077029857222,15067 - DESAIX,OPEN
461,35 RUE VERON - 75018 PARIS,21,2017-09-29 22:59:09,48.885257971348466,2.334617735640665,18114 - LEPIC VERON,OPEN
462,38 RUE DE LONDRES - 75009 PARIS,44,2017-09-29 22:59:48,48.87775323400056,2.327339290714228,09035 - PLACE DE BUDAPEST,OPEN
463,108 RUE D'ABOUKIR - 75002 PARIS,21,2017-09-29 22:55:28,48.868660481539266,2.35018588824494,02016 - ABOUKIR,OPEN
464,41 RUE JUSSIEU - 75005 PARIS,36,2017-09-29 23:02:36,48.847184641150214,2.353398379689353,05021 - JUSSIEU,OPEN
465,PLACE SAINT PIERRE - 75018 PARIS,33,2017-09-29 22:58:01,48.88469160640549,2.344139285947184,18006 - MARCHE ST-PIERRE,OPEN
466,25 RUE DU PONT LOUIS PHILIPPE - 75004 PARIS,45,2017-09-29 22:57:32,48.8559658562102,2.35638115487306,04015 - MAIRIE DU 4 EME,OPEN
467,72 RUE SAINT-FARGEAU - 75020 PARIS,32,2017-09-29 22:54:34,48.872747269036246,2.408203454302088,20117 - SAINT FARGEAU MORTIER,OPEN
468,104 AVENUE LOLIVE - 93500 PANTIN,22,2017-09-29 22:54:08,48.892139409307205,2.409107737701187,35009 - LOLIVE 1 (PANTIN),OPEN
469,FACE 16 RUE DES BATIGNOLLES - 75017 PARIS,23,2017-09-29 22:55:06,48.884101293163106,2.322206025347343,17012 - MAIRIE DU 17EME,OPEN
470,51 QUAI DE LA SEINE - 75019 PARIS,18,2017-09-29 22:59:46,48.88679881177337,2.374719516795626,19029 - SEINE FLANDRE,OPEN
471,7 RUE DE METZ - 75010 PARIS,72,2017-09-29 23:01:00,48.870893425955984,2.353521565011111,10004 - METZ,OPEN
472,21 RUE D'UZES - 75002 PARIS,30,2017-09-29 23:01:42,48.87077575727228,2.343163334385358,02010 - BOULEVARD MONTMARTRE,OPEN
473,24 RUE DE DOUAI - 75009 PARIS,25,2017-09-29 23:00:44,48.88235325984544,2.333263372748175,09027 - FONTAINE DOUAI,OPEN
474,18 BD DU TEMPLE - 75011 PARIS,36,2017-09-29 23:01:53,48.86442014173202,2.366136374249966,11040 - TEMPLE JEAN PIERRE TIMBAUD,OPEN
475,2 BOULEVARD JEAN JAURES -  92100 BOULOGNE-BILLANCOURT,23,2017-09-29 22:57:33,48.8456381388333,2.23701147134366,21003 - JAURES 1 (BOULOGNE-BILLANCOURT),OPEN
476,86 RUE TOLBIAC - 75013 PARIS,36,2017-09-29 22:58:48,48.82690019971573,2.365177603483576,13036 - TOLBIAC NATIONALE,OPEN
477,PLACE MARCEL CACHIN - 94200 IVRY SUR SEINE,51,2017-09-29 22:33:21,48.81414053750237,2.390909368067142,42014 - CACHIN (IVRY),OPEN
478,GARE DE L'EST-PARVIS GARE DE L'EST - 75010 PARIS,20,2017-09-29 22:57:12,48.8764198136411,2.3586300645446,00906 - GARE DE L'EST,OPEN
479,9 RUE DU COMMANDANT MOUCHOTE 75014 PARIS,39,2017-09-29 22:59:00,48.8393250250604,2.32095412572888,14117 - MOUCHOTTE,OPEN
480,48 RUE LOUIS BLANC - 75010 PARIS,39,2017-09-29 22:56:53,48.88199720999019,2.363625214552995,10031 - AQUEDUC,OPEN
481,56 RUE CHEVALERET - 75013 PARIS,21,2017-09-29 22:58:45,48.82941013459557,2.375934558013933,13053 - CHEVALERET TOLBIAC,OPEN
482,1/3 RUE DE ROCHECHOUART - 75009 PARIS,23,2017-09-29 22:59:55,48.876719895109,2.344393021853951,09010 - CADET,OPEN
483,14 AVENUE VICTORIA - 75001 PARIS,21,2017-09-29 22:58:10,48.857940092963034,2.347010058114489,01002 - PLACE DU CHATELET,OPEN
484,2 RUE BENJAMIN GODARD - 75016 PARIS,33,2017-09-29 22:58:10,48.86598324102434,2.275725635731198,16107 - GODARD,OPEN
485,36-38 RUE REGNAULT - 75013 PARIS,63,2017-09-29 23:00:09,48.82434285685922,2.376060091685724,13118 - PATAY REGNAULT,OPEN
486,106 RUE ALEXANDRE DUMAS - 75020 PARIS,44,2017-09-29 22:59:30,48.85535513998681,2.399728589689724,20013 - PLACE DE LA REUNION,OPEN
487,18 BOULEVARD D'AURELLE DE PALADINES - 75017 PARIS,41,2017-09-29 22:59:47,48.883498081948446,2.28201558962579,17105 - PALADINES,OPEN
488,10 RUE BELIDOR - 75017 PARIS,38,2017-09-29 22:52:34,48.88023362761321,2.285380679473588,17043 - PLACE GENERAL KOENIG,OPEN
489,56 AVENUE JEAN MOULIN - 75014 PARIS,33,2017-09-29 22:55:56,48.82570981702807,2.321849987344236,14037 - JEAN MOULIN,OPEN
490,04 PLACE DE LA MADELEINE - 75008 PARIS,37,2017-09-29 22:53:28,48.86909008833763,2.324429630496505,08005 - MADELEINE,OPEN
491,9 RUE LE GOFF - 75005 PARIS,35,2017-09-29 22:58:59,48.84623928170344,2.341324916011569,05003 - GAY LUSSAC LE GOFF,OPEN
492,2 RUE DU FAUBOURG DU TEMPLE - 75011 PARIS,38,2017-09-29 23:00:54,48.868,2.36498,11037 - FAUBOURG DU TEMPLE PLACE DE LA REPUBLIQUE,OPEN
493,68 RUE LOUIS BLANC - 75010 PARIS,20,2017-09-29 22:58:32,48.88384931844148,2.360053088985318,10034 - CHAPELLE LOUIS BLANC,OPEN
494,100 AVENUE DE LA MARNE - 92120 MONTROUGE,14,2017-09-29 23:02:18,48.811749821310805,2.303169887627808,21211 - MARNE (MONTROUGE),OPEN
495,FACE 25 RUE PERGOLESE - 75016 PARIS,38,2017-09-29 22:55:27,48.87518496111192,2.284219432060596,16002 - PERGOLESE,OPEN
496,FACE 2 PLACE D'ITALIE - 75013 PARIS,53,2017-09-29 22:59:10,48.83199636916928,2.354809472700658,13008 - ITALIE ROSALIE,OPEN
497,FACE 51 RUE VILLENEUVE - 92110 CLICHY,35,2017-09-29 22:59:03,48.90550311453459,2.310820381708937,21110 - VILLENEUVE (CLICHY),OPEN
498,51 RUE GUERSANT - 75017 PARIS,39,2017-09-29 22:59:28,48.88287775178599,2.287667370814871,17041 - PORTE DE VILLIERS,OPEN
499,1 RUE LAMENNAIS - 75008 PARIS,26,2017-09-29 22:52:38,48.87355533448877,2.303288666125152,08102 - LAMENAIS WASHINGTON,OPEN
500,17 RUE SAINT AMBROISE - 75011 PARIS,38,2017-09-29 23:02:06,48.8621350384716,2.377229858571335,11027 - SAINT AMBROISE PARMENTIER,OPEN
501,4 RUE ANDRE GIDE  - 75015 PARIS,20,2017-09-29 22:56:46,48.8365662244334,2.312707121097412,15027 - GIDE,OPEN
502,3-5 RUE LOUIS GANNE - 75020 PARIS,30,2017-09-29 22:54:15,48.86346964122224,2.409670100215905,20045 - LOUIS GANNE,OPEN
503,FACE 50 RUE RENE BOULANGER - 75010 PARIS,62,2017-09-29 23:01:46,48.86849994171273,2.359970049607283,10001 - JOHANN STRAUSS,OPEN
504,DEV 2 RUE JOSEPH LOUVILLE - 75015 PARIS,63,2017-09-29 23:00:16,48.844806421735925,2.297572005982148,15021 - CROIX NIVERT,OPEN
505,5 RUE BLEUE - 75009 PARIS,30,2017-09-29 22:56:25,48.87582185503067,2.347303230302456,09113 - BLEUE,OPEN
506,1 RUE DE PONTOISE - 75005 PARIS,23,2017-09-29 22:57:40,48.85045800918843,2.352454275492188,05107 - PONTOISE,OPEN
507,227 BOULEVARD PEREIRE SUR TPC - 75017 PARIS,46,2017-09-29 22:58:26,48.879813218337546,2.287956452342442,17040 - TERNES PEREIRE,OPEN
508,14 AVENUE STALINGRAD - 94120 FONTENAY SOUS BOIS,51,2017-09-29 22:56:24,48.850125232056115,2.455529172111142,41203 - STALINGRAD (FONTENAY SOUS BOIS),OPEN
509,FACE 3 BD GARIBALDI - 75015 PARIS,59,2017-09-29 23:00:39,48.84757532146731,2.30286310050181,15010 - CAMBRONNE,OPEN
510,3-5 RUE ROUGEMONT - 75009 PARIS,30,2017-09-29 22:57:02,48.87154221364212,2.345836455597928,09012 - ROUGEMONT,OPEN
511,25 RUE LOUIS LE GRAND - 75002 PARIS,31,2017-09-29 22:58:59,48.870508937203915,2.334054461939329,02015 - OPERA - CAPUCINES,OPEN
512,FACE AU 61 RUE ALBERT DHALENNE - 93400 SAINT OUEN,23,2017-09-29 23:01:37,48.914188312399,2.33208283587176,34011 - DHALENNE (SAINT OUEN),OPEN
513,RUE DU CHATEAU - 93170 BAGNOLET,25,2017-09-29 22:54:39,48.86302549226599,2.415622204179507,31706 - CHATEAU (BAGNOLET),OPEN
514,Avenue du Mahatma Gandhi face à la Fondation Louis Vuitton dans le Bois de Boulogne - 75016 PARIS,25,2017-09-29 23:00:32,48.876356,2.264205,16123 - MAHATMA GANDHI,OPEN
515,17 RUE LACUEE - 75012 PARIS,16,2017-09-29 22:53:33,48.849215862624035,2.370503423869599,12002 - LACUEE,OPEN
516,140 AVENUE DE SUFFREN - 75015 PARIS,46,2017-09-29 22:59:41,48.84717561492764,2.307052147596786,15009 - SUFFREN,OPEN
517,116 RUE DE REUILLY - 75012 PARIS,42,2017-09-29 23:00:21,48.84030274499962,2.394630398715453,12036 - REUILLY,OPEN
518,111 BD PORT ROYAL - 75014 PARIS,23,2017-09-29 22:59:52,48.838431825491696,2.340794666870659,14004 - PORT ROYAL COCHIN,OPEN
519,AV. DUTUIT - 75008 PARIS,41,2017-09-29 23:00:22,48.866843803252216,2.315779713410026,08001 - PETIT PALAIS,OPEN
520,62 RUE MESLAY - 75003 PARIS,34,2017-09-29 23:02:24,48.86863640502551,2.355591592778568,03101 - PORTE SAINT MARTIN,OPEN
521,FACE 8 PLACE JACQUES BONSERGENT - 75010 PARIS,33,2017-09-29 23:00:07,48.87099998982137,2.361141436574885,10010 - JACQUES BONSERGENT,OPEN
522,FACE 153 AVENUE DE CHOISY - 75013 PARIS,25,2017-09-29 22:57:46,48.828156251574946,2.358513532903332,13122 - PARC DE CHOISY,OPEN
523,1 RUE EMILE BLEMONT - 75018 PARIS,38,2017-09-29 23:01:24,48.89453090447961,2.341541339092219,18029 - POTEAU,OPEN
524,20 AVENUE ANDRE MORIZET - 92100 BOULOGNE-BILLANCOURT,25,2017-09-29 22:58:25,48.834953979664654,2.241688247102405,21005 - MORIZET (BOULOGNE-BILLANCOURT),OPEN
525,12 SQUARE DESNOUETTES - 75015 PARIS,22,2017-09-29 23:00:23,48.83476837934194,2.284142297394666,15061 - DESNOUETTES,OPEN
526,1 RUE DU COLONEL MONTEIL - 75014 PARIS,19,2017-09-29 22:59:16,48.8265029331101,2.30927479982717,14122 - BRUNE,OPEN
527,81 RUE MONT-CENIS - 75018 PARIS,39,2017-09-29 22:58:09,48.892925653432606,2.344517921162641,18025 - MAIRIE DU 18 EME,OPEN
528,RUE VELPEAU - 75007 PARIS,59,2017-09-29 23:00:12,48.85123038028847,2.325070038738617,07003 - BON MARCHE,OPEN
529,151 AVENUE PARMENTIER - 75010 PARIS,43,2017-09-29 23:01:51,48.87137987425661,2.369896383666685,10113 - PARMENTIER LOUVEL-TESSIER,OPEN
530,245 RUE DE CHARENTON - 75012 PARIS,33,2017-09-29 23:02:26,48.83667579640627,2.391795855555629,12030 - WATTIGNIES,OPEN
531,FACE 129 RUE DU FBG SAINT MARTIN - 75010 PARIS,34,2017-09-29 22:59:23,48.875670112481366,2.359509937592322,10161 - GARE DE L'EST,OPEN
532,2 PLACE DE PASSY - 75016 PARIS,15,2017-09-29 23:02:18,48.85780291711202,2.277500546942199,16043 - PLACE DE PASSY,OPEN
533,COURS DES MARECHAUX - 94300 VINCENNES,51,2017-09-29 22:52:42,48.84423193255657,2.439209537709179,12123 - CHATEAU DE VINCENNES,OPEN
534,5 RUE BINET - 75018 PARIS,29,2017-09-29 22:57:39,48.899268863316706,2.342963477309899,18122 - BINET,OPEN
535,"BERGES DE SEINE, ESCALIER PORT DU GROS CAILLOU - 75007 PARIS",20,2017-09-29 23:00:18,48.862905,2.306366,00908 - PORT DU GROS CAILLOU (STATION MOBILE),OPEN
536,FACE 71 AVENUE DE GRAVELLE - 75012 PARIS,50,2017-09-29 22:55:46,48.824407767562604,2.418455004234756,12126 - AVENUE DE GRAVELLE,OPEN
537,46 BOULEVARD SAINT JACQUES - 75014 PARIS,22,2017-09-29 23:01:10,48.833190318752514,2.336933391248149,14006 - SAINT JACQUES TOMBE ISSOIRE,OPEN
538,2 BIS BOULEVARD PEREIRE - 75017 PARIS,30,2017-09-29 22:54:43,48.888185641932566,2.310120536549759,17117 - PEREIRE SAUSSURE,OPEN
539,3 RUE JACQUES CALLOT 75006 PARIS,28,2017-09-29 22:54:30,48.8552546877505,2.33753933406029,06013 - JACQUES CALLOT,OPEN
540,4 RUE ROQUEPINE - 75008 PARIS,44,2017-09-29 22:56:16,48.8734861693498,2.32028123421063,08015 - ROQUEPINE,OPEN
541,8 RUE JEAN CALVIN - 75005 PARIS,28,2017-09-29 23:00:29,48.84163270861767,2.348552018116996,05014 - CALVIN,OPEN
542,20 RUE EDOUARD PAILLERON - 75019 PARIS,26,2017-09-29 23:02:03,48.8805744614225,2.376853000562019,19119 - BOURET PAILLERON,OPEN
543,20 RUE WURTZ - 75013 PARIS,28,2017-09-29 22:57:07,48.82649432826404,2.344301715865302,13048 - TOLBIAC WURTZ,OPEN
544,15 RUE DU VIEUX COLOMBIER - 75006 PARIS,21,2017-09-29 22:56:58,48.851647848142655,2.33081707438869,06003 - SAINT SULPICE,OPEN
545,5 PLACE SAINT AUGUSTIN - 75008 PARIS,22,2017-09-29 22:52:43,48.874923109802,2.319395144377322,08113 - PLACE ST AUGUSTIN,OPEN
546,6 RUE EDOUARD PAILLERON - 75019 PARIS,24,2017-09-29 22:55:26,48.879775248860305,2.374834351164813,19039 - PAILLERON,OPEN
547,51 RUE STEPHENSON - 75018 PARIS,36,2017-09-29 22:55:25,48.888864896056646,2.355966721417555,18012 - DOUDEAUVILLE STEPHENSON,OPEN
548,4 RUE KLEBER - 92130 ISSY LES MOULINEAUX,24,2017-09-29 22:54:23,48.82692976736927,2.272250431956518,21310 - KLEBER (ISSY LES MOULINEAUX),OPEN
549,FACE 35 RUE DE LA FONTAINE A MULARD - 75013 PARIS,33,2017-09-29 22:56:16,48.82245594764965,2.347382729482953,13025 - PLACE DE RUNGIS,OPEN
550,40 PIERRE ET MARIE CURIE - 93170 BAGNOLET,50,2017-09-29 22:57:18,48.870658012858954,2.424046437536216,31702 - CURIE (BAGNOLET),OPEN
551,3 BD STRASBOURG - 75010 PARIS,17,2017-09-29 23:00:33,48.86967912445944,2.354327697377583,10002 - STRASBOURG,OPEN
552,PARC DU STATIONNEMENT / GARE RER - 94340 JOINVILLE-LE-PONT,45,2017-09-29 22:58:51,48.819954101228014,2.464025504702534,43401 - GARE RER (JOINVILLE),OPEN
553,9 RUE FROMENT - 75011 PARIS,48,2017-09-29 23:01:18,48.8570414504784,2.37289470306807,11025 - FROMENT BREGUET,OPEN
554,5 PLACE DE LA NATION - 75011 PARIS,46,2017-09-29 23:01:12,48.8492766381855,2.39493447775012,11013 - NATION VOLTAIRE,OPEN
555,FACE 1 RUE DU COTENTIN - 75015 PARIS,33,2017-09-29 22:54:37,48.838936909959585,2.316168412063174,15114 - PASTEUR COTENTIN,OPEN
556,40 RUE BAYEN - 75017 PARIS,22,2017-09-29 22:56:25,48.881830717501,2.29214066582886,17037 - BAYEN PEREIRE,OPEN
557,24-26 RUE CADET - 75009 PARIS,19,2017-09-29 22:58:36,48.87563967181739,2.343523591554751,09101 - CADET LA FAYETTE,OPEN
558,15 RUE CHARLES DELESCLUZE - 75011 PARIS,49,2017-09-29 22:58:02,48.85252900039587,2.380583632323688,11101 - SQUARE NORDLING,OPEN
559,745 AVENUE DU GENERAL LECLERC - 92100 BOULOGNE-BILLANCOURT,50,2017-09-29 23:00:14,48.830586296160526,2.23449077993291,21012 - LECLERC (BOULOGNE-BILLANCOURT),OPEN
560,4 RUE DE LA REUNION - 75020 PARIS,25,2017-09-29 22:58:58,48.852566752033766,2.403928068708116,20132 - REUNION,OPEN
561,36-38 boulevard Soult - 75012 PARIS,42,2017-09-29 22:52:41,48.8403981721562,2.40922942058058,12042 - MONTEMPOIVRE,CLOSED
562,70 RUE DE LA CHAPELLE - 75018 PARIS,49,2017-09-29 22:58:35,48.89521990468008,2.360097619095422,18038 - ROND POINT DE LA CHAPELLE,OPEN
563,7 BOULEVARD DE DENAIN - 75010 PARIS,20,2017-09-29 22:56:22,48.87957771852628,2.354463131150579,10153 - GARE DU NORD 3,OPEN
564,1 AVENUE DE VERDUN - 75010 PARIS,14,2017-09-29 22:56:01,48.87615605427147,2.360914908320552,10023 - VERDUN,OPEN
565,14 RUE ROCHER - 75008 PARIS,64,2017-09-29 22:56:20,48.876079329226044,2.322731562049324,08017 - ROCHER,OPEN
566,98 RUE VITRUVE - 75020 PARIS,22,2017-09-29 22:55:03,48.86024012095245,2.408758427822183,20122 - DAVOUT VITRUVE,OPEN
567,31 RUE D'ARTOIS - 75008 PARIS,23,2017-09-29 23:01:18,48.873794318379595,2.306299550271081,08103 - D'ARTOIS BERRY,OPEN
568,AVENUE DU PRESIDENT WILSON / RUE DE LA METALLURGIE - 93200 SAINT DENIS,29,2017-09-29 23:02:32,48.90933002188958,2.358050565736408,32003 - METALLURGIE (SAINT DENIS),OPEN
569,43 RUE DE MONTREUIL - 94300 VINCENNES,25,2017-09-29 22:57:02,48.85041836676044,2.43451378622076,43004 - MONTREUIL (VINCENNES),OPEN
570,20 RUE DE PHALSBOURG - 75017 PARIS,20,2017-09-29 22:59:00,48.88260881643341,2.309026487339271,17019 - MALESHERBES,OPEN
571,64 RUE DE TOQUEVILLE - 75017 PARIS,31,2017-09-29 22:56:45,48.884924358880866,2.310908552941167,17119 - TOQUEVILLE,OPEN
572,1 RUE DES FILLES SAINT THOMAS - 75002 PARIS,59,2017-09-29 22:52:36,48.86885168937216,2.339731401086941,02009 - BOURSE,OPEN
573,78 RUE D'HAUTPOUL - 75019 PARIS,30,2017-09-29 23:00:27,48.88639367943585,2.386541454435452,19016 - OURCQ,OPEN
574,102 RUE LOUIS LUMIERE - 75020 PARIS,20,2017-09-29 23:00:46,48.864423648565946,2.410411115844628,20115 - PORTE DE BAGNOLET,OPEN
575,212 BOULEVARD CHARONNE - 75011 PARIS,23,2017-09-29 23:02:21,48.858445054261914,2.39039812238911,11021 - PHILIPPE AUGUSTE (20EME ARR.),OPEN
576,39 RUE DE LISBONNE - 75008 PARIS,39,2017-09-29 22:53:00,48.87745567681383,2.309694221419506,08036 - RIO,OPEN
577,22 rue de la Chaussée d'Antin - 75009 PARIS,28,2017-09-29 23:02:19,48.87243,2.33359,09039 - CHAUSSEE D'ANTIN,OPEN
578,25 RUE DE CLIGNANCOURT - 75018 PARIS,24,2017-09-29 22:57:51,48.88530162190401,2.347211037538656,18002 - CLIGNANCOURT,OPEN
579,2 AVENUE GEORGES CLEMENCEAU - 94130 NOGENT,50,2017-09-29 23:01:54,48.8361258429824,2.47037545126883,41301 - CLEMENCEAU (NOGENT),OPEN
580,197 AVENUE JEAN JAURES - 75019 PARIS,34,2017-09-29 22:58:52,48.88836894202208,2.390991659376403,19017 - PARC DE LA VILLETTE,OPEN
581,FACE 59 RUE BELLIARD - 75018 PARIS,32,2017-09-29 23:02:05,48.89748845974928,2.343996499337776,18032 - PORTE DE CLIGNANCOURT,OPEN
582,6 RUE DU COLISEE - 75008 PARIS,24,2017-09-29 22:57:46,48.870481938552295,2.307662540152187,08039 - COLISEE,OPEN
583,29 BOULEVARD EDGAR QUINET 75014 PARIS,33,2017-09-29 23:02:05,48.8415048015128,2.32327771564332,14101 - PLACE FERNAND MOURLOT,OPEN
584,1 QUAI AUX FLEURS - 75004 PARIS,21,2017-09-29 23:00:49,48.8529448879212,2.352088649440748,04003 - PONT SAINT LOUIS,OPEN
585,100 RUE RIQUET - 75018 PARIS,29,2017-09-29 22:58:36,48.89026411,2.36029911,18010 - MARX DORMOY - RIQUET,OPEN
586,9 PLACE DE LA MONTAGNE DU GOULET - 75015 PARIS,21,2017-09-29 23:00:53,48.84429286557653,2.277345897096496,15060 - MONDRIAN,OPEN
587,153 RUE DE BERCY - 75012 PARIS,35,2017-09-29 23:01:03,48.84190715333373,2.376605625312414,12105 - BERCY VILLOT,CLOSED
588,FACE 98 QUAI DE LA RAPEE - 75012 PARIS,69,2017-09-29 22:54:51,48.845886946386784,2.366896793773722,12003 - QUAI DE LA RAPEE,OPEN
589,132 / 136 AVENUE DU MAINE - 75014 PARIS,27,2017-09-29 22:57:15,48.835064363954,2.323731449973991,14103 - MAINE LIANCOURT,OPEN
590,88 AVENUE D'ITALIE - 75013 PARIS,40,2017-09-29 23:01:52,48.82583946069817,2.357215357508107,13030 - ITALIE TOLBIAC,OPEN
591,2 Avenue MARCEAU - 75008 PARIS,30,2017-09-29 22:57:27,48.865194405295554,2.300249545157282,08046 - ALMA MARCEAU,OPEN
592,1 RUE DE PASSY - 75016 PARIS,33,2017-09-29 23:01:25,48.85838125289731,2.284129012892127,16023 - RUE DE PASSY,OPEN
593,14 RUE DU PROFESSEUR RENE LERICHE - 92110 CLICHY,50,2017-09-29 23:01:00,48.90811038299345,2.307519710082483,21111 - LERICHE (CLICHY),OPEN
594,5-7 RUE D'ODESSA - 75014 PARIS,40,2017-09-29 22:58:30,48.842842278074414,2.324441565139471,14127 - ODESSA,OPEN
595,9 RUE PRIMO LEVI - 75013 PARIS,62,2017-09-29 22:58:50,48.83094844846017,2.37965351592796,13016 - PRIMO LEVI,OPEN
596,251 AVENUE DAUMESNIL - 75012 PARIS,19,2017-09-29 22:59:04,48.83749044650707,2.401825585802231,12010 - MICHEL BIZOT,OPEN
597,AVENUE BENOIT FRACHON - 75020 PARIS,30,2017-09-29 22:54:00,48.85255339271965,2.415542372109208,20105 - GAUMONT,OPEN
598,FACE 1 RUE MANIN - 75019 PARIS,23,2017-09-29 22:56:50,48.87649965412676,2.379407362599104,19023 - MANIN SIMON BOLIVAR,OPEN
599,2 AVENUE DE LA PORTE DE SEVRES / AQUABOULEVARD - 75015 PARIS,50,2017-09-29 22:53:32,48.83321982302087,2.276630334051614,15125 - AQUABOULEVARD,OPEN
600,42 AVENUE GEORGE V - 75008 PARIS,22,2017-09-29 22:52:55,48.870437805350605,2.300830261423519,08049 - DUNANT,OPEN
601,17 RUE DESCARTES - 75005 PARIS,31,2017-09-29 23:01:11,48.84660186578123,2.34901473289268,05017 - DESCARTES,OPEN
602,48 RUE BOINOD - 75018 PARIS,20,2017-09-29 22:55:05,48.89454171584971,2.352295466779576,18037 - AMIRAUX,OPEN
603,30 RUE DE CAMBRAI - 75019 PARIS,44,2017-09-29 22:53:15,48.89594736851349,2.381133802246315,19033 - CAMBRAI,OPEN
604,21 RUE CENSIER - 75005 PARIS,69,2017-09-29 22:57:05,48.84050866371248,2.353713552033412,05034 - CENSIER,OPEN
605,55 RUE DES SAINTS PERES - 75006 PARIS,26,2017-09-29 23:01:00,48.85394230916141,2.33015352476927,06024 - SAINT GERMAIN DES PRES,OPEN
606,FACE 21 PLACE DE LA NATION - 75011 PARIS,27,2017-09-29 22:58:20,48.848808,2.397406,11014 - NATION TRONE,OPEN
607,2 RUE DE L'INDRE - 75020 PARIS,36,2017-09-29 22:58:14,48.86272646274573,2.403351311000777,20021 - PRAIRIE L INDRE,OPEN
608,71 RUE DE RICHELIEU - 75002 PARIS,26,2017-09-29 22:54:59,48.86829988920071,2.338089782278504,02011 - BIBLIOTHEQUE NATIONALE,OPEN
609,1 ALLEE DOCTEUR CALMETTE - 93260 LES LILAS,25,2017-09-29 23:00:40,48.881141015697715,2.424974243066201,32603 - CALMETTE (LES LILAS),OPEN
610,ROUTE PORTE DES SABLONS / PORTE MAILLOT - 75016 PARIS,33,2017-09-29 22:55:08,48.87872089183019,2.270568097209188,16121 - SABLONS MAILLOT,OPEN
611,BOULEVARD RASPAIL - 75007 PARIS,54,2017-09-29 23:01:51,48.852241617707335,2.326606019476806,07101 - SEVRES BABYLONE,OPEN
612,AVENUE DU PRESIDENT WILSON / PARKING DE L'EGLISE SAINT JUSTE - 93210 SAINT DENIS,38,2017-09-29 23:01:32,48.908586716952485,2.358482457792231,32006 - EGLISE SAINT JUSTE (SAINT DENIS),OPEN
613,105 RUE DE CLIGNANCOURT - 75018 PARIS,39,2017-09-29 23:00:29,48.891457726153774,2.348636478060487,18024 - CLIGNANCOURT MARCADET,OPEN
614,44-46 AVENUE GAMBETTA - 75020 PARIS,27,2017-09-29 23:00:24,48.86535224200028,2.398946448081101,20106 - MAIRIE DU 20ÈME,OPEN
615,FETE DE L'OH (BERCY) - QUAI MAURIAC ANG PONT DE BERCY - 75013 PARIS,20,2017-09-29 22:59:26,48.8371336894515,2.37434055460561,00903 - QUAI MAURIAC  / PONT DE BERCY,OPEN
616,1 RUE CREVAUX - 75016 PARIS,31,2017-09-29 22:54:33,48.870809428669546,2.281149007691853,16105 - CREVAUX,OPEN
617,77 RUE TAITBOUT - 75009 PARIS,38,2017-09-29 22:52:40,48.876383969379,2.335356677933531,09025 - TAITBOUT CHÂTEAUDUN,OPEN
618,44 BOULEVARD D'ARGENSON - 92200 NEUILLY,25,2017-09-29 22:59:00,48.8886487735565,2.263904602692138,22002 - ARGENSON (NEUILLY),OPEN
619,81 RUE BOBILLOT - 75013 PARIS,33,2017-09-29 23:00:53,48.82552586188404,2.350205084974572,13024 - BOBILLOT TOLBIAC,OPEN
620,24 RUE DE CHORON - 75009 PARIS,17,2017-09-29 23:02:04,48.877770695346776,2.339784967507022,09016 - MARTYRS CHORON,OPEN
621,01 RUE DE PARME - 75009 PARIS,23,2017-09-29 23:00:52,48.88126642422664,2.328197093450571,09037 - CLICHY PARME,OPEN
622,5 RUE DE BELLEFOND - 75009 PARIS,17,2017-09-29 23:01:35,48.877501465298494,2.348569373385955,09001 - POISSONNIERE,OPEN
623,FACE 65 RUE PIXERECOURT - 75020 PARIS,15,2017-09-29 23:02:18,48.8738036229888,2.396012223300534,20002 - PIXERECOURT,OPEN
624,18 RUE ANATOLE FRANCE - 92300 LEVALLOIS-PERRET,50,2017-09-29 22:54:21,48.888762777712394,2.288136014379512,23009 - FRANCE (LEVALLOIS),OPEN
625,3 PLACE DE LA PORTE DE PANTIN - 75019 PARIS,33,2017-09-29 23:01:19,48.8890400680668,2.39528946179638,19046 - PORTE DE PANTIN,OPEN
626,"40, rue du Caire - 75002 PARIS",40,2017-09-29 22:52:54,48.86789,2.34925,02017 - CAIRE,OPEN
627,3 QUAI DE LA SEINE - 75019 PARIS,25,2017-09-29 23:02:11,48.884316180647176,2.369829579572023,19003 - QUAI DE SEINE,OPEN
628,76-78 BOULEVARD ADOLPHE PINARD - 75014 PARIS,49,2017-09-29 23:02:30,48.823653480254634,2.307766825585275,14023 - MALAKOFF PINARD,OPEN
629,4 RUE LEON SECHE - 75015 PARIS,32,2017-09-29 22:58:46,48.841709640161135,2.298549294011849,15020 - MAIRIE DU 15EME,OPEN
630,FACE 121 BOULEVARD RICHARD LENOIR - 75011 PARIS,36,2017-09-29 23:02:15,48.86580427668637,2.369337074966926,11039 - JULES FERRY REPUBLIQUE,OPEN
631,101 RUE DE BELLEVILLE - 75019 PARIS,42,2017-09-29 22:55:11,48.8743491365289,2.38609537399646,19041 - PYRÉNÉES,OPEN
632,FACE 3 RUE ALEXANDRE CHARPENTIER - 75017 PARIS,23,2017-09-29 22:56:16,48.88434112466304,2.288273752637337,17101 - ALEXANDRE CHARPENTIER,OPEN
633,5 AVENUE SAINT MANDE - 75012 PARIS,35,2017-09-29 23:02:18,48.8456092496701,2.395932627208539,12018 - SAINT MANDE - FAVRE,OPEN
634,8 RUE DE L'ARRIVEE - 75015 PARIS,43,2017-09-29 22:57:06,48.84374888916389,2.322451937473582,15001 - ARRIVEE,OPEN
635,34 AVENUE JEAN JAURES - 93310 LE PRE SAINT GERVAIS,23,2017-09-29 22:55:27,48.884001264434495,2.40798991938787,33103 - JAURES 2 (PRE SAINT GERVAIS),OPEN
636,5 BIS BOULEVARD DE L'HOPITAL - 75013 PARIS,14,2017-09-29 22:53:04,48.842524490766195,2.364044958656523,13014 - GARE D'AUSTERLITZ,OPEN
637,2 RUE HAXO - 75020 PARIS,21,2017-09-29 23:02:25,48.8694370761222,2.40539657537972,20109 - SURMELIN HAXO,OPEN
638,2 RUE DE BELGRADE - 75007 PARIS,20,2017-09-29 22:58:22,48.856059310074706,2.302239128884557,07103 - BELGRADE,OPEN
639,133 RUE DU CHERCHE MIDI - 75015 PARIS,36,2017-09-29 22:57:10,48.844703,2.317819,15006 - CHERCHE MIDI,OPEN
640,8 & 1 RUE PETIT - 75019 PARIS,33,2017-09-29 22:54:35,48.8845807406891,2.38012665025372,19013 - LAUMIERE,OPEN
641,12 RUE HONORE D'ESTIENNE D'ORVES - 93500 PANTIN,18,2017-09-29 22:53:33,48.89048461623744,2.406498213832891,35011 - D'ORVES (PANTIN),OPEN
642,26 RUE MOUTON DUVERNET - 75014 PARIS,31,2017-09-29 22:53:14,48.832501278703454,2.325401166692975,14032 - MOUTON DUVERNET - MAIRIE DU 14EME,OPEN
643,8 place de la république - 75011 PARIS,18,2017-09-29 22:58:25,48.86681,2.36547,11046 - VOLTAIRE,OPEN
644,BOULEVARD BOURDON - 75004 PARIS,36,2017-09-29 23:01:10,48.8525571174352,2.3682407194182,04007 - BOURDON,OPEN
645,1 RUE JACQUARD - 75011 PARIS,39,2017-09-29 23:02:32,48.86455576531679,2.373071507389205,11031 - PARMENTIER,OPEN
646,4 RUE ARMAND CARREL - 75019 PARIS,25,2017-09-29 23:01:58,48.88259146668893,2.381220610289335,19021 - MAIRIE DU 19 EME,OPEN
647,FACE AU 12 RUE DU HAMEAU FLEURIE - 92100 BOULOGNE BILLANCOURT,22,2017-09-29 23:01:50,48.83142865005039,2.241204653436161,21014 - HAMEAU FLEURI (BOULOGNE-BILLANCOURT),OPEN
648,12 AVENUE JEAN MOULIN - 75014 PARIS,39,2017-09-29 22:55:43,48.82742690008254,2.325760332846014,14010 - JEAN MOULIN ALESIA,OPEN
649,37 RUE SAMBRE ET MEUSE - 75010 PARIS,24,2017-09-29 22:59:02,48.87440566621717,2.373807237995119,10039 - SAMBRE ET MEUSE,OPEN
650,57-61 RUE DES PIROGUES DE BERCY - 75012 PARIS,55,2017-09-29 22:53:51,48.83370863507971,2.388556666222385,12110 - BARON LE ROY TRUFFAUT,OPEN
651,PLACE AMEDEE GIORDANI - 75015 PARIS,22,2017-09-29 22:54:10,48.830545669445776,2.292046396699678,15048 - OLIVIER DE SERRE,OPEN
652,12 RUE DE L'EPEE DE BOIS - 75005 PARIS,63,2017-09-29 22:58:41,48.841507637390066,2.349983047029793,05015 - MOUFFETARD EPEE DE BOIS,OPEN
653,12 RUE GRENETA - 75002 PARIS,34,2017-09-29 22:58:35,48.86524062169503,2.351669873689939,02001 - SEBASTOPOL-GRENATA,OPEN
654,9 BOULEVARD DES INVALIDES - 75007 PARIS,47,2017-09-29 22:59:17,48.857290118463105,2.31530968318177,07015 - VARENNE,OPEN
655,4 RUE RANELAGH DEVANT RER - 75016 PARIS,22,2017-09-29 23:01:10,48.85293316046699,2.280439719992999,16024 - KENNEDY RANELAGH,OPEN
656,RUE BARBES / AVENUE DE VERDUN - 94200 IVRY SUR SEINE,24,2017-09-29 22:58:53,48.81591109646686,2.368229729243504,42013 - BARBES (IVRY),OPEN
657,FACE 28 RUE JULES FERRY - 75011 PARIS,58,2017-09-29 23:02:25,48.8684101048247,2.36784149724351,11036 - JULES FERRY FAUBOURG DU TEMPLE,OPEN
658,65 - 67 RUE DES CEVENNES - 75015 PARIS,29,2017-09-29 22:53:00,48.84244145218906,2.281070755215898,15109 - CEVENNES,OPEN
659,272 RUE SAINT JACQUES - 75005 PARIS,19,2017-09-29 22:57:28,48.84186595652607,2.341202026662388,05004 - SAINT JACQUES VAL DE GRACE,OPEN
660,FACE 2 AVENUE DE LA SIBELLE - 75014 PARIS,24,2017-09-29 23:00:54,48.826703941183546,2.338636324158646,14012 - SIBELLE ALESIA,OPEN
661,Angle Avenue de Verdun et rue Pierre et Marie Curie - 94200 IVRY,28,2017-09-29 22:55:25,48.8128905614968,2.37065026341858,42007 - PIERRE ET MARIE CURIE (IVRY),OPEN
662,1 RUE ARSENE HOUSSAYE - 75008 PARIS,28,2017-09-29 22:59:53,48.873434081397704,2.29770677798004,08028 - HOUSSAYE,OPEN
663,FACE 53 RUE DU DEPARTEMENT - 75018 PARIS,17,2017-09-29 22:58:59,48.886665624668375,2.36151933793529,18110 - DEPARTEMENT,OPEN
664,116-118 RUE DE NOISY LE SEC - 93170 BAGNOLET,22,2017-09-29 22:56:44,48.874457717241434,2.415138092250742,31708 - NOISY (BAGNOLET),OPEN
665,63 Voie Georges Pompidou  - 75001 Paris,20,2017-09-29 22:59:41,48.8583208245,2.342408001422,00907 - PONT NEUF (STATION MOBILE),OPEN
666,FACE AU 25 RUE MECHAIN 75014 PARIS,16,2017-09-29 22:54:46,48.8358677209948,2.33798034198275,14112 - FAUBOURG SAINT JACQUES CASSINI,OPEN
667,9 RUE AMBROISE PARE - 75010 PARIS,47,2017-09-29 22:59:58,48.881949743161194,2.352339506562677,10107 - MAGENTA PARE,OPEN
668,8 RUE JULES GUESDE - 92300 LEVALLOIS-PERRET,25,2017-09-29 23:01:42,48.89086032289106,2.295000370135378,23006 - GUESDE (LEVALLOIS),OPEN
669,116 BD DE BELLEVILLE - 75020 PARIS,59,2017-09-29 23:02:34,48.87119943139012,2.37799433828966,20041 - BELLEVILLE,OPEN
670,FACE 34 RUE GRENIER SAINT LAZARE - 75003 PARIS,31,2017-09-29 22:59:06,48.863062832743175,2.352839380718154,03014 - GRENIER SAINT LAZARE,OPEN
671,10 RUE PERREE - 75003 PARIS,34,2017-09-29 23:02:25,48.86453080530752,2.361579815214986,03006 - MAIRIE DU 3EME,OPEN
672,FACE AU 7 RUE PAUL ELUARD - 94220 CHARENTON,32,2017-09-29 23:01:31,48.82040389400885,2.408405472156745,42203 - ELUARD (CHARENTON),OPEN
673,28 RUE SAINT PLACIDE - 75006 PARIS,66,2017-09-29 22:56:52,48.84913990321828,2.325175389412747,06026 - SAINT PLACIDE CHERCHE MIDI,OPEN
674,32 RUE ETIENNE MARCEL - 75002 PARIS,28,2017-09-29 22:53:18,48.864582377464885,2.346282111667021,02002 - MONTORGUEIL ETIENNE MARCEL,OPEN
675,21 RUE BEAUJON - 75008 PARIS,11,2017-09-29 22:53:06,48.875377647487014,2.296555342476269,08056 - WAGRAM,OPEN
676,2 RUE VALETTE - 75005 PARIS,37,2017-09-29 22:58:31,48.8469867528133,2.34649965376298,05032 - PANTHEON CARMES,OPEN
677,72 AVENUE CHARLES DE GAULLE - 92200 NEUILLY SUR SEINE,27,2017-09-29 22:58:00,48.8816744459654,2.27117749892451,22010 - DE GAULLE 4 (NEUILLY),OPEN
678,4 - 6 rue Faustin Helie - 75016 PARIS,32,2017-09-29 22:53:08,48.85940308194,2.2765220890277,16111 - HELIE,OPEN
679,5 BOULEVARD JOURDAN - 75014 PARIS,60,2017-09-29 22:55:54,48.81940130486362,2.34337661053354,14014 - STADE CHARLETY,OPEN
680,55 BD VINCENT AURIOL - 75013 PARIS,22,2017-09-29 22:55:59,48.834183,2.370347,13049 - COUR FREYSSINET  1 - VINCENT-AURIOL,OPEN
681,4 RUE DE MADAGASCAR - 75012 PARIS,33,2017-09-29 23:00:50,48.834705859741675,2.397111552649508,12035 - MADAGASCAR,OPEN
682,FACE AU 106 AVENUE DE LA REPUBLIQUE - 93300 AUBERVILLIERS,32,2017-09-29 22:52:53,48.906383398095834,2.3895475019254,33005 - REPUBLIQUE 2 (AUBERVILLIERS),OPEN
683,74 RUE CROZATIER - 75012 PARIS,30,2017-09-29 22:57:36,48.8504400134045,2.37890136621104,12005 - CROZATIER,OPEN
684,BOULEVARD DE GRENELLE - 75015 PARIS,67,2017-09-29 22:57:33,48.849921101862066,2.294660575884377,15106 - GRENELLE VIOLET (PROP3),OPEN
685,55 BOULEVARD DE CLICHY - 75018 PARIS,20,2017-09-29 23:01:26,48.88356474485461,2.333418629410461,18043 - BLANCHE,OPEN
686,19BIS/21 RUE LEGENDRE - 75017 PARIS,49,2017-09-29 23:01:36,48.88368821751221,2.313284405397194,17015 - PLACE DE LEVIS,OPEN
687,55 RUE DUNOIS - 75013 PARIS,51,2017-09-29 22:54:27,48.832272458639544,2.367415866750153,13043 - DUNOIS CLISSON,OPEN
688,4 RUE DE LONGCHAMP - 75016 PARIS,39,2017-09-29 22:55:19,48.864910448589,2.292519101004145,16007 - LONGCHAMP,OPEN
689,55 BD VINCENT AURIOL - 75013 PARIS,23,2017-09-29 23:00:03,48.83298,2.371373,13051 -COUR FREYSSINET 2 - CHEVALERET,OPEN
690,43 AVENUE RAPP - 75007 PARIS,31,2017-09-29 22:55:44,48.8581690434843,2.300528330043888,07024 - AVENUE RAPP,OPEN
691,22 RUE DU PRESIDENT WILSON - 92300 LEVALLOIS-PERRET,25,2017-09-29 23:01:53,48.890380265413896,2.292160482166423,23007 - WILSON (LEVALLOIS),OPEN
692,FACE 109 QUAI D'AUSTERLITZ - 75013 PARIS,27,2017-09-29 23:01:56,48.84379047732037,2.365585665575604,13104 - GARE D'AUSTERLITZ,OPEN
693,PLACE JULES FERRY / AVENUE ARISTIDE BRIAND - 92120 MONTROUGE,28,2017-09-29 22:57:55,48.81251090819872,2.325680623044519,21203 - BRIAND (MONTROUGE),OPEN
694,"26, Quai Marcel Boyer / rue Victor Hugo - 94200 IVRY",29,2017-09-29 22:57:19,48.8225048,2.3920678,42011 - MARCEL BOYER (IVRY),OPEN
695,6 RUE DU FOUARRE - 75005 PARIS,16,2017-09-29 22:57:33,48.85165117936709,2.347463334519655,05009 - SQUARE VIVIANI,OPEN
696,2-4 rue DE LA GRANDE TRUANDERIE 75001 PARIS,33,2017-09-29 22:59:07,48.86263180415945,2.349732144830979,01006 - GRANDE TRUANDERIE,OPEN
697,67 RUE CARVES ANGLE AVENUE HENRI GINOUX - 92120 MONTROUGE,30,2017-09-29 22:54:20,48.813080911445375,2.319787936689348,21208 - CARVES (MONTROUGE),OPEN
698,71 AVENUE HENRI MARTIN - 75016 PARIS,34,2017-09-29 22:59:48,48.8640767117056,2.276881687006711,16013 - AVENUE HENRI MARTIN,OPEN
699,PLACE DE LA REPUBLIQUE - 92300 LEVALLOIS,25,2017-09-29 22:53:30,48.89319467536488,2.288914160056623,23008 - REPUBLIQUE (LEVALLOIS),OPEN
700,57 RUE ORDENER - 75018 PARIS,34,2017-09-29 23:02:23,48.891213890844654,2.351288666219873,18023 - POISSONNIERS ORDENER,OPEN
701,53 AVENUE DE SAINT OUEN - 75018 PARIS,31,2017-09-29 22:52:35,48.891083040295555,2.326735694839291,18047 - ST OUEN LAMARCK,OPEN
702,7 RUE SAINTE ELISABETH - 75003 PARIS,33,2017-09-29 22:58:23,48.866137224583404,2.359661143626467,03005 - TURBIGO SAINTE ELISABETH,OPEN
703,67 RUE CHAMPIONNET - 75018 PARIS,46,2017-09-29 22:53:08,48.8957969797804,2.345585584134864,18031 - ALBERT KAHN,OPEN
704,139 AVENUE DE FLANDRE - 75019 PARIS,30,2017-09-29 22:54:05,48.89270999207067,2.379199748024915,19007 - OURCQ-FLANDRES,OPEN
705,FACE 66 - 70 RUE LEBLANC - 75015 PARIS,65,2017-09-29 22:56:33,48.837679003308445,2.275730609312381,15104 - HÔPITAL GEORGES POMPIDOU (PROP 2),OPEN
706,15 AVENUE EMILE LAURENT - 75012 PARIS,67,2017-09-29 23:02:27,48.840762277598394,2.41052344083499,12023 - SAHEL,OPEN
707,FACE 2 RUE ORFILA - 75020 PARIS,49,2017-09-29 22:58:06,48.86518641284941,2.394468581137673,20028 - GAMBETTA MARTIN NADAUD,OPEN
708,13/15 PLACE DU GENERAL DE GAULLE - 93100 MONTREUIL,26,2017-09-29 22:56:08,48.8688123638694,2.43297479522392,31009 - DE GAULLE (MONTREUIL),OPEN
709,53 BIS - 57 BD ARAGO - 75013 PARIS,30,2017-09-29 22:58:33,48.8349314,2.3447341,13002 - ARAGO - GLACIERE,OPEN
710,88 BOULEVARD AUGUSTE BLANQUI (SUR TPC) - 75013 PARIS,68,2017-09-29 23:02:28,48.83062407509372,2.345429456645987,13004 - GLACIERE,OPEN
711,1 RUE CLAPEYRON - 75008 PARIS,16,2017-09-29 23:00:15,48.88093535677379,2.324516635146477,08011 - DUBLIN,OPEN
712,24 RUE LE VAU - 75020 PARIS,25,2017-09-29 22:57:08,48.86803439043193,2.411030612453627,20103 - LE VAU BERTEAUX,OPEN
713,89 RUE DE PARIS - 94220 CHARENTON,22,2017-09-29 23:02:36,48.82214312580457,2.412602786467704,42205 - PARIS 1 (CHARENTON),OPEN
714,237 RUE SAINT HONORE - 75001 PARIS,14,2017-09-29 22:56:33,48.866698008473534,2.328288185716643,01019 - SAINT HONORE VENDOME,OPEN
715,FACE 29 RUE DU SAHEL - 75012 PARIS,33,2017-09-29 22:53:11,48.84089981382828,2.404380102963422,12022 - BIZOT,OPEN
716,4-6 RUE GOUBET - 75019 PARIS,23,2017-09-29 23:00:15,48.88466206560529,2.390209687445294,19020 - MANIN HAUTPOUL,OPEN
717,61 RUE PERNETY - 75014 PARIS,33,2017-09-29 22:58:02,48.83425462795304,2.317609339386963,14030 - LOSSERAND - PERNETY,OPEN
718,39 QUAI D'ORSAY - 75007 PARIS,25,2017-09-29 23:01:38,48.86269,2.31138,07026 - PLACE DE FINLANDE,OPEN
719,2 RUE DE LA REPUBLIQUE - 92170 VANVES,25,2017-09-29 23:00:02,48.8217026998931,2.285395624828388,21704 - REPUBLIQUE (VANVES),OPEN
720,14 avenue de Verdun - 94410 SAINT MAURICE,25,2017-09-29 23:02:20,48.822175804937544,2.421504476062366,44102 - VERDUN (SAINT MAURICE),OPEN
721,PLACE BARBES - 75009 PARIS,25,2017-09-29 22:56:48,48.8836531972476,2.349040855034395,09003 - PLACE BARBÈS,CLOSED
722,17 RUE MOLIERE 92120 MONTROUGE,30,2017-09-29 22:55:29,48.8111018377725,2.314629747785,21209 - GEORGES MESSIER (MONTROUGE),OPEN
723,153 BIS AVENUE CHARLES DE GAULLE - 92200 NEUILLY SUR SEINE,27,2017-09-29 22:53:10,48.882951625354735,2.265135008741844,22008 - DE GAULLE (NEUILLY),OPEN
724,1 RUE  KENNEDY / ALLEE RONSARD - 94220 CHARENTON,23,2017-09-29 22:52:32,48.822736012097714,2.405659203207511,42202 - RONSARD (CHARENTON),OPEN
725,15 AVENUE DE LA PORTE D'ITALIE - 75013 PARIS,14,2017-09-29 22:58:46,48.817312300431965,2.360218480943566,13033 - PORTE D'ITALIE,OPEN
726,12 RUE JEAN OESTREICHER - 75017 PARIS,39,2017-09-29 23:01:39,48.88657099335245,2.288612344984025,17032 - ESPACE CHAMPERRET,OPEN
727,5 RUE DU PASSAGE PHILIPPE AUGUSTE - 75011 PARIS,46,2017-09-29 22:56:56,48.8518182000139,2.393255376309212,11016 - PHILIPPE AUGUSTE,OPEN
728,42 RUE SAINT SEVERIN - 75005 PARIS,30,2017-09-29 22:53:01,48.852705647705136,2.344137763245671,05033 - SAINT SEVERIN,OPEN
729,FACE AU N°16 BOULEVARD DE BERCY - 75012 PARIS,66,2017-09-29 23:02:29,48.84002,2.37862,12108 - BERCY,OPEN
730,43-45 RUE BLANQUI / RUE DES ROSIERS - 93400 SAINT OUEN,25,2017-09-29 22:58:42,48.905362251416825,2.33738964850196,34007 - ROSIERS (SAINT OUEN),OPEN
731,4 RUE DE RAMPAL - 75019 PARIS,15,2017-09-29 22:57:35,48.87315262385819,2.379855610627962,19102 - BELLEVILLE RAMPAL,OPEN
732,23 rue Georges Sand - 75016 PARIS,29,2017-09-29 22:54:27,48.84986918764119,2.268257387525699,16116 - GEORGES SAND,OPEN
733,AVENUE ARISTIDE BRIAND (CARREFOUR VACHE NOIRE) - 94110 ARCUEIL,25,2017-09-29 23:01:51,48.8104231700653,2.326969764620641,41103 - BRIAND (ARCUEIL),OPEN
734,FACE 118 COURS DE VINCENNES - 75012 PARIS,45,2017-09-29 23:01:16,48.84698906998311,2.410145496563922,12020 - COURS DE VINCENNES - BD SOULT,OPEN
735,VIS-A-VIS DU 17 RUE DE LA GARE - 94200 IVRY SUR SEINE,21,2017-09-29 23:02:16,48.81492646724632,2.392001635824925,42002 - GARE (IVRY),OPEN
736,1 BIS AVENUE VICTOR CRESSON - 92130 ISSY LES MOULINEAUX,41,2017-09-29 22:56:19,48.82371847766811,2.272254454061792,21309 - CRESSON 2 (ISSY LES MOULINEAUX),OPEN
737,ECOLE MILITAIRE-AVENUE DE LA MOTTE PICQUET - 75007 PARIS,30,2017-09-29 23:02:32,48.8521809,2.3019186,00904 -17/19 PLACE JOFFRE / ECOLE MILITAIRE,OPEN
738,1-3 RUE DU PRE SAINT GERVAIS - 93500 PANTIN,24,2017-09-29 22:54:34,48.8910789762746,2.402775519686335,35010 - GERVAIS (PANTIN),OPEN
739,10 RUE D'ARCOLE - 75004 PARIS,32,2017-09-29 23:01:48,48.85398414441304,2.349380045291025,04001 - NOTRE DAME,OPEN
740,91 RUE DU RANELAGH - 75016 PARIS,23,2017-09-29 22:59:14,48.855484883720074,2.270408657395703,16026 - RANELAGH,OPEN
741,139 RUE DE LA JARRY - 94300 VINCENNES,25,2017-09-29 23:01:45,48.849744956976856,2.451960306308826,43010 - JARRY (VINCENNES),OPEN
742,76 RUE CAMBRONNE - 75015 PARIS,67,2017-09-29 22:57:58,48.843277330035214,2.30230766886348,15012 - MADEMOISELLE,OPEN
743,130 RUE JEAN JAURES - 93500 PANTIN,31,2017-09-29 22:57:45,48.907226012664125,2.396129200445667,35002 - JAURES 2 (PANTIN),OPEN
744,69 RUE DE LA GRANGE AUX BELLES - 75010 PARIS,28,2017-09-29 22:55:12,48.87752002849063,2.369791245076398,10038 - COLONEL FABIEN,OPEN
745,10 RUE JACQUIER - 75014 PARIS,36,2017-09-29 22:52:37,48.829570404732145,2.318353021413872,14025 - JACQUIER,OPEN
746,69 RUE DE PROVENCE - 75009 PARIS,25,2017-09-29 22:54:36,48.87428447542072,2.332976511564311,09031 - PROVENCE,CLOSED
747,12 RUE DES HALLES - 75001 PARIS,42,2017-09-29 22:59:20,48.859896314441485,2.346756667548724,01004 - MARGUERITE DE NAVARRE,OPEN
748,1 RUE SORBIER - 75020 PARIS,24,2017-09-29 22:54:44,48.8685264710698,2.389795409535456,20034 - SORBIER - MÉNILMONTANT,OPEN
749,49 RUE RAMBUTEAU - 75004 PARIS,26,2017-09-29 22:52:42,48.861419072223185,2.35258144286207,04021 - BEAUBOURG RAMBUTEAU,OPEN
750,11 RUE MALTE BRUN - 75020 PARIS,29,2017-09-29 22:54:29,48.864295696165875,2.398228667282044,20024 - GAMBETTA - PÈRE LACHAISE,OPEN
751,1 RUE ROBESPIERRE - 94200 IVRY,53,2017-09-29 22:59:31,48.81084586456464,2.383950863420485,42010 - ROBESPIERRE (IVRY),OPEN
752,face au 131 avenue Jean Jaurès 92120 Montrouge,26,2017-09-29 22:59:54,48.8138629635867,2.30694360566078,21205 - JAURES 2 (MONTROUGE),OPEN
753,157 BIS-159 RUE DES POISSONNIERS - 75018 PARIS,32,2017-09-29 22:53:28,48.89740678787196,2.352526659355508,18105 - BELIARD POISSONNIERS,OPEN
754,13 RUE MICHELET - 75006 PARIS,16,2017-09-29 22:58:56,48.84254096604404,2.335067885565505,06018 - MICHELET ASSAS,OPEN
755,RUE DES DOCTEURS DEJERINE - 75020 PARIS,20,2017-09-29 22:56:10,48.85402328452585,2.412058016605679,20009 - DOCTEUR DEJERINE,OPEN
756,56 RUE DE PARIS - 93100 MONTREUIL,46,2017-09-29 23:00:11,48.857364,2.4321581,31007 - PARIS 1 (MONTREUIL),OPEN
757,PLACE CHARLES VALLIN - 75015 PARIS,14,2017-09-29 22:55:42,48.835524753591024,2.302621940941139,15122 - PLACE CHARLES VALLIN,OPEN
758,1 PLACE DE LA PORTE DE PASSY - 75016 PARIS,35,2017-09-29 23:01:56,48.85738212799326,2.264277072081002,16020 - PORTE DE PASSY,OPEN
759,74 RUE JEAN BLEUZEN - 92170 VANVES,48,2017-09-29 22:54:39,48.82330323408161,2.296506343553357,21706 - BLEUZEN (VANVES),OPEN
760,32 RUE DE LA HARPE - 75005 PARIS,43,2017-09-29 23:02:10,48.851581340028176,2.343704536722773,05001 - SAINT GERMAIN HARPE,OPEN
761,1 RUE GALILEE - 75016 PARIS,32,2017-09-29 22:58:59,48.86741186571367,2.290781380114821,16008 - GALILEE KLEBER,OPEN
762,31 RUE FRANCOEUR - 75018 PARIS,18,2017-09-29 23:01:53,48.89104123261663,2.340014585442034,18020 - RUISSEAU,OPEN
763,FACE 18 RUE DE L'HOTEL DE VILLE - 75004 PARIS,36,2017-09-29 22:59:32,48.85381414531594,2.357092654363953,04011 - PLACE DU BATAILLON FRANCAIS DE L'ONU,OPEN
764,FACE 35 AVENUE PIERRE BROSSOLETTE - 92240 MALAKOFF,24,2017-09-29 22:57:03,48.82183564791793,2.313458608254228,22403 - BROSSOLETTE (MALAKOFF),OPEN
765,1 RUE DE ROME - 75008 PARIS,30,2017-09-29 22:54:46,48.874230055580306,2.325570111724113,08007 - HAUSSMANN ROME,OPEN
766,139 RUE MANIN - 75019 PARIS,20,2017-09-29 22:53:55,48.88477085803391,2.392093119901052,19103 - MANIN CARRIERES,OPEN
767,1 RUE VOLTAIRE - 93400 SAINT OUEN,25,2017-09-29 22:54:37,48.90249976045801,2.342248144661283,34004 - VOLTAIRE (SAINT OUEN),OPEN
768,22 RUE FRANCOIS 1ER - 75008 PARIS,28,2017-09-29 23:00:01,48.866887649978096,2.306675575720671,08038 - FRANCOIS 1 ER,OPEN
769,4 AVENUE D'IVRY - 75013 PARIS,50,2017-09-29 23:02:05,48.82196244101745,2.368528699972122,13041 - PORTE D'IVRY,OPEN
770,22 RUE DE LIEGE - 75008 PARIS,17,2017-09-29 22:55:29,48.879581165638115,2.326427352474812,08010 - LIEGE,OPEN
771,4 RUE DU CLOITRE SAINT MERRI - 75004 PARIS,32,2017-09-29 22:54:07,48.858828988192535,2.35189147061665,04019 - BEAUBOURG SAINT MERRY,OPEN
772,6 PASSAGE DE MELUN - 75019 PARIS,27,2017-09-29 23:00:29,48.883777,2.376515,19030 - MOSELLE JAURES,OPEN
773,2 BIS BOULEVARD ANDRE MAUROIS - 75016 PARIS,29,2017-09-29 22:59:02,48.87793081716105,2.278959824969939,16003 - ANDRE MAUROIS,OPEN
774,6 AVENUE VICTOR BASCH - 92170 VANVES,51,2017-09-29 22:58:06,48.81893986428991,2.291959872467908,21702 - BASCH (VANVES),OPEN
775,42 RUE DES MORILLONS - 75015 PARIS,29,2017-09-29 23:01:58,48.832207345184806,2.302328737691185,15046 - GEORGES BRASSENS,OPEN
776,1 RUE SAINT BENOIT - 75006 PARIS,23,2017-09-29 22:55:42,48.85549998439073,2.333445220031193,06002 - SAINT PÈRES,OPEN
777,AV DE LA PTE DU PRES SAINT GERVAIS / ANGLE BD D'ALGERIE - 75019 PARIS,33,2017-09-29 22:54:32,48.879930415528435,2.400950502014892,19036 - HOPITAL ROBERT DEBRE,OPEN
778,186 RUE SAINT HONORE - 75001 PARIS,66,2017-09-29 23:00:11,48.86243023476397,2.338520131151779,01013 - SAINT HONORE,OPEN
779,48 RUE DE L'OUEST - 75014 PARIS,24,2017-09-29 23:01:21,48.83617286014242,2.319392143923804,14034 - RUE DE L OUEST CHATEAU,OPEN
780,53 BOULEVARD DE REUILLY - 75012 PARIS,40,2017-09-29 22:53:41,48.8394854026542,2.397212376289136,12037 - DAUMESNIL,OPEN
781,127/129 RUE DE PARIS - 93100 MONTREUIL,44,2017-09-29 22:57:09,48.85628451618644,2.426434490609822,31005 - PARIS 2  (MONTREUIL),OPEN
782,11 PLACE DE L'HOTEL DE VILLE - 75004 PARIS,14,2017-09-29 22:59:21,48.857232,2.351621,04017 - PLACE DE L'HOTEL DE VILLE,OPEN
783,11 AVENUE VICTOR HUGO - 92170 VANVES,23,2017-09-29 23:00:08,48.823599644256994,2.288819729513169,21705 - HUGO (VANVES),OPEN
784,105-109 TERRE PLEIN SAINT PAUL - 75004 PARIS,26,2017-09-29 23:00:51,48.855023999040945,2.361203538755455,04010 - SAINT PAUL PAVÉE,OPEN
785,4-6 RUE JACQUES KELLNER - 75017 PARIS,45,2017-09-29 23:02:33,48.895809485802886,2.327897409164145,17003 - JACQUES KELLNER,OPEN
786,27/31 RUE DE CHATEAUBRIAND - 75008 PARIS,31,2017-09-29 22:57:25,48.8740144756374,2.29991625786582,08104 - FRIEDLAND CHATEAUBRIAND,OPEN
787,1 AVENUE DE LA MOTTE PICQUET - 75007 PARIS,39,2017-09-29 23:02:32,48.85727649829621,2.310257927534994,07017 - LA TOUR MAUBOURG,OPEN
788,16 BOULEVARD BINEAU - 92300 LEVALLOIS-PERRET,25,2017-09-29 22:54:43,48.88668137249892,2.284023691218167,23011 - BINEAU (LEVALLOIS),OPEN
789,122 RUE BRANCION - 75015 PARIS,11,2017-09-29 23:02:03,48.8290542164508,2.301417436043831,15043 - BRANCION,OPEN
790,51/57 QUAI FRANCOIS MAURIAC - 75013 PARIS,42,2017-09-29 22:55:12,48.8348392381466,2.37633056938648,13123 - BNF - QUAI FRANÇOIS MAURIAC,OPEN
791,2 RUE REYNALDO HAHN - 75020 PARIS,19,2017-09-29 22:56:07,48.849266043601794,2.412330328844772,20005 - RUE DE LAGNY SAINT MANDE,OPEN
792,65 RUE DE LA GOUTTE D'OR - 75018 PARIS,18,2017-09-29 22:56:40,48.88519800938002,2.349941991688297,18007 - GOUTTE D' OR,OPEN
793,65 RUE DANTZIG - 75015 PARIS,33,2017-09-29 23:01:50,48.83026939028785,2.296008076086666,15044 - J DUPRE,OPEN
794,FACE 3 AVENUE PAUL DE KOCK - 93260 LES LILAS,28,2017-09-29 22:55:36,48.8812154273023,2.42020915533382,32604 - KOCK (LES LILAS),OPEN
795,26 AVENUE DU MAINE - 75015 PARIS,17,2017-09-29 22:56:58,48.84308531746595,2.320263946784738,15002 - BOURDELLE,OPEN
796,FACE 24 BOULEVARD PASTEUR - 75015 PARIS,42,2017-09-29 23:00:38,48.84265080464087,2.312727390214462,15005 - PLACE TREFOUEL,OPEN
797,2 RUE DE CHATEAU LANDON - 75010 PARIS,59,2017-09-29 23:00:02,48.879305,2.362424,10026 - CHATEAU LANDON,OPEN
798,2 RUE LEREDDE - 75013 PARIS,43,2017-09-29 23:00:13,48.8289747443296,2.37433200085619,13052 - TOLBIAC LERREDE,OPEN
799,6 PLACE DU 25 AOUT 1944 - 75014 PARIS,47,2017-09-29 22:59:33,48.8228575017159,2.325042670917036,14018 - PORTE D'ORLEANS,OPEN
800,FACE 5 BOULEVARD MARTIAL VALIN - 75015 PARIS,20,2017-09-29 23:01:55,48.838171310248995,2.270338379746369,15068 - BOULEVARD VICTOR,OPEN
801,59 RUE DE LA CONVENTION - 75015 PARIS,19,2017-09-29 23:01:14,48.84329535889522,2.283209000018466,15063 - SAINT CHARLES - CONVENTION,OPEN
802,177 RUE SADI CARNOT - 93170 BAGNOLET,27,2017-09-29 23:01:46,48.8752669984009,2.4236494905184,31703 - CARNOT (BAGNOLET),OPEN
803,11 RUE DU TRANSVAL - 92100 BOULOGNE-BILLANCOURT,26,2017-09-29 23:02:36,48.84829980953699,2.237570110207174,21001 - TRANSVAL (BOULOGNE-BILLANCOURT),OPEN
804,5 RUE DE CHEVREUSE - 75006 PARIS,15,2017-09-29 23:00:01,48.841739161230905,2.331552216736739,06010 - MONTPARNASSE CHEVREUSE,OPEN
805,18 PLACE HENRI BERGSON - 75008 PARIS,32,2017-09-29 22:59:05,48.876201162155006,2.319793923972548,08018 - SAINT AUGUSTIN,OPEN
806,104 AVENUE DE PARIS - 94300 VINCENNES,26,2017-09-29 22:54:29,48.845719900926,2.427406302761393,43003 - PARIS 2 (VINCENNES),OPEN
807,146 BOULEVARD GRENELLE - 75015 PARIS,34,2017-09-29 22:54:29,48.848656315905245,2.299244076945987,15023 - LA MOTTE PIQUET,OPEN
808,13 RUE JUSSIEU - 75005 PARIS,24,2017-09-29 22:55:54,48.845616878509624,2.355745499998791,05023 - PLACE JUSSIEU,OPEN
809,PLACE CHARLES DIGEON - 94160 SAINT MANDE,32,2017-09-29 22:58:59,48.84354695991566,2.418317476567148,41602 - DIGEON (SAINT MANDE),OPEN
810,16 RUE BARBES - 92120 MONTROUGE,34,2017-09-29 22:55:13,48.8172449116699,2.32750599924383,21202 - BARBES (MONTROUGE),OPEN
811,1 COURS DE VINCENNES - 75020 PARIS,36,2017-09-29 23:01:13,48.848364667776785,2.399762385981272,20001 - PLACE DE LA NATION,OPEN
812,5 RUE DE LA SORBONNE - 75005 PARIS,50,2017-09-29 22:58:53,48.849770370603345,2.343573575733007,05030 - SORBONNE,OPEN
813,3 RUE BEFFROY - 92200 NEUILLY,25,2017-09-29 23:00:53,48.886704983104785,2.261263518031739,22003 - BEFFROY (NEUILLY),OPEN
814,3 RUE DU CHATEAU D'EAU - 75010 PARIS,17,2017-09-29 22:59:01,48.86909174869475,2.362261761814593,10011 - BOURSE DU TRAVAIL,OPEN
815,304 RUE DE BELLEVILLE - 75019 PARIS,31,2017-09-29 23:02:07,48.87660391892763,2.404769691129476,19037 - PORTE DES LILAS,OPEN
816,94-98 BOULEVARD VICTOR HUGO - 92110 CLICHY,25,2017-09-29 22:58:56,48.90146015675393,2.31712992065507,21103 - HUGO (CLICHY),OPEN
817,177 AVENUE DE FLANDRE - 75019 PARIS,25,2017-09-29 23:01:51,48.89465024997023,2.381868729508476,19008 - CORENTIN CARIOU,OPEN
818,RUE ROSSEL / AVENUE DE LA CONVENTION - 94270 LE KREMLIN BICETRE,25,2017-09-29 22:57:32,48.81201281428704,2.35697189328747,42704 - ROSSEL (LE KREMLIN BICETRE),OPEN
819,16 RUE BRILLAT SAVARIN - 75013 PARIS,21,2017-09-29 22:56:48,48.822203096341305,2.350422032913929,13109 - BRILLAT SAVARIN,OPEN
820,13 RUE SURCOUF - 75007 PARIS,58,2017-09-29 22:57:52,48.861273016278126,2.309453550914185,07016 - TOUR MAUBOURG UNIVERSITE,OPEN
821,14 RUE GEOFFROY MARIE - 75009 PARIS,20,2017-09-29 23:01:40,48.873781940593325,2.344513876337893,09011 - FOLIES BERGERES,OPEN
822,49 RUE JOUFFROY D'ABBANS - 75017 PARIS,26,2017-09-29 22:56:56,48.885069943671056,2.307083216664497,17020 - NICARAGUA,OPEN
823,26 RUE SAINT GILLES - 75003 PARIS,18,2017-09-29 23:01:13,48.85815895677863,2.364714992099186,03002 - SAINT GILLES,OPEN
824,FACE 36 RUE CAVE - 75018 PARIS,33,2017-09-29 22:58:56,48.886667026375136,2.353213071624058,18008 - SQUARE LEON,OPEN
825,QUAI DE L'AISNE/AVENUE DU GENERAL LECLERC 93500 PANTIN,27,2017-09-29 22:59:54,48.89571394982448,2.400571894427273,35005 - GENERAL LECLERC (PANTIN),OPEN
826,17 RUE JEAN MACE - 75011 PARIS,63,2017-09-29 22:58:56,48.85328931895065,2.383041177204182,11007 - FAIDHERBE PALAIS DE LA FEMME,OPEN
827,2 RUE VICTOR SCHOELCHER - 75014 PARIS,47,2017-09-29 22:58:46,48.836850815842105,2.331303600860387,14003 - RASPAIL SCHOELCHER,OPEN
828,121 AVENUE GAMBETTA - 75020 PARIS,33,2017-09-29 22:52:41,48.867925154026736,2.400976623546542,20026 - PELLEPORT,OPEN
829,47-83 BOULEVARD DE L'HOPITAL (Allée de la grille) - 75013 PARIS,50,2017-09-29 22:58:09,48.83742,2.36506,13102 - LA PITIE-SALPETRIERE,OPEN
830,FACE 2 BOULEVARD RASPAIL - 75007 PARIS,52,2017-09-29 22:56:31,48.85546173595601,2.325681935889154,07005 - BAC,OPEN
831,180 Boulevard Macdonald - 75019 PARIS,30,2017-09-29 22:58:00,48.89869,2.3755,19110 - MACDONALD,OPEN
832,Avenue ERNEST RENAN / PARC DES EXPOSITIONS - 75015 PARIS,50,2017-09-29 22:59:15,48.8311001872726,2.28538759483169,15126 - RENAN,OPEN
833,3 BD SAINT MARCEL - 75013 PARIS,21,2017-09-29 22:55:41,48.83950442458303,2.360989417022932,13013 - SAINT MARCEL,OPEN
834,111 RUE DE PARIS - 94220 CHARENTON,23,2017-09-29 22:54:54,48.823784089670774,2.410013540400843,42206 - PARIS 2 (CHARENTON),OPEN
835,86 RUE VANEAU - 75007 PARIS,35,2017-09-29 22:57:20,48.84857760756107,2.320417393123817,07002 - VANEAU,OPEN
836,FACE 15 BOULEVARD JOURDAN - 75014 PARIS,19,2017-09-29 22:54:24,48.820150107758145,2.339926428187734,14015 - CITE UNIVERSITAIRE,OPEN
837,22 RUE JULES VALLES - 75011 PARIS,23,2017-09-29 22:52:52,48.854304177811706,2.38488615344003,11112 - CHARONNES VALLES,OPEN
838,1 RUE  BENJAMIN DELESSERT - 93500 PANTIN,21,2017-09-29 23:01:50,48.89394371318989,2.418029659686782,35007 - DELESSERT (PANTIN),OPEN
839,PLACE LAFAYETTE - 92130 ISSY LES MOULINEAUX,62,2017-09-29 22:53:20,48.829743387678306,2.263816341546103,21306 - LAFAYETTE (ISSY LES MOULINEAUX),OPEN
840,27 RUE DU PRE SAINT GERVAIS - 75019 PARIS,27,2017-09-29 22:58:39,48.87792341192515,2.395985553624166,19113 - PRE ST GERVAIS,OPEN
841,1 BIS RUE PIERRE ET MARIE CURIE - 94200 IVRY,26,2017-09-29 22:56:29,48.81584739281451,2.376943795472109,42016 - CURIE (IVRY),OPEN
842,3 RUE RAOUL BERTON - 93170 BAGNOLET,28,2017-09-29 23:00:27,48.868453299036005,2.417816934736978,31701 - BERTON (BAGNOLET),OPEN
843,27 BOULEVARD EXELMANS - 75016 PARIS,46,2017-09-29 23:01:48,48.84096295264689,2.264394118075111,16039 - VERSAILLES EXELMANS,OPEN
844,85 AVENUE BOSQUET - 75007 PARIS,47,2017-09-29 22:52:52,48.85495116800671,2.305478634195716,07019 - ECOLE MILITAIRE,OPEN
845,8 RUE GEOFFROY SAINT HILAIRE - 75005 PARIS,17,2017-09-29 23:00:40,48.83907826424974,2.356877340669728,05105 - GEOFFROY SAINT HILAIRE,OPEN
846,22 AVENUE DE LA PORTE DE VINCENNES - 75012 PARIS,33,2017-09-29 22:52:48,48.8464193692794,2.41563660714614,12115 - PORTE DE VINCENNES,OPEN
847,161 AVENUE VICTOR HUGO - 93300 AUBERVILLIERS,32,2017-09-29 22:59:29,48.911104809734795,2.379143742302604,33010 - HUGO (AUBERVILLIERS),OPEN
848,29 RUE KELLER - 75011 PARIS,32,2017-09-29 22:54:45,48.855512861322296,2.375240347026149,11003 - ROQUETTE DALLERY,OPEN
849,3 RUE DE LA COSSONNERIE - 75001 PARIS,33,2017-09-29 23:02:25,48.86126206976475,2.349399999750171,01005 - LES HALLES - SEBASTOPOL,OPEN
850,4 AVENUE D'EYLAU - 75016 PARIS,24,2017-09-29 22:53:05,48.86354640344584,2.286394496925036,16014 - AVENUE D EYLAU,OPEN
851,10 AVENUE JEAN JAURES - 92240 MALAKOFF,50,2017-09-29 22:52:54,48.82146007977343,2.302899459965933,22402 - JAURES (MALAKOFF),OPEN
852,RUE EMILE REYNAUD SUR TPC - 75019 PARIS,22,2017-09-29 23:02:07,48.9011641133776,2.388590733869235,19010 - PORTE DE LA VILLETTE,OPEN
853,2 RUE DE LA VIEUVILLE - 75018 PARIS,13,2017-09-29 15:16:37,48.884482392727506,2.338812297029362,18004 - ABBESSES,OPEN
854,28 RUE DE LA VICTOIRE - 75009 PARIS,18,2017-09-29 22:59:25,48.87514373494672,2.338118505144376,09111 - LA FAYETTE PROVENCE,OPEN
855,12 PASSAGE VICTOR MARCHAND - 75013 PARIS,45,2017-09-29 23:00:54,48.82884021838649,2.341967436827206,13107 - MARCHAND SANTE,OPEN
856,87 RUE DE SAINT MAUR - 75011 PARIS,36,2017-09-29 22:52:58,48.86421167470377,2.378255841512857,11018 - SAINT MAUR AVENUE DE LA REPUBLIQUE,OPEN
857,67 BOULEVARD PEREIRE - 75017 PARIS,45,2017-09-29 22:56:24,48.887070607581215,2.304111124531457,17022 - PLACE DE WAGRAM,OPEN
858,4 RUE GABRIEL PERI - 92120 MONTROUGE,32,2017-09-29 22:57:54,48.8178170939014,2.32403127829722,21210 - PERI 2 (MONTROUGE),OPEN
859,90 RUE DE LA JONQUIERE - 75017 PARIS,35,2017-09-29 22:57:18,48.894768624696255,2.318885353974425,17010 - JONCQUIERE,OPEN
860,AVENUE DE LA GARE - 93500 PANTIN,60,2017-09-29 22:59:46,48.89732893682894,2.400576593854137,35004 - ALLENDE (PANTIN),OPEN
861,1 RUE LAFFITE - 75009 PARIS,33,2017-09-29 22:54:34,48.871815737396304,2.337201547845077,09023 - ITALIENS LAFFITE,OPEN
862,7 RUE HERSCHEL - 75006 PARIS,37,2017-09-29 22:59:06,48.84336424277311,2.337803430969035,06104 - HERSCHEL,OPEN
863,35-37 RUE MORICE - 92110 CLICHY,24,2017-09-29 23:02:26,48.902615193840354,2.313320636502019,21105 - MORICE (CLICHY),OPEN
864,FACE 1 BOULEVARD BOURBON - 75004 PARIS,53,2017-09-29 22:59:44,48.847725125668795,2.365939153127159,04006 - BASSIN DE L'ARSENAL,OPEN
865,1/3 PLACE PROSPER GOUBAUX - 75017 PARIS,12,2017-09-29 22:56:30,48.88120833279596,2.316449640798716,17024 - VILLIERS,OPEN
866,29 RUE ETIENNE DOLLET - 75020 PARIS,31,2017-09-29 22:59:23,48.86804941024793,2.385133097618902,20033 - ETIENNE DOLET,OPEN
867,42 AVENUE DE LA GRANDE ARMEE - 75017 PARIS,56,2017-09-29 23:02:02,48.87617438949852,2.288247405087516,17038 - ARGENTINE,OPEN
868,FACE 124 RUE DE CHARENTON - 75012 PARIS,18,2017-09-29 22:59:49,48.846268789803915,2.379264325090339,12009 - DIDEROT,OPEN
869,6 RUE DE STOCKOLM - 75008 PARIS,32,2017-09-29 22:59:27,48.87711191876653,2.322329320868037,08110 - STOCKOLM ROME,OPEN
870,TP DU 1-13 BOULEVARD DE VAUGIRARD - 75015 PARIS,67,2017-09-29 23:02:08,48.8418071798797,2.31951002690117,15003 - GARE DE MONTPARNASSE,OPEN
871,FACE 39 RUE MONTGALLET - 75012 PARIS,16,2017-09-29 22:54:01,48.844312608440106,2.389595227215854,12013 - RUE MONTGALLET,OPEN
872,2 RUE DE L'ORATOIRE - 75001 PARIS,18,2017-09-29 22:56:13,48.8613894682984,2.340055232817477,01025 - TEMPLE DE L'ORATOIRE,OPEN
873,74 AVENUE VICTOR HUGO - 92100 BOULOGNE-BILLANCOURT,33,2017-09-29 22:56:52,48.83792331477095,2.246064151544099,21008 - HUGO (BOULOGNE-BILLANCOURT),OPEN
874,FACE 2 AV. DE LA PORTE DE CHARENTON - 75012 PARIS,67,2017-09-29 22:57:22,48.83158812517445,2.398745664948547,12040 - PORTE DE CHARENTON,OPEN
875,42 - 44 AVENUE D'IVRY - 75013 PARIS,17,2017-09-29 22:58:17,48.8232196831694,2.3654696281062,13039 - IVRY POINTE D'IVRY,OPEN
876,1 RUE PAU CASALS - 75013 PARIS,54,2017-09-29 22:56:31,48.83124496844904,2.377263236877398,13054 - PAU CASALS,OPEN
877,27 RUE EMERIAU - 75015 PARIS,53,2017-09-29 22:58:08,48.850614750906075,2.2872501634709,15029 - EMERIAU,OPEN
878,4 QUAI DE LA LOIRE - 75019 PARIS,16,2017-09-29 22:58:50,48.88339733854529,2.371074522980134,19004 - QUAI DE LA LOIRE,OPEN
879,FACE 36 AVENUE VICTOR CRESSON - 92130 ISSY LES MOULINEAUX,31,2017-09-29 22:56:45,48.82267836713668,2.26863109328801,21307 - CRESSON 1 (ISSY LES MOULINEAUX),OPEN
880,1 RUE DE L'ISLY - 75008 PARIS,28,2017-09-29 22:54:09,48.874808024965695,2.326481486218277,08009 - SAINT LAZARE RER,OPEN
881,178 RUE DE PARIS - 94220 CHARENTON,23,2017-09-29 23:00:41,48.8294214716652,2.40164810555835,42208 - PARIS 4 (CHARENTON),OPEN
882,14 RUE ALFRED ROLL - 75017 PARIS,33,2017-09-29 23:01:50,48.887849493840015,2.300034397977882,17102 - ALFRED ROLL,OPEN
883,111 RUE BELLIARD - 75018 PARIS,33,2017-09-29 22:55:38,48.89669238777841,2.338023450388167,18033 - MOSKOWA,OPEN
884,AVENUE PRESIDENT WILSON / RUE PROUDHON - 93200 SAINT DENIS,33,2017-09-29 22:57:07,48.906469373243816,2.358442053954938,32001 - PROUDHON (SAINT DENIS),OPEN
885,142 RUE DE LA ROQUETTE - 75011 PARIS,16,2017-09-29 22:54:30,48.858001906023354,2.381797702650783,11022 - LEON BLUM ROQUETTE,OPEN
886,49 RUE DU GARDE CHASSE - 93260 LES LILAS,25,2017-09-29 22:56:00,48.883240251645354,2.418912369645038,32606 - GARDE CHASSE (LES LILAS),OPEN
887,FACE 40 BOULEVARD SEBASTOPOL - 75004 PARIS,16,2017-09-29 23:02:23,48.861883102214215,2.350220976096221,04104 - SEBASTOPOL RAMBUTEAU,OPEN
888,ANGLE PASSAGE DU NORD / GABRIEL PERI - 92240 MALAKOFF,25,2017-09-29 22:55:29,48.81933915840963,2.300476865047907,22405 - NORD (MALAKOFF),OPEN
889,12BIS RUE DU GUICHET - 92110 CLICHY,18,2017-09-29 22:55:59,48.90513700396853,2.302503160581296,21109 - GUICHET (CLICHY),OPEN
890,15 BIS RUE HECTOR MALOT - 75012 PARIS,54,2017-09-29 23:01:32,48.84681513232972,2.376929360592796,12008 - HECTOR MALOT,OPEN
891,45 Avenue Victor Hugo - 93300 AUBERVILLIERS,60,2017-09-29 22:53:59,48.9031834065108,2.3680256126088,33001 - EMGP (AUBERVILLIERS),CLOSED
892,118 AVENUE VICTOR HUGO - 75016 PARIS,39,2017-09-29 22:52:52,48.86810888689743,2.281477522417188,16011 - VICTOR HUGO RUE DE LA POMPE,OPEN
893,65 RUE PIERRE CHARRON - 75008 PARIS,32,2017-09-29 22:58:11,48.87007033911426,2.304315446715835,08040 - CHAMPS ELYSEES CHARRON,OPEN
894,2 RUE DE LA VISCULE - 75013 PARIS,25,2017-09-29 22:57:17,48.82363397638854,2.361571534156357,13113 - CHOISY VISTULE,OPEN
895,4 RUE MONCEY - 75009 PARIS,18,2017-09-29 22:57:09,48.88015398585977,2.33107516002003,09028 - MONCEY BLANCHE,OPEN
896,23 RUE CUSTINE - 75018 PARIS,41,2017-09-29 22:58:52,48.88861971645056,2.34701133583386,18015 - CUSTINE,OPEN
897,16 PLACE DE LA NATION SUR TPC - 75012 PARIS,66,2017-09-29 22:29:03,48.847301800009085,2.39552056485834,12014 - NATION,OPEN
898,rue Ernest Renan / angle rue Vaucouleurs (A la sortie du RER B) - 94110 ARCUEIL,43,2017-09-29 22:59:20,48.808800394993376,2.334689654662475,41102 - RENAN (ARCUEIL),OPEN
899,83 ALLEE PIERRE LAZAREF - 75002 PARIS,17,2017-09-29 22:58:31,48.866973714239656,2.3486324654447,02004 - REAUMUR MONTORGUEIL,OPEN
900,2 AVENUE RENE COTY - 75014 PARIS,17,2017-09-29 22:57:57,48.83314079924711,2.332672227475083,14005 - DENFERT ROCHEREAU,OPEN
901,71 AVENUE EDOUARD VAILLANT - 92100 BOULOGNE-BILLANCOURT,28,2017-09-29 22:59:29,48.83486081059702,2.24786255060931,21019 - VAILLANT (BOULOGNE-BILLANCOURT),OPEN
902,163 AVENUE D'ITALIE - 75013 PARIS,26,2017-09-29 22:53:38,48.819894618061376,2.359432938466414,13032 - MASSENA,OPEN
903,164 AVENUE DE VERSAILLES - 75016 PARIS,43,2017-09-29 23:00:44,48.84021933807409,2.263834191152959,16041 - VERSAILLES,OPEN
904,20 RUE FERNAND BRAUDEL - 75013 PARIS,36,2017-09-29 22:58:22,48.83636225239755,2.372375389059736,13019 - AURIOL QUAI DE LA GARE,OPEN
905,7 RUE DU SABOT - 75006 PARIS,26,2017-09-29 22:58:46,48.8525574216674,2.331647722906649,06032 - RENNES SABOT,OPEN
906,170 RUE DE CHARONNE - 75011 PARIS,20,2017-09-29 22:59:12,48.855943779580954,2.392532526632664,11104 - CHARONNE DU BUREAU,OPEN
907,10 RUE DE VILLERSEXEL - 75007 PARIS,16,2017-09-29 22:55:18,48.85831864690376,2.323838437789417,07008 - SOLFERINO,OPEN
908,1 BIS RUE DE LAGNY - 94300 VINCENNES,25,2017-09-29 23:00:15,48.848879019004286,2.426198422131812,43002 - LAGNY (VINCENNES),OPEN
909,45 BD BATIGNOLLES - 75008 PARIS,14,2017-09-29 22:53:07,48.881914,2.320284,08051 - CHAPTAL,OPEN
910,25 RUE DES VOLONTAIRES - 75015 PARIS,34,2017-09-29 23:01:41,48.84132050184004,2.30808901725357,15014 - VOLONTAIRES,OPEN
911,20 RUE CARDUCCI - 75019 PARIS,27,2017-09-29 22:55:19,48.87751625686576,2.386099720372164,19120 - ALOUETTES,OPEN
912,7 RUE DU PONT DE LODI - 75006 PARIS,26,2017-09-29 22:54:40,48.855296898603285,2.339947307565249,06014 - PONT DE LODI DAUPHINE,OPEN
913,311-313 RUE DE CHARENTON - 75012 PARIS,31,2017-09-29 22:57:25,48.833821772922654,2.394692664106047,12112 - CHARENTON JARDINIER,OPEN
914,164 RUE ALESIA - 75014 PARIS,47,2017-09-29 23:02:36,48.83163970406255,2.315158529047339,14028 - PLAISANCE ALESIA,OPEN
915,55 RUE PAJOL - 75018 PARIS,46,2017-09-29 23:02:20,48.88959697085082,2.362853604262514,18109 - RIQUET PAJOL,OPEN
916,2 AVENUE OCTAVE CREARD - 75007 PARIS,33,2017-09-29 22:58:51,48.856502977695634,2.293178754328878,07025 - SUFFREN TOUR EIFFEL,OPEN
917,FACE 3 RUE DE CONSTANTINE - 75007 PARIS,65,2017-09-29 23:02:05,48.860769957997334,2.314838279495265,07010 - INVALIDES,OPEN
918,26 RUE GUYNEMER - 75006 PARIS,35,2017-09-29 23:00:25,48.84672098257342,2.332394592929583,06009 - GUYNEMER LUXEMBOURG,OPEN
919,37 RUE CHARLES FREROT - 94250 GENTILLY,30,2017-09-29 22:59:58,48.81576879198393,2.350476198934541,42505 - FREROT (GENTILLY),OPEN
920,1 RUE D'HAUTEVILLE - 75010 PARIS,17,2017-09-29 23:02:04,48.87077436024043,2.349649636832728,10003 - HAUTEVILLE,OPEN
921,1 RUE HENRY BARBUSSE - 94200 IVRY,25,2017-09-29 22:56:19,48.81020034796607,2.379670589115164,42012 - BARBUSSE (IVRY),OPEN
922,105 RUE DU CHEMIN VERT - 75011 PARIS,46,2017-09-29 23:02:10,48.86119441933017,2.381301904923526,11026 - CHEMIN VERT SAINT MAUR,OPEN
923,6 RUE DES QUATRE VENTS - 75006 PARIS,36,2017-09-29 23:01:44,48.851751374458864,2.338161695134053,06028 - ODEON QUATRE VENTS,OPEN
924,80 AVENUE RASPAIL - 94250 GENTILLY,30,2017-09-29 22:56:07,48.81031545,2.34395871,42501 - RASPAIL 1 - FRAYSSE,OPEN
925,36 AVENUE DE SUFFREN - 75015 PARIS,22,2017-09-29 23:02:28,48.8548517488353,2.29500791364336,15071 - CHAMP DE MARS COTE 16EME,OPEN
926,45 RUE CHARLES HERMITE - 75018 PARIS,23,2017-09-29 22:56:11,48.89890275343664,2.364732494174034,18103 - CHARLES HERMITE,CLOSED
927,35-37 BOULEVARD DU COMMANDANT CHARCOT - 92200 NEUILLY SUR SEINE,36,2017-09-29 22:57:28,48.875360283908314,2.255699331629116,22007 - CHARCOT (NEUILLY),OPEN
928,RUE LOUIS-XAVIER DE RICARD - 94120 FONTENAY SOUS BOIS,41,2017-09-29 22:53:09,48.84630286069407,2.472408774870391,41201 - DE RICARD (FONTENAY SOUS BOIS),OPEN
929,183 RUE DE LA CONVENTION - 75015 PARIS,48,2017-09-29 22:58:23,48.83767682233156,2.295586926020252,15052 - CONVENTION,OPEN
930,FACE AU 5 RUE WESTERMEYER ET 30 BD PAUL VAILLANT COUTURIER -  94200 IVRY SUR SEINE,25,2017-09-29 22:54:07,48.8190295,2.396602,42004 - WESTERMEYER - QUAIS D'IVRY (IVRY),OPEN
931,19 RUE DU REGARD - 75006 PARIS,44,2017-09-29 22:57:18,48.847517829441934,2.326973305586841,06004 - REGARD,OPEN
932,02 RUE DUMERIL - 75013 PARIS,41,2017-09-29 23:02:32,48.83815160808658,2.357108449556404,13006 - SAINT MARCEL JEANNE D'ARC,OPEN
933,6 RUE LEON FRAPIE - 75020 PARIS,19,2017-09-29 22:58:40,48.87354903513999,2.411003035880057,20038 - LEON FRAPIE,OPEN
934,2 RUE DES FRERES MORANE - 75015 PARIS,18,2017-09-29 22:58:45,48.84245875550452,2.292173541441698,15035 - PLACE ETIENNE PERNET,OPEN
935,PLACE MADAULE - 92130 ISSY LES MOULINEAUX,25,2017-09-29 23:01:04,48.82412590462087,2.260645985489782,21305 - MADAULE (ISSY LES MOULINEAUX),OPEN
936,34 RUE CONDE - 75006 PARIS,34,2017-09-29 23:02:31,48.849580002186286,2.337848437179539,06017 - SENAT CONDE,OPEN
937,20 PLACE JEANNE D'ARC - 75013 PARIS,36,2017-09-29 22:55:29,48.829575726838485,2.369126815717134,13044 - PLACE JEANNE D'ARC,OPEN
938,1 RUE GEO CHAVEZ - 75020 PARIS,33,2017-09-29 22:59:58,48.86508,2.40799,20022 - PORTE DE BAGNOLET,OPEN
939,2 QUAI DES CELESTINS - 75004 PARIS,14,2017-09-29 22:53:56,48.85127148209335,2.362430212982278,04005 - SULLY MORLAND,OPEN
940,AVENUE DU POLYGONE - 75012 PARIS,50,2017-09-29 23:01:15,48.83544491617421,2.431421081436563,12122 - POLYGONE,OPEN
941,33 AVENUE COURTELINE - 75012 PARIS,28,2017-09-29 22:55:00,48.843949064031825,2.415081394834419,12114 - PORTE DE SAINT MANDE,OPEN
942,42 AVENUE MICHELET - 93400 SAINT OUEN,25,2017-09-29 23:01:21,48.910356422022,2.34430102118432,34006 - MICHELET (SAINT OUEN),OPEN
943,PLACE DE LA RESISTANCE ANGLE RUE ARISTIDE BRIAND - 92130 ISSY LES MOULINEAUX,25,2017-09-29 23:00:44,48.821030252865725,2.251019571526973,21302 - BRIAND (ISSY LES MOULINEAUX),OPEN
944,39 RUE GABRIEL PERI 92120 MONTROUGE,50,2017-09-29 23:00:14,48.8182337326032,2.32088453254631,21206 - PERI (MONTROUGE),OPEN
945,40 RUE DU MONTPARNASSE - 75006 PARIS,47,2017-09-29 23:02:25,48.843295457036824,2.326541134127944,06005 - MONTPARNASSE,OPEN
946,2 RUE D'ABOUKIR - 75002 PARIS,24,2017-09-29 22:52:56,48.86600263256513,2.341920411962299,02006 - PLACE DES VICTOIRES,OPEN
947,12 RUE DE TOCQUEVILLE - 75017 PARIS,15,2017-09-29 22:55:49,48.88240228540158,2.314000411222978,17048 - TOCQUEVILLE,OPEN
948,68 BOULEVARD FLANDRIN - 75016 PARIS,42,2017-09-29 22:59:45,48.86877849178477,2.274354539176829,16012 - BOULEVARD FLANDRIN,OPEN
949,18 BIS RUE DE VERDUN / COUR MADELAINE - 92150 SURESNES,25,2017-09-29 23:00:55,48.87100304154044,2.227477476770916,21502 - VERDUN (SURESNES),OPEN
950,3 RUE PAUL BARRUEL - 75015 PARIS,37,2017-09-29 22:54:30,48.84005771883908,2.304507420961214,15019 - VAUGIRARD CAMBRONNE,OPEN
951,13 PLACE BALARD - 75015 PARIS,22,2017-09-29 23:01:08,48.83653728947088,2.278717697019357,15056 - BALARD,OPEN
952,FACE 66 RUE RENE BINET - 75018 PARIS,37,2017-09-29 22:57:48,48.89913599014183,2.336893453557286,18035 - PORTE MONTMARTRE,OPEN
953,17 RUE DUROC - 75007 PARIS,55,2017-09-29 22:58:44,48.84750225840085,2.312688328662078,07013 - PLACE DE BRETEUIL,OPEN
954,PLACE DENFERT ROCHEREAU - 92100 BOULOGNE BILLANCOURT,20,2017-09-29 22:55:05,48.84317665587707,2.246214231580669,21002 - DENFERT ROCHEREAU (BOULOGNE-BILLANCOURT),OPEN
955,48 BOULEVARD DE LA BASTILLE - 75012 PARIS,64,2017-09-29 23:00:50,48.851311187409664,2.369250483580839,12001 - BASTILLE,OPEN
956,ALLEE DES FORTIFICATIONS - 75016 PARIS,66,2017-09-29 22:58:11,48.848892820997,2.25765156147489,16035 - HIPPODROME D AUTEUIL,OPEN
957,PLACE GEORGES GUILLAUMIN - 75008 PARIS,38,2017-09-29 22:58:07,48.874750203956566,2.301771435325988,08053 - FRIEDLAND,OPEN
958,43 RUE LAMARTINE - 75009 PARIS,31,2017-09-29 23:00:08,48.87662212037311,2.339799899316122,09015 - LAMARTINE,OPEN
959,95-97 BOULEVARD MASSENA - 75013 PARIS,67,2017-09-29 21:47:24,48.82049518804969,2.366819682140966,13117 - STADE GEORGES CARPENTIER,OPEN
960,23 RUE PARADIS - 75010 PARIS,31,2017-09-29 23:00:54,48.87503405624492,2.352184894826549,10019 - PARADIS,OPEN
961,AVENUE DU PRESIDENT WILSON/ RUE DE BAILLY - 93200 SAINT DENIS,43,2017-09-29 22:57:28,48.91519864243704,2.357500683686108,32004 - BAILLY (SAINT DENIS),OPEN
962,116 RUE DE LA BOETIE - 75008 PARIS,45,2017-09-29 22:57:35,48.871512741519155,2.307487564419454,08050 - BOETIE PONTHIEU,OPEN
963,FACE 50 AVENUE CHARLES GIDE - 94270 LE KREMELIN BICETRE,30,2017-09-29 22:56:56,48.807211123250035,2.353852672868236,42701 - GIDE (LE KREMLIN BICETRE),OPEN
964,110-112 RUE FAUBOURG SAINT DENIS - 75010 PARIS,30,2017-09-29 23:01:02,48.875384905581136,2.356094018642288,10018 - ALBAN SATRAGNE,OPEN
965,05 RUE DUPERRE - 75009 PARIS,34,2017-09-29 22:53:17,48.88207022703438,2.336679631444242,09018 - PLACE PIGALLE,OPEN
966,145 BOULEVARD MCDONALD - 75019 PARIS,65,2017-09-29 22:57:38,48.8988301928079,2.37933010909776,19045 - CANAL SAINT DENIS - BD MACDONALD,OPEN
967,26 RUE LEON - 75018 PARIS,13,2017-09-29 23:00:53,48.88832421845225,2.353573372638597,18014 - DOUDEAUVILLE LEON,OPEN
968,27 RUE TAITBOUT - 75009 PARIS,53,2017-09-29 23:00:56,48.873385805429535,2.33529683976619,09024 - LAFAYETTE TAITBOUT,OPEN
969,96 RUE DE LAGNY - 93100 MONTREUIL,27,2017-09-29 22:59:38,48.84923030086477,2.421429940007031,31001 - LAGNY (MONTREUIL),OPEN
970,63 RUE GALILEE - 75008 PARIS,17,2017-09-29 22:56:25,48.87170519139307,2.298528265679806,08003 - GALILLE,OPEN
971,03 RUE DE NAPLES - 75008 PARIS,43,2017-09-29 22:57:45,48.87995716383757,2.321359676280949,08019 - EUROPE,OPEN
972,112 AVE FELIX FAURE - 75015 PARIS,57,2017-09-29 22:54:54,48.838734408274696,2.281755540138765,15032 - LOURMEL,OPEN
973,31/35 AVENUE CLAUDE DEBUSSY - 92110 CLICHY,28,2017-09-29 22:55:02,48.91042912572328,2.311768175774796,21112 - DEBUSSY (CLICHY),OPEN
974,142 RUE DE BAGNOLET - 75020 PARIS,22,2017-09-29 22:58:21,48.8615729587877,2.40568863716159,20108 - HOSPICE DEBROUSSE,OPEN
975,22 AVENUE DE LA PORTE DE SAINT OUEN - 75017 PARIS,27,2017-09-29 22:58:10,48.89876008065392,2.329558517454781,17115 - PORTE DE SAINT OUEN,OPEN
976,"11, avenue du Temblay - 75012 PARIS",36,2017-09-29 22:56:29,48.83397,2.45482,12127 - TREMBLAY - INSEP,OPEN
977,27 RUE DE STALINGRAD - 93100 MONTREUIL,23,2017-09-29 22:54:19,48.8589230268289,2.44314211823533,31011 - STALINGRAD 2 (MONTREUIL),OPEN
978,126 RUE LAGNY / ANGLE AVENUE JOFFRE - 94160 SAINT MANDE,30,2017-09-29 23:00:32,48.84931182683785,2.417909769042342,41604 - LAGNY (SAINT MANDE),OPEN
979,1 - 3 RUE DES ECLUSES SAINT MARTIN - 75010 PARIS,27,2017-09-29 23:00:35,48.8761373390584,2.3680844979417,10115 - DODU,OPEN
980,22 RUE DE LA PERLE - 75003 PARIS,18,2017-09-29 22:54:15,48.859846683206975,2.361050487092021,03008 - PERLE,OPEN
981,102 AVENUE PIERRE BROSSOLETTE - 92240 MALAKOFF,25,2017-09-29 23:01:13,48.81755975358179,2.307485841267489,22404 - BROSSOLETTE 2 (MALAKOFF),OPEN
982,108 RUE DIDOT - 75014 PARIS,35,2017-09-29 22:55:44,48.826508,2.31311526,14022 - DIDOT-MARINIERS,OPEN
983,10 RUE DU COMMANDANT L'HERMINIER - 75020 PARIS,16,2017-09-29 23:01:19,48.84706441752541,2.416022960021078,20004 - PORTE DE VINCENNES BIS,OPEN
984,52 RUE BUZENVAL - 75020 PARIS,50,2017-09-29 23:00:43,48.851617204998654,2.401513597307666,20007 - BUZENVAL,OPEN
985,FACE 2 BOULEVARD LANNES - 75016 PARIS,70,2017-09-29 22:59:00,48.870753284048824,2.274875298344967,16004 - BOULEVARD LANNES,OPEN
986,RUE BERTRAND SINCHOLLE - 92110 CLICHY,23,2017-09-29 22:58:16,48.89935963697993,2.304040560698093,21107 - SINCHOLLE (CLICHY),OPEN
987,69 BIS RUE DE LA CHAPELLE - 75018 PARIS,33,2017-09-29 22:59:38,48.89648283189724,2.358845525233447,18102 - RUE DE LA CHAPELLE,OPEN
988,23 RUE EMILE ZOLA - 75015 PARIS,63,2017-09-29 23:00:37,48.846383773003375,2.280008411904129,15065 - HUMBERT,OPEN
989,21 RUE COURS SAINT VINCENT 92130 ISSY LES MOULINEAUX,34,2017-09-29 22:52:58,48.8194899938888,2.25386941995849,21301 - SAINT VINCENT (ISSY LES MOULINEAUX),OPEN
990,121 BOULEVARD PEREIRE - 75017 PARIS,51,2017-09-29 22:52:33,48.88526331365403,2.298286466799226,17027 - PEREIRE LEVALLOIS,OPEN
991,EGLISE SAINT JOSEPH ARTISAN - 75010 PARIS,25,2017-09-29 23:00:40,48.88126816395289,2.368117527990073,10037 - VERSION 2 JAURES,OPEN
992,2 RUE D'ALGER - 75001 PARIS,21,2017-09-29 22:54:15,48.86479366612619,2.329431421945852,01018 - RIVOLI TUILERIE,OPEN
993,6 RUE CENSIER - 75005 PARIS,55,2017-09-29 23:02:26,48.8410800220159,2.35543071424475,05028 - CENSIER BUFFON,OPEN
994,88 AVENUE DE SUFFREN - 75015 PARIS,22,2017-09-29 22:53:43,48.85091460817171,2.301293384670141,15024 - LAOS,OPEN
995,2 AVENUE DES PORTUGAIS - 75016 PARIS,26,2017-09-29 23:00:19,48.871213712191214,2.293692133647844,16001 - AVENUE DES PORTUGAIS,OPEN
996,FACE AU 79 AVENUE RASPAIL- 94250 GENTILLY,30,2017-09-29 23:01:32,48.813127647916225,2.346794374352219,42502 - RASPAIL 2 (GENTILLY),OPEN
997,52 RUE LEOPOLD RECHOSSIERE - 93300 AUBERVILLIERS,29,2017-09-29 23:01:58,48.9145061128239,2.39105149687865,33013 - RECHAUSSIERE (AUBERVILLIERS),OPEN
998,183 RUE DES PYRENEES - 75020 PARIS,28,2017-09-29 22:58:20,48.86095933229224,2.400421852042113,20020 - PYRENEES RENOUVIER,OPEN
999,42 RUE DE LONDRES - 75008 PARIS,23,2017-09-29 23:01:10,48.878034461503965,2.326483540969424,08101 - LONDRES AMSTERDAM,OPEN
1000,20 AVENUE DE LA PORTE DE PANTIN - 75019 PARIS,46,2017-09-29 22:55:32,48.89034195521685,2.397813642189543,19034 - PANTIN,OPEN
1001,20 RUE DE L'ESTRAPADE - 75005 PARIS,15,2017-09-29 22:58:59,48.845143494008845,2.345412681213507,05012 - ULM - LHOMOND,OPEN
1002,FACE 124 RUE DU FAUBOURG SAINT DENIS - 75010 PARIS,42,2017-09-29 22:58:13,48.87686690577979,2.356119082991818,10022 - CHABROL SAINT QUENTIN,OPEN
1003,4 PLACE DU MOULIN DE JAVEL - 75015 PARIS,46,2017-09-29 22:59:24,48.840094446742086,2.271589911985344,15058 - GEORGES POMPIDOU,OPEN
1004,55 BOULEVARD JEAN JAURES - 92100 BOULOGNE-BILLANCOURT,31,2017-09-29 23:01:50,48.840023256521405,2.239818996972534,21004 - JAURES 2 (BOULOGNE-BILLANCOURT),OPEN
1005,FACE 4 BD PAUL VAILLANT COUTURIER - 94200 IVRY,22,2017-09-29 22:54:43,48.82057,2.3952015,42001 - VANZUPPE-PAUL VAILLANT COUTURIER (IVRY),OPEN
1006,32 RUE SAINT DIDIER - 75016 PARIS,16,2017-09-29 22:55:08,48.8664391603377,2.28574594430153,16009 - SAINT DIDIER,OPEN
1007,12 Rue Gaston Tessier - 75019 PARIS,37,2017-09-29 22:53:31,48.8960206,2.3739464,19108 - ROSA PARKS – GASTON TESSIER,OPEN
1008,54 RUE DE LA BIENFAISANCE - 75008 PARIS,45,2017-09-29 22:53:42,48.87659994083545,2.31316505435543,08035 - NARVICK,CLOSED
1009,1 RUE THOUIN - 75005 PARIS,16,2017-09-29 22:58:48,48.84506225637803,2.349497789857777,05016 - CONTRESCARPE-THOUIN,OPEN
1010,15 RUE SAINT VINCENT DE PAUL - 75010 PARIS,24,2017-09-29 22:57:14,48.88095574164779,2.352430514838522,10033 - LARIBOISIERE,OPEN
1011,1 RUE FERRUS - 75014 PARIS,34,2017-09-29 22:55:50,48.83136668000465,2.340811882152406,14007 - SAINT JACQUES FERRUS,OPEN
1012,29 BOULEVARD NEY - 75018 PARIS,72,2017-09-29 22:54:31,48.8983850226507,2.36087734922712,18048 - PORTE DE LA CHAPELLE,OPEN
1013,91 BOULEVARD DE LA REPUBLIPQUE - 92100 BOULOGNE-BILLANCOURT,56,2017-09-29 23:01:28,48.833473679272245,2.243900532079072,21017 - REPUBLIQUE 1 (BOULOGNE-BILLANCOURT),OPEN
1014,FACE 19 RUE CASIMIR PERIER - 75007 PARIS,42,2017-09-29 23:02:07,48.857829110709226,2.319149052579355,07102 - SAINTE CLOTHILDE,OPEN
1015,ROND POINT DU MARECHAL DELATRE DE TASSIGNY - 75016 PARIS,29,2017-09-29 22:52:46,48.872381,2.275283,16135 - STADE WILMILLE,OPEN
1016,4 RUE DE DUNKERQUE - 75010 PARIS,19,2017-09-29 23:01:15,48.87935510317391,2.358379192454538,10027 - DUNKERQUE,OPEN
1017,2 RUE DE LONDRES - 75009 PARIS,24,2017-09-29 22:54:42,48.87673249893723,2.33048422584945,09102 - PLACE D'ESTIENNE D'ORVES,OPEN
1018,16 RUE D'ASSAS - 75006 PARIS,32,2017-09-29 23:01:35,48.8492084999386,2.32851454623001,06025 - RENNES - ASSAS,OPEN
1019,1 RUE DE LA CONVENTION - 94270 LE KREMLIN BICETRE,25,2017-09-29 23:00:15,48.812800296374675,2.361041166442304,42705 - CONVENTION (LE KREMLIN BICETRE),OPEN
1020,20 RUE COQUILLIERE - 75001 PARIS,20,2017-09-29 22:53:21,48.86377283202625,2.342707561978307,01024 - LOUVRE COQ HERON,OPEN
1021,109 RUE LEMERCIER - 75017 PARIS,23,2017-09-29 22:54:46,48.890020496141,2.3175909298999,17111 - LEMERCIER,OPEN
1022,20 RUE DE LA GRANGE BATELIERE - 75009 PARIS,25,2017-09-29 22:59:14,48.87326713758289,2.340753448052758,09013 - MAIRIE DU 9EME,OPEN
1023,30 BIS RUE LAS CASES - 75007 PARIS,22,2017-09-29 23:00:05,48.859068394963046,2.318624221125004,07011 - ST DOMINIQUE,OPEN
1024,20 RUE FAVART - 75002 PARIS,17,2017-09-29 22:57:35,48.87144635392104,2.338290105850787,02013 - RICHELIEU DROUOT,OPEN
1025,265 RUE DE BELLEVILLE - 75019 PARIS,40,2017-09-29 22:54:15,48.87563618071149,2.399461451982782,19040 - TELEGRAPHE,OPEN
1026,1 RUE LINOIS ANGLE QUAI DE GRENELLE - 75015 PARIS,32,2017-09-29 22:58:36,48.849271,2.281849,15072 - PLACE FERNAND FOREST,OPEN
1027,PLACE DE LA PORTE DE CHATILLON 75014 PARIS,59,2017-09-29 22:54:05,48.8244897024567,2.31844743104898,14021 - PLACE DE LA PORTE DE CHATILLON,OPEN
1028,FACE 86 BOULEVARD RICHARD LENOIR - 75011 PARIS,25,2017-09-29 23:02:30,48.86180485207153,2.372651428265507,11011 - RICHARD LENOIR,OPEN
1029,237-241 RUE DE PARIS - 93100 MONTREUIL,30,2017-09-29 22:59:04,48.8549113323991,2.41877242975671,31003 - PARIS (MONTREUIL),OPEN
1030,30 AVENUE D'ITALIE - 75013 PARIS,40,2017-09-29 22:55:35,48.82903204071324,2.356183369179921,13029 - ITALIE,OPEN
1031,5 RUE DE L'ECHELLE - 75001 PARIS,25,2017-09-29 22:56:08,48.86367225536575,2.33405760804708,01014 - RIVOLI MUSEE DU LOUVRE,OPEN
1032,61 RUE DE L'EVANGILE - 75018 PARIS,21,2017-09-29 23:01:52,48.895090329766326,2.368694139840156,18108 - EVANGILE,OPEN
1033,2 RUE SAINT MAUR - 75011 PARIS,46,2017-09-29 22:55:17,48.858688774062955,2.383553994571467,11023 - LEO FROT ROQUETTE,OPEN
1034,4 RUE DE CLERY - 75002 PARIS,43,2017-09-29 23:01:06,48.867467441464115,2.344526615114217,02021 - CLERY,OPEN
1035,7 rue Delphine Seyrig  - 75019 PARIS,51,2017-09-29 22:59:46,48.893800171035,2.39791036643403,19043 - PETITS PONTS,OPEN
1036,81 RUE DUNKERQUE - 75009 PARIS,16,2017-09-29 22:56:50,48.8821076343589,2.34626199853888,09006 - TRUDAINE ROCHECHOUART,OPEN
1037,60 RUE LAURISTON - 75016 PARIS,17,2017-09-29 22:58:30,48.869260223734464,2.289918722838758,16006 - RUE LAURISTON,OPEN
1038,3 RUE ALEXANDRE DUMAS - 75011 PARIS,58,2017-09-29 22:57:11,48.85288867036487,2.389147640809553,11102 - RUE DES BOULETS ( COMPLEMENTAIRE ),OPEN
1039,98 RUE MARCADET - 75018 PARIS,20,2017-09-29 22:53:23,48.89092238296793,2.344986482110517,18021 - MARCADET - RAMEY,OPEN
1040,59 RUE DUTOT - 75015 PARIS,41,2017-09-29 22:59:10,48.83831247462415,2.308531843822157,15016 - DUTOT,OPEN
1041,1-3 RUE CHERNOVITZ - 75016 PARIS,36,2017-09-29 23:02:34,48.8569864146289,2.282173218142987,16112 - CHERNOVITZ,OPEN
1042,2 PLACE DE L'INSURRECTION AOUT 1944 - 94200 IVRY SUR SEINE,30,2017-09-29 22:54:11,48.81466008216803,2.39826154064032,42003 - INSURRECTION AOUT 1944 (IVRY),OPEN
1043,162 AVENUE CHARLES DE GAULLE - 92200 NEUILLY,28,2017-09-29 23:00:23,48.884707293437835,2.261530819987246,22004 - CHARLES DE GAULLE (NEUILLY),OPEN
1044,PLACE DE L'EGLISE D'AUTEUIL - 75016 PARIS,20,2017-09-29 22:56:40,48.84749841771691,2.26848387135299,16032 - EGLISE D AUTEUIL,OPEN
1045,90 RUE BUZENVAL - 75020 PARIS,15,2017-09-29 23:02:13,48.85392327608324,2.400038749270361,20012 - BUZENVAL VIGNOLES,OPEN
1046,46 RUE NATIONALE - 75013 PARIS,22,2017-09-29 23:00:24,48.824810840809405,2.367735489853108,13114 - NATIONALE DUCHAMP (PROP 1),OPEN
1047,46 RUE DE PARIS - 93260 LES LILAS,43,2017-09-29 22:59:07,48.878590348828126,2.411899977886774,32601 - PARIS (LES LILAS),OPEN
1048,2 RUE JOSEPH DE MAISTRE - 75018 PARIS,43,2017-09-29 22:57:56,48.886456815828815,2.332897827913839,18003 - JOSEPH DE MAISTRE LEPIC,OPEN
1049,11 RUE DE LA BASTILLE - 75004 PARIS,20,2017-09-29 22:59:46,48.8537973449702,2.368400806960401,04101 - BASTILLE,OPEN
1050,33 RUE DURIS - 75020 PARIS,30,2017-09-29 22:54:28,48.86554086710007,2.387724496163364,20031 - DURIS,OPEN
1051,85 RUE DUTOT - 75015 PARIS,56,2017-09-29 22:59:29,48.83657566425033,2.306874517122675,15018 - ALLERAY,OPEN
1052,7 PLACE FALGUIERE - 75015 PARIS,21,2017-09-29 22:57:01,48.83633386181695,2.310466238030852,15017 - PROCESSION,OPEN
1053,59 RUE DES PETITES ECURIES - 75010 PARIS,30,2017-09-29 22:58:06,48.87397217237368,2.348388757504776,10005 - CONSERVATOIRE,OPEN
1054,167 RUE DE ROME - 75017 PARIS,32,2017-09-29 23:02:01,48.88714045186671,2.314521605640858,17017 - PONT CARDINET,OPEN
1055,28 RUE DE MADRID - 75008 PARIS,14,2017-09-29 23:01:28,48.87798402750352,2.318404862782852,08027 - MAIRIE DU 8 ÈME,OPEN
1056,19 RUE VIGEE LEBRUN - 75015 PARIS,22,2017-09-29 22:58:14,48.838758813496995,2.3109360795034,15112 - FALGUIÈRE LEBRUN,OPEN
1057,FACE AU 4 BOULEVARD RICHARD WALLACE - 92800 PUTEAUX,30,2017-09-29 22:58:19,48.878706853467605,2.241975493693907,28001 - WALLACE (PUTEAUX),OPEN
1058,2 RUE PIERRE GINIER - 75018 PARIS,16,2017-09-29 23:00:51,48.886627148560976,2.326293689316426,18045 - GANNERON,OPEN
1059,PYRAMIDE ENTREE PARC FLORAL - 75012 PARIS,48,2017-09-29 22:55:42,48.837061492855675,2.440446664251129,12125 - PYRAMIDE ENTRÉE PARC FLORAL,CLOSED
1060,35 BOULEVARD VICTOR HUGO - 92200 NEUILLY,25,2017-09-29 23:01:56,48.88780106859287,2.278072424368198,22014 - HUGO (NEUILLY),OPEN
1061,59 RUE CHABROL - 75010 PARIS,11,2017-09-29 23:00:08,48.87710035109807,2.351222168052346,10020 - CHABROL,OPEN
1062,FACE 2 PLACE LEON BLUM - 92100 ISSY LES MOULINEAUX,20,2017-09-29 23:00:26,48.820955107880074,2.260736413345762,21304 - BLUM (ISSY LES MOULINEAUX),CLOSED
1063,24 RUE DE DUNKERQUE - 75010 PARIS,29,2017-09-29 22:53:52,48.880370620982944,2.352820057031213,10028 - GARE DU NORD DENAN,OPEN
1064,46 RUE BEAUBOURG - 75003 PARIS,18,2017-09-29 22:52:59,48.862464980403914,2.354236781419645,03010 - BEAUBOURG,OPEN
1065,82 AVENUE PARMENTIER - 75011 PARIS,50,2017-09-29 23:00:54,48.864541626812056,2.375195196724585,11105 - REPUBLIQUE PARMENTIER,OPEN
1066,27 AVENUE MATIGNON - 75008 PARIS,53,2017-09-29 22:54:19,48.871476421300954,2.313885419949291,08032 - MATIGNON,OPEN
1067,73 RUE CLAUDE DECAEN - 75012 PARIS,27,2017-09-29 23:01:24,48.83761417037952,2.397253782195704,12111 - DECAEN CANNEBIERE,OPEN
1068,FACE 23 BD RICHARD LENOIR - 75011 PARIS,33,2017-09-29 22:56:01,48.856870467758306,2.370554639861521,11033 - BREGUET SABIN,OPEN
1069,174 RUE SAINT JACQUES - 75005 PARIS,13,2017-09-29 22:55:43,48.84651692058683,2.343123803367338,05006 - SAINT JACQUES SOUFFLOT,OPEN
1070,153 RUE DE SILLY - 92100 BOULOGNE BILLANCOURT,23,2017-09-29 22:59:41,48.832274660165,2.2340164013498,21011 - SILLY (BOULOGNE BILLANCOURT),OPEN
1071,41 RUE D'AUBERVILLIERS - 75018 PARIS,20,2017-09-29 22:53:25,48.88702120343877,2.366886248240863,18039 - EOLE,OPEN
1072,12 RUE JEAN FRANCOIS LEPINE - 75018 PARIS,22,2017-09-29 23:00:58,48.88611466796807,2.356855627529275,18009 - LEPINE,OPEN
1073,BOULEVARD CHARLES DE GAULLE (STATION DE METRO) - 92240 MALAKOFF,53,2017-09-29 23:00:10,48.822528306004045,2.298631654119718,22401 - DE GAULLE (MALAKOFF),OPEN
1074,12 RUE DES MATHURINS - 75009 PARIS,40,2017-09-29 22:57:32,48.872971251927126,2.329465611700831,09032 - MATHURINS,OPEN
1075,1 RUE DE BASSANO - 75016 PARIS,15,2017-09-29 22:54:35,48.868144510482075,2.296149600985935,16015 - RUE DE BASSANO,OPEN
1076,86 AVENUE DU GENERAL DE GAULLE - 94160 SAINT MANDE,24,2017-09-29 23:00:34,48.8390304317692,2.41741043540351,41601 - GENERAL DE GAULLE (SAINT MANDE),OPEN
1077,162 RUE DE PARIS - 92100 BOULOGNE-BILLANCOURT,26,2017-09-29 22:56:48,48.84159702890181,2.233496775544275,21006 - PARIS (BOULOGNE-BILLANCOURT),OPEN
1078,2 RUE ARTHUR RANC - 75018 PARIS,25,2017-09-29 22:56:08,48.89801434321367,2.333653376162832,18112 - HÔPITAL BICHAT,OPEN
1079,23 RUE BARA - 92130 ISSY LES MOULINEAUX,36,2017-09-29 22:58:25,48.83363,2.26853,21308 - BARA (ISSY LES MOULINEAUX),OPEN
1080,FACE 15 RUE PAUL KLEE - 75013 PARIS,45,2017-09-29 23:01:04,48.83908421830948,2.370532330985574,13020 - MENDES FRANCE,OPEN
1081,FACE 172-174 BOULEVARD FELIX FAURE - 93300 AUBERVILLIERS,28,2017-09-29 23:02:18,48.9113936890419,2.375281319974922,33011 - FAURE (AUBERVILLIERS),OPEN
1082,56 AVENUE DE FLANDRE - 75019 PARIS,20,2017-09-29 22:56:07,48.888013281448345,2.373759595522922,19005 - RIQUET,OPEN
1083,76 RUE TRAVERSIERE - 75012 PARIS,33,2017-09-29 23:02:14,48.850735824128805,2.375870111706245,12004 - TRAVERSIERE,OPEN
1084,6 PLACE JEAN JAURES / RUE MAURICE ARNOUX ET RUE CAMILLE PELLETIN - 92120 MONTROUGE,22,2017-09-29 22:59:58,48.816290677003934,2.311279543410485,21201 - JAURES (MONTROUGE),OPEN
1085,8 RUE DU CENTENAIRE - 93100 MONTREUIL,45,2017-09-29 22:58:27,48.85845965431733,2.427390310720301,31013 - CENTENAIRE (MONTREUIL),OPEN
1086,40 RUE DES SABLONS - 75016 PARIS,35,2017-09-29 22:56:49,48.86387513126816,2.281890736577358,16108 - SABLONS,OPEN
1087,167 RUE NATIONALE - 75013 PARIS,33,2017-09-29 22:59:56,48.83252708397293,2.362354410392119,13017 - NATIONALE,OPEN
1088,177 AVENUE GAMBETTA - 75020 PARIS,24,2017-09-29 22:56:06,48.8712659183557,2.40395075220876,20037 - SAINT FARGEAU,OPEN
1089,42 RUE VIVIENNE - 75002 PARIS,38,2017-09-29 23:01:10,48.871242274166406,2.341394999257386,02108 - VIVIENNE,OPEN
1090,89 TER RUE DE CHARENTON - 75012 PARIS,19,2017-09-29 22:52:36,48.848175129981016,2.376358449431232,12101 - CHARENTON PRAGUE,OPEN
1091,2 RUE ALFRED DE VIGNY - 75008 PARIS,33,2017-09-29 23:02:05,48.87836138361425,2.305254448220567,08044 - VAN DYCK,OPEN
1092,67-69 RUE DE STALINGRAD - 93100 MONTREUIL,44,2017-09-29 23:01:06,48.85681112307105,2.444987425339264,31010 - STALINGRAD (MONTREUIL),OPEN
1093,AVENUE DAVID WEIL - 75014 PARIS,24,2017-09-29 22:54:50,48.821111770492195,2.333785290429607,14124 - PORTE D'ARCUEIL,OPEN
1094,9 BOULEVARD DE L'HOPITAL - 75013 PARIS,19,2017-09-29 22:57:46,48.84183617360056,2.363468636860069,13514 - GARE D'AUSTERLITZ 2,OPEN
1095,FACE 54 RUE DE CHALON - 75012 PARIS,50,2017-09-29 23:00:09,48.84568897556758,2.374203690051493,12007 - GARE DE LYON CHALON,OPEN
1096,141 BD SAINT GERMAIN - 75006 PARIS,18,2017-09-29 23:02:33,48.85330527759475,2.334465461882703,06012 - SAINT GERMAIN COPEAU,OPEN
1097,39 RUE DES ECOLES - 75005 PARIS,37,2017-09-29 22:58:48,48.848919007908286,2.347201329520476,05007 - ECOLES CARMES,OPEN
1098,93 RUE DE SILLY - 92100 BOULOGNE-BILLANCOURT,25,2017-09-29 22:57:45,48.83550440751353,2.232531432424099,21010 - SILLY (BOULOGNE-BILLANCOURT),OPEN
1099,20 RUE DES PIROGUES DE BERCY - 75012 PARIS,48,2017-09-29 23:02:31,48.83230838936651,2.386370278568759,12034 - PIROGUES DE BERCY,OPEN
1100,51 avenue de Fontainebleau - 94270 Le Kremlin-Bicetre,25,2017-09-29 22:57:09,48.8123678293798,2.36180984825322,42707 - OKABE (LE KREMLIN-BICETRE),OPEN
1101,24 RUE DE THIONVILLE - 75019 PARIS,21,2017-09-29 23:01:32,48.88915491757438,2.383375417280365,19015 - THIONVILLE,OPEN
1102,RUE VERCINGETORIX - 75014 PARIS,24,2017-09-29 22:55:04,48.827989487366,2.30567210645885,14024 - RAYMOND LOSSERAND,OPEN
1103,3 RUE LOBAU - 75004 PARIS,60,2017-09-29 23:01:30,48.856246721700735,2.353281344612189,04016 - LOBAU,OPEN
1104,DEV 71 BOULEVARD DE VAUGIRARD - 75015 PARIS,21,2017-09-29 22:58:16,48.8405958674037,2.315363038202961,15004 - VAUGIRARD PASTEUR,OPEN
1105,5 RUE PIERRE SARAZIN - 75006 PARIS,34,2017-09-29 22:55:40,48.85083365440354,2.342198228067738,06031 - SAINT MICHEL SARRAZIN,OPEN
1106,3-5 BOULEVARD NEY - 75018 PARIS,68,2017-09-29 23:00:07,48.8984521733198,2.36960946333546,18049 - PTE D'AUBERVILLIERS,OPEN
1107,FACE AU 99 AVENUE CHARLES DE GAULLE - 92200 NEUILLY SUR SEINE,26,2017-09-29 22:59:08,48.88119,2.27186,22009 - DE GAULLE 2 (NEUILLY),OPEN
1108,1 RUE GUILLAUME TELL / FACE AU 64 BENJAMIN DELESSERT- 93500 PANTIN,24,2017-09-29 22:54:06,48.889488420014786,2.419848968734546,35013 - TELL (PANTIN),OPEN
1109,142 BD CHARONNE - 75020 PARIS,33,2017-09-29 22:53:27,48.85599402,2.39490886,20014 - CHARONNE - ALEXANDRE DUMAS,OPEN
1110,2 RUE ALIBERT - 75010 PARIS,59,2017-09-29 22:52:53,48.87113994970465,2.36628044396993,10013 - SAINT LOUIS,OPEN
1111,FACE 4 BD EDGAR QUINET - 75014 PARIS,44,2017-09-29 22:59:51,48.839199167158384,2.32955509720774,14002 - RASPAIL QUINET,OPEN
1112,FACE AU 11 AVENUE PAUL DOUMER - 94110 ARCUEIL,25,2017-09-29 22:54:56,48.806380010297374,2.336710402545291,41101 - DOUMER (ARCUEIL),OPEN
1113,AVENUE DE LA PORTE DE GENTILLY - 75013 PARIS,15,2017-09-29 23:00:26,48.81625825722598,2.344181922989554,13027 - MAZAGRAND COUBERTIN,OPEN
1114,104 RUE DU CHEVALERET - 75013 PARIS,38,2017-09-29 23:02:08,48.8326516,2.3710347,13015 - CHEVALERET - LOUISE WEISS,OPEN
1115,ANGLE RUE BORDIER ET BOULEVARD FELIX FAURE  - 93300 AUBERVILLIERS,45,2017-09-29 23:01:44,48.903964024558526,2.383125490914395,33003 - FAURE (AUBERVILLIERS),OPEN
1116,ROND POINT HENRI BARBUSSE - 92240 MALAKOFF,25,2017-09-29 22:54:47,48.81467965888627,2.287400457411747,22407 - BARBUSSE (MALAKOFF),OPEN
1117,50 BIS RUE DOUAI - 75009 PARIS,27,2017-09-29 23:00:57,48.88320784122797,2.330849949028507,09038 - SQUARE BERLIOZ,OPEN
1118,81 RUE GUY MOQUET - 92240 MALAKOFF,23,2017-09-29 23:01:58,48.81524985420581,2.298000156576173,22406 - MOQUET (MALAKOFF),OPEN
1119,12 rue Larmeroux 92170 Vanves,28,2017-09-29 22:57:41,48.8169399112916,2.28098948048455,21701 - LARMEROUX (VANVES),OPEN
1120,03 RUE DES FOSSES SAINT BERNARD - 75005 PARIS,21,2017-09-29 22:58:41,48.849159689167834,2.356140327475379,05020 - PONT DE SULLY RIVE GAUCHE,OPEN
1121,28 RUE POULET - 75018 PARIS,17,2017-09-29 23:00:28,48.88778177066001,2.350517738222509,18013 - CHATEAU ROUGE,OPEN
1122,12 AVENUE DE LA PORTE DE CLICHY - 75017 PARIS,34,2017-09-29 22:52:47,48.896787395899615,2.310714419009491,17014 - PORTE DE CLICHY - AVENUE DE CLICHY,OPEN
1123,FACE 70 RUE EDOUARD VAILLANT - 93170 BAGNOLET,49,2017-09-29 22:54:49,48.85839567854653,2.414860628003844,31707 - VAILLANT (BAGNOLET),OPEN
1124,165 RUE SAINT HONORE - 75001 PARIS,22,2017-09-29 22:57:52,48.86349701996373,2.334846327550268,01023 - ANDRE MALRAUX MUSEE DU LOUVRE,OPEN
1125,QUAI DE GRENELLE - 75015 PARIS,23,2017-09-29 23:01:00,48.851167240679665,2.284607607567737,15102 - SQUARE BELA BARTOK,OPEN
1126,20 RUE SAINT ROMAIN - 75006 PARIS,16,2017-09-29 22:59:52,48.84703008062633,2.321289421006791,06108 - SAINT ROMAIN CHERCHE MIDI,OPEN
1127,11 RUE DE LA BANQUE - 75002 PARIS,29,2017-09-29 23:02:24,48.867293262819686,2.340563686363604,02008 - MAIRIE DU 2EME,OPEN
1128,157-165 AVENUE DE VERDUN - 94200 IVRY,50,2017-09-29 23:02:22,48.807259280597854,2.375130199053175,42009 - VERDUN (IVRY),OPEN
1129,58 RUE SARRETTE - 75014 PARIS,22,2017-09-29 22:59:29,48.82503085292528,2.326412869398186,14019 - SARETTE GENERAL LECLERC,OPEN
1130,18 RUE BREA - 75006 PARIS,23,2017-09-29 22:55:27,48.842738478257814,2.329794221763396,06007 - VAVIN,OPEN
1131,124 AVENUE PARMENTIER - 75011 PARIS,47,2017-09-29 22:56:43,48.86787670551736,2.372705978671471,11034 - PARMENTIER FONTAINE AU ROI,OPEN
1132,5 PLACE DES TERNES - 75017 PARIS,43,2017-09-29 22:53:28,48.878410386482805,2.297831064713626,17045 - PLACE DES TERNES - 5,OPEN
1133,118 RUE DU POINT DU JOUR - 92100 BOULOGNE BILLANCOURT,25,2017-09-29 23:02:10,48.828753141436465,2.245911467014621,21016 - POINT DU JOUR (BOULOGNE-BILLANCOURT),OPEN
1134,FACE 20 RUE GUILLAUME BERTRAND - 75011 PARIS,36,2017-09-29 22:54:51,48.86382517434147,2.38090637715497,11028 - BLUETS REPUBLIQUE,OPEN
1135,Voie Georges Pompidou - 75004 PARIS,20,2017-09-29 23:02:29,48.855843,2.3507829,00909 - PONT D'ARCOLE (STATION MOBILE),OPEN
1136,CHEMIN DE LA CEINTURE DU LAC INTERIEUR / AVENUE DE SAINT CLOUD - 75016 PARIS,42,2017-09-29 23:02:00,48.862081867033794,2.261746386041142,16129 - BOIS DE BOULOGNE / PORTE DE LA MUETTE 1,OPEN
1137,112 BD DE L'HOPITAL - 75013 PARIS,15,2017-09-29 22:58:03,48.8354057129538,2.35821834503044,13011 - CAMPO FORMIO,OPEN
1138,44 RUE VASCO DE GAMA - 75015 PARIS,53,2017-09-29 22:56:22,48.836709496490144,2.283692380806422,15055 - VASCO DE GAMA,OPEN
1139,29 RUE DES RECOLLETS - 75010 PARIS,16,2017-09-29 22:59:06,48.875034655883944,2.359801238597928,10016 - VILLEMIN,OPEN
1140,FACE AU 4 AVENUE GARIBALDI / AVENUE GABRIEL PERI - 93400 SAINT OUEN,25,2017-09-29 23:00:18,48.9057350760539,2.33149745979217,34008 - GARIBALDI (SAINT OUEN),OPEN
1141,FACE 4 BOULEVARD DE REUILLY - 75012 PARIS,55,2017-09-29 23:02:33,48.83884902339515,2.389724508120191,12029 - DUGOMMIER,OPEN
1142,44 RUE ADRIEN LESENNE - 93400 SAINT OUEN,25,2017-09-29 23:00:02,48.902553278222726,2.348274936304947,34005 - LESENNE (SAINT OUEN),OPEN
1143,5 RUE MOUTON DUVERNET - 75014 PARIS,38,2017-09-29 22:53:21,48.831506675674554,2.329319363216664,14008 - MOUTON DUVERNET,OPEN
1144,PLACE DES NATIONS UNIES - 92110 CLICHY,25,2017-09-29 23:02:33,48.89710985013293,2.309900498213689,21102 - NATIONS UNIES (CLICHY),OPEN
1145,"4 au 8 et 7bis, rue Michel Chasles - 75012 PARIS",60,2017-09-29 22:57:54,48.846375552301,2.37390484660864,12152 - MICHEL CHASLES - GARE DE LYON,OPEN
1146,24 RUE D'ASSAS 75006 PARIS,35,2017-09-29 22:54:40,48.8484688639545,2.32899674681117,06030 - ASSAS-VAUGIRARD,OPEN
1147,21 RUE PELEE - 75011 PARIS,47,2017-09-29 22:57:44,48.8600393112308,2.37098437423996,11103 - RICHARD LENOIR,OPEN
1148,43 AVENUE DE SAINT MANDE - 75012 PARIS,34,2017-09-29 22:53:13,48.8451282937943,2.40140070766687,12016 - PICPUS,OPEN
1149,FACE 3 AVENUE MONTAIGNE - 75008 PARIS,57,2017-09-29 22:58:50,48.86492098253841,2.302549182385926,08045 - ALMA,OPEN
1150,50 RUE VIEILLE DU TEMPLE - 75004 PARIS,27,2017-09-29 22:59:40,48.85851071299225,2.358633579117469,04013 - FRANCS BOURGEOIS,OPEN
1151,2-4 PLACE TRISTAN BERNARD - 75017 PARIS,27,2017-09-29 22:59:16,48.87949288672707,2.291498184912626,17036 - AVENUE DE TERNES,OPEN
1152,35/37 RUE CARNOT - 93100 MONTREUIL,25,2017-09-29 22:52:40,48.85581031101047,2.441520442445324,31012 - CARNOT (MONTREUIL),OPEN
1153,2 RUE LACHARRIERE - 75011 PARIS,37,2017-09-29 22:58:25,48.86082070611917,2.375636525867217,11041 - SAINT AMBROISE,OPEN
1154,157 ANATOLE FRANCE - 92300 LEVALLOIS,50,2017-09-29 22:59:36,48.8983498515127,2.27917948878684,23002 - FRANCE (LEVALLOIS),OPEN
1155,FACE AU 7 RUE DANTON 75006 PARIS,21,2017-09-29 23:00:38,48.8523930093114,2.34144252246847,06016 - DANTON,OPEN
1156,FACE 279 BOULEVARD PEREIRE - 75017 PARIS,37,2017-09-29 22:57:04,48.877750033418835,2.284444356553717,17042 - PORTE MAILLOT,OPEN
1157,116 AVENUE DE CHOISY - 75013 PARIS,22,2017-09-29 22:53:47,48.825970136397075,2.360231840755094,13035 - IVRY TOLBIAC,OPEN
1158,110 RUE DE BAGNOLET - 75020 PARIS,28,2017-09-29 22:53:23,48.8597776444599,2.40344426132457,20048 - BAGNOLET,OPEN
1159,1  3 RUE DAUNOU - 75002 PARIS,16,2017-09-29 22:58:25,48.8691131525953,2.3325151052685,02014 - SAINT AUGUSTIN,OPEN
1160,23 RUE DES PLANTES - 75014 PARIS,45,2017-09-29 22:54:29,48.83014719579205,2.323313445980224,14026 - PLANTES MOULIN VERT,OPEN
1161,2 rue de Chézy - 92200 NEUILLY,31,2017-09-29 23:02:25,48.885140053090865,2.267800008253524,22013 - SAINTE FOY (NEUILLY),OPEN
1162,ANGLE AVENUE DES CHARMES / AVENUE FOCH - 94120 FONTENAY SOUS BOIS,65,2017-09-29 22:56:29,48.84367434144252,2.46308263962204,41202 - CHARMES (FONTENAY SOUS BOIS),OPEN
1163,Pace du 8 mais 45 (devant la Gare SNCF)  - 92300 LEVALLOIS,25,2017-09-29 22:53:39,48.896746,2.2982307,23005 - GARE DE CLICHY LEVALLOIS,OPEN
1164,73 BIS BOULEVARD EXELMANS - 75016 PARIS,33,2017-09-29 22:58:10,48.843104494735165,2.259821391742079,16040 - EXELMANS,OPEN
1165,176 RUE DE LA ROQUETTE - 75011 PARIS,52,2017-09-29 23:02:02,48.8592429763213,2.386593289210004,11110 - SQUARE ROQUETTE,OPEN
1166,11 RUE FAIDHERBE - 75011 PARIS,46,2017-09-29 22:55:15,48.851532005340125,2.38372328828755,11107 - BIBLIOTHEQUE FAIDHERBE,OPEN
1167,75 RUE DE MONCEAU - 75008 PARIS,37,2017-09-29 22:54:30,48.87960645718048,2.314553524187054,08037 - MALSHERBES MONCEAU,OPEN
1168,AVENUE DE LA PORTE DE LA PLAINE - 75015 PARIS,36,2017-09-29 22:58:25,48.828174936365855,2.292587522548244,15045 - PLAINE,OPEN
1169,1 RUE FRANCOEUR - 75018 PARIS,32,2017-09-29 22:59:53,48.89002290339246,2.342450012678194,18016 - FRANCOEUR CAULAINCOURT,OPEN
1170,28 Bd de la République 92100 BOULOGNE BILLANCOURT,28,2017-09-29 23:02:17,48.83199981539791,2.253719988007252,21020 - REPUBLIQUE 2 (BOULOGNE-BILLANCOURT),OPEN
1171,45 & 48 RUE RIQUET - 75019 PARIS,18,2017-09-29 23:01:54,48.889351453486974,2.370774488055213,19002 - TANGER,OPEN
1172,10 RUE VERNET - 75008 PARIS,21,2017-09-29 23:00:17,48.87134532710352,2.300186572268202,08115 - BASSANO,OPEN
1173,PLACE DE LA PORTE MOLITOR - 75016 PARIS,60,2017-09-29 22:59:42,48.84524431387353,2.256939537401627,16036 - PORTE MOLITOR,OPEN
1174,2 BOULEVARD AURELLE DE PALADINES - 75017 PARIS,22,2017-09-29 23:02:16,48.881725659667424,2.283682661669767,17104 - GENERAL KOENIG,OPEN
1175,22 RUE EURYALE DEHAYNIN - 75019 PARIS,30,2017-09-29 22:57:22,48.88630005108641,2.377388863133627,19117 - EURYALE DEHAYNIN,OPEN
1176,60 RUE VILLIERS DE L'ISLE ADAM - 75020 PARIS,20,2017-09-29 22:56:35,48.867362297165805,2.396222890988687,20111 - L'ISLE ADAM PYRENÉES,OPEN
1177,FACE 39 BOULEVARD DE LA CHAPELLE - 75010 PARIS,14,2017-09-29 23:00:09,48.88414119396773,2.356109465877721,10041 - CHARTRES (18 ARR.),OPEN
1178,28 / 30 RUE BOTZARIS - 75019 PARIS,19,2017-09-29 22:56:09,48.8779512535706,2.381464662877906,19024 - BUTTES CHAUMONT,OPEN
1179,"108, avenue Daumesnil - 75012 PARIS",40,2017-09-29 22:56:34,48.8429,2.38474,12043 - DAUMESNIL HEBRARD,OPEN
1180,6-8 RUE VILLENEUVE - 92110 CLICHY,50,2017-09-29 22:59:08,48.903621012155874,2.306228565729878,21108 - VILLENEUVE 2 (CLICHY),OPEN
1181,ROUTE DOM PERIGNON - 75012 PARIS,50,2017-09-29 22:53:54,48.82558443109317,2.409830941796777,12119 - DOM PÉRIGNON GRAVELLE,OPEN
1182,132 RUE DU PRESIDENT WILSON - 92300 LEVALLOIS,25,2017-09-29 22:58:36,48.89834000227244,2.285089933584791,23003 - WILSON (LEVALLOIS),OPEN
1183,52 RUE RAFFET - 75016 PARIS,41,2017-09-29 22:55:58,48.852618846108584,2.262930039103354,16115 - RAFFET,OPEN
1184,52-54 RUE PERGOLÈSE - 75016 PARIS,27,2017-09-29 23:01:48,48.87356870686902,2.281512522529856,16102 - PERGOLÈSE/ MARBEAU,OPEN
1185,68 RUE LOUIS LUMIERE - 75020 PARIS,22,2017-09-29 23:02:35,48.86216198070008,2.41112578185621,20104 - RUE LOUIS LUMIÈRE,OPEN
1186,10 RUE LOUIS BLANC - 75010 PARIS,31,2017-09-29 22:58:05,48.879332174655,2.36862871574876,10110 - LOUIS BLANC,OPEN
1187,AV. DE LA PORTE DE MONTROUGE - 75014 PARIS,54,2017-09-29 22:54:28,48.821216789689345,2.321173502143062,14020 - PORTE DE MONTROUGE,OPEN
1188,RUE ALEXANDER FLEMMING - 75019 PARIS,31,2017-09-29 23:02:27,48.881769793858254,2.403179367969562,19124 - ALEXANDER FLEMMING,OPEN
1189,8 RUE SAINT MARC - 75002 PARIS,37,2017-09-29 22:58:03,48.870314763994976,2.341878566630611,02102 - SAINT MARC,OPEN
1190,42 RUE LE BRUN - 75013 PARIS,48,2017-09-29 22:58:04,48.835092787823875,2.353468135133752,13007 - LE BRUN GOBELINS,OPEN
1191,169 AVENUE LEDRU ROLLIN - 75011 PARIS,37,2017-09-29 23:02:11,48.856433706943704,2.379020587761426,11006 - LEDRU ROLLIN-BASFROI,OPEN
1192,100 RUE DES ORTEAUX - 75020 PARIS,23,2017-09-29 22:57:43,48.85558642847872,2.408762907764669,20118 - ORTEAUX MOURAUD,OPEN
1193,82 RUE SEDAINE - 75011 PARIS,51,2017-09-29 22:56:53,48.85882890841428,2.378871327120361,11024 - BOULEVARD VOLTAIRE,OPEN
1194,PLACE ROBERT GUILLEMARD - 75015 PARIS,23,2017-09-29 22:53:39,48.83621036148383,2.281039381009245,15110 - PLACE ROBERT GUILLEMARD,OPEN
1195,ROUTE DE LA MUETTE A NEUILLY - 75016 PARIS,50,2017-09-29 23:01:31,48.880079643111614,2.258576589883702,16122 - MUETTE NEUILLY,OPEN
1196,FACE 3 RUE DU CHAMP DE MARS - 75007 PARIS,57,2017-09-29 22:57:52,48.85664110011817,2.306598534111823,07020 - CLER,OPEN
1197,120 AVENUE GENERAL DE GAULLE - 94160 SAINT MANDE,22,2017-09-29 23:01:02,48.83608867952291,2.418907594723682,41605 - GENERAL DE GAULLE 2 (SAINT MANDE),OPEN
1198,Route de Sèvres à Neuilly - 75016 PARIS,66,2017-09-29 22:57:32,48.875095937895146,2.24921698799858,16124 - SÈVRES NEUILLY,OPEN
1199,20 RUE DU COMMERCE - 75015 PARIS,42,2017-09-29 23:02:33,48.8479921934615,2.29668168569178,15123 - RUE DU COMMERCE,OPEN
1200,22 RUE CUJAS - 75005 PARIS,19,2017-09-29 22:57:20,48.84819134858432,2.34183165485398,05106 - CUJAS,OPEN
1201,26 BOULEVARD DU CHATEAU - 92200 NEUILLY,25,2017-09-29 22:53:56,48.89051191347665,2.270167225273174,22001 - CHATEAU (NEUILLY),OPEN
1202,45 AVENUE DU GENERAL MICHEL BIZOT - 75012 PARIS,38,2017-09-29 22:58:23,48.83481262982544,2.400927788127704,12039 - DECAEN,OPEN
1203,2/4 PLACE DE LA REPUBLIQUE - 93100 MONTREUIL,27,2017-09-29 23:00:34,48.85375961633593,2.424445808011069,31006 - REPUBLIQUE 2 (MONTREUIL),OPEN
1204,35 RUE MOLITOR - 75016 PARIS,52,2017-09-29 22:57:14,48.845182081538034,2.26211277356597,16037 - MOLITOR - MICHEL ANGE,OPEN
1205,1 RUE CHABANAIS - 75002 PARIS,28,2017-09-29 23:02:02,48.867123446448645,2.336686608238879,02007 - CHABANAIS,OPEN
1206,9 RUE COQUILLIERE 75001 PARIS,32,2017-09-29 23:01:14,48.863575,2.3426385,01008 - COQUILLIERE - LOUVRE,OPEN
1207,27 RUE LACEPEDE - 75005 PARIS,23,2017-09-29 22:55:46,48.843860353248765,2.35190222528039,05110 - LACEPEDE,OPEN
1208,160 RUE CHARENTON - 75012 PARIS,36,2017-09-29 22:59:18,48.84486731955409,2.382578935054453,12011 - CHARENTON,CLOSED
1209,8-10 RUE DE DUNKERQUE - 75010 PARIS,26,2017-09-29 22:58:23,48.87963935299516,2.356904958415215,10151 - GARE DU NORD 1,OPEN
1210,1 RUE FRANCOIS PONSARD - 75016 PARIS,23,2017-09-29 23:00:25,48.858427696615,2.274308524144912,16021 - RUE FRANCOIS PONSARD,OPEN
1211,19 Rue Dominique Pado - 75015 PARIS,22,2017-09-29 23:00:21,48.83656,2.28976,15050 - PADO - CROIX NIVERT,OPEN
1212,1 RUE DES PYRENEES - 75020 PARIS,21,2017-09-29 23:01:27,48.847724968984686,2.405907317017889,20503 - COURS DE VINCENNES PYRÉNÉES,OPEN
1213,FACE AU 184 RUE ETIENNE MARCEL - 93170 BAGNOLET,23,2017-09-29 22:58:22,48.857050394743816,2.422549956709779,31709 - MARCEL (BAGNOLET),OPEN
1214,66 RUE DU MOULIN DE LA POINTE - 75013 PARIS,22,2017-09-29 23:01:55,48.821039286989794,2.356345144172923,13110 - MOULIN DE LA POINTE,OPEN
1215,13/15 RUE LEDRU ROLLIN - 92150 SURESNES,24,2017-09-29 22:58:04,48.870920487633555,2.229589352206592,21503 - LEDRU ROLLIN (SURESNES),OPEN
1216,215 RUE SAINT HONORE - 75001 PARIS,20,2017-09-29 23:02:03,48.86557114282421,2.330567417577153,01017 - SAINT HONORE,OPEN
1217,34 RUE GUY MOQUET - 75017 PARIS,37,2017-09-29 23:00:24,48.8920640862454,2.32329134120854,17006 - GUY MOQUET DAVY,OPEN
1218,QUAI VOLTAIRE - 75007 PARIS,32,2017-09-29 22:58:22,48.85894298617901,2.331418204714572,07006 - QUAI VOLTAIRE,OPEN
1219,16 RUE DE LINCOLN - 75008 PARIS,38,2017-09-29 22:56:12,48.87069015790859,2.303222423974782,08041 - CHAMPS ELYSEES LINCOLN,CLOSED
1220,FACE AU 40 BOULEVARD GAMBETTA - 92130 ISSY LES MOULINEAUX,55,2017-09-29 22:57:22,48.827470501735846,2.278549600821535,21311 - GAMBETTA (ISSY LES MOULINEAUX),OPEN
1221,195 RUE DE BELLEVILLE - 75019 PARIS,21,2017-09-29 22:52:35,48.875518068648745,2.392960787279829,19121 - BELLEVILLE PRE SAINT GERVAIS,OPEN
1222,2 RUE CAMBON - 75001 PARIS,40,2017-09-29 23:01:54,48.866285221156055,2.325249045083579,01020 - RIVOLI CONCORDE,OPEN
1223,57 RUE DU CHATEAU D'EAU - 75010 PARIS,19,2017-09-29 23:00:06,48.87242997325711,2.355489390173873,10007 - CHATEAU D'EAU,OPEN
